G90
M82
M106 S0
M140 S60
M190 S60
M104 S210 T0
M109 S210 T0
G92 A0 ; zero extruder
G28 ; home all axes
G1 Z0.4 ; position nozzle
G1 X10 Y10 ; prepare to extrude
G1 X210 Y10 E12.5 F800; Extrude line
M73 P1 ;@body (notify GPX body has started)
; process Process1
; layer 1, Z = 0.196
T0
G92 E0.0000

; --- Generated toolpaths: gen_label1_cylinder_area1.0.gcode ---
; feedrate=800, z_height=0.4, E_per_mm=0.06

; polyline 1
G1 X99.888 Y99.801 Z0.400 F800
G1 X99.638 Y99.651 Z0.400 E0.01749 F800
G1 X99.948 Y99.711 Z0.400 E0.03644 F800
G1 X99.678 Y99.511 Z0.400 E0.05660 F800
G1 X99.968 Y99.651 Z0.400 E0.07592 F800
G1 X99.768 Y99.391 Z0.400 E0.09560 F800
G1 X99.948 Y99.331 Z0.400 E0.10699 F800
G1 X100.058 Y99.641 Z0.400 E0.12672 F800
G1 X100.098 Y99.301 Z0.400 E0.14726 F800
G1 X100.128 Y99.611 Z0.400 E0.16595 F800
G1 X100.208 Y99.301 Z0.400 E0.18516 F800
G1 X100.288 Y99.341 Z0.400 E0.19053 F800
G1 X100.388 Y99.361 Z0.400 E0.19664 F800
G1 X100.198 Y99.671 Z0.400 E0.21846 F800
G1 X100.478 Y99.471 Z0.400 E0.23911 F800
G1 X100.538 Y99.511 Z0.400 E0.24343 F800
G1 X100.238 Y99.731 Z0.400 E0.26575 F800
G1 X100.598 Y99.661 Z0.400 E0.28776 F800
G1 X100.588 Y99.781 Z0.400 E0.29498 F800
G1 X100.348 Y99.801 Z0.400 E0.30943 F800
G1 X100.638 Y99.921 Z0.400 E0.32826 F800
G1 X100.578 Y100.001 Z0.400 E0.33426 F800
G1 X100.278 Y99.901 Z0.400 E0.35324 F800
G1 X100.498 Y100.141 Z0.400 E0.37277 F800
G1 X100.478 Y100.181 Z0.400 E0.37546 F800
G1 X100.238 Y99.951 Z0.400 E0.39540 F800
G1 X100.338 Y100.251 Z0.400 E0.41437 F800
G1 X100.148 Y100.031 Z0.400 E0.43181 F800
G1 X100.178 Y100.311 Z0.400 E0.44871 F800
G1 X100.098 Y100.331 Z0.400 E0.45366 F800
G1 X99.948 Y100.361 Z0.400 E0.46284 F800
G1 X100.038 Y99.991 Z0.400 E0.48568 F800
G1 X99.838 Y100.281 Z0.400 E0.50682 F800
G1 X99.988 Y99.951 Z0.400 E0.52857 F800
G1 X99.768 Y100.191 Z0.400 E0.54811 F800
G1 X99.628 Y100.091 Z0.400 E0.55843 F800
G1 X99.918 Y99.901 Z0.400 E0.57923 F800
G1 X99.588 Y99.981 Z0.400 E0.59960 F800
G1 X99.588 Y99.811 Z0.400 E0.60980 F800
G1 X99.888 Y99.801 Z0.400 E0.62781 F800

; polyline 2
G1 X99.258 Y99.641 Z0.400 F800
G1 X99.268 Y99.611 Z0.400 E0.62971 F800
G1 X99.308 Y99.461 Z0.400 E0.63903 F800
G1 X99.398 Y99.341 Z0.400 E0.64803 F800
G1 X99.518 Y99.221 Z0.400 E0.65821 F800
G1 X99.588 Y99.091 Z0.400 E0.66707 F800
G1 X99.648 Y99.101 Z0.400 E0.67072 F800
G1 X99.658 Y98.741 Z0.400 E0.69232 F800
G1 X99.798 Y99.041 Z0.400 E0.71219 F800
G1 X99.788 Y99.011 Z0.400 E0.71409 F800
G1 X99.948 Y98.981 Z0.400 E0.72385 F800
G1 X100.128 Y98.991 Z0.400 E0.73467 F800
G1 X100.278 Y98.991 Z0.400 E0.74367 F800
G1 X100.448 Y99.001 Z0.400 E0.75389 F800
G1 X100.588 Y99.081 Z0.400 E0.76356 F800
G1 X100.688 Y99.201 Z0.400 E0.77293 F800
G1 X100.738 Y99.251 Z0.400 E0.77718 F800
G1 X100.808 Y99.331 Z0.400 E0.78355 F800
G1 X100.878 Y99.461 Z0.400 E0.79241 F800
G1 X101.228 Y99.581 Z0.400 E0.81461 F800
G1 X100.948 Y99.671 Z0.400 E0.83226 F800
G1 X100.918 Y99.801 Z0.400 E0.84027 F800
G1 X101.248 Y99.821 Z0.400 E0.86010 F800
G1 X100.968 Y99.981 Z0.400 E0.87945 F800
G1 X100.948 Y99.981 Z0.400 E0.88065 F800
G1 X100.908 Y100.111 Z0.400 E0.88881 F800
G1 X101.168 Y100.221 Z0.400 E0.90575 F800
G1 X100.798 Y100.301 Z0.400 E0.92846 F800
G1 X100.708 Y100.411 Z0.400 E0.93699 F800
G1 X100.588 Y100.541 Z0.400 E0.94761 F800
G1 X100.398 Y100.611 Z0.400 E0.95976 F800
G1 X100.308 Y100.951 Z0.400 E0.98086 F800
G1 X100.248 Y100.651 Z0.400 E0.99921 F800
G1 X100.108 Y100.641 Z0.400 E1.00764 F800
G1 X99.928 Y100.671 Z0.400 E1.01858 F800
G1 X99.778 Y100.591 Z0.400 E1.02878 F800
G1 X99.618 Y100.531 Z0.400 E1.03904 F800
G1 X99.288 Y100.631 Z0.400 E1.05973 F800
G1 X99.488 Y100.411 Z0.400 E1.07757 F800
G1 X99.478 Y100.411 Z0.400 E1.07817 F800
G1 X99.408 Y100.261 Z0.400 E1.08810 F800
G1 X99.318 Y100.101 Z0.400 E1.09911 F800
G1 X99.248 Y99.971 Z0.400 E1.10797 F800
G1 X98.938 Y99.831 Z0.400 E1.12838 F800
G1 X99.248 Y99.811 Z0.400 E1.14702 F800
G1 X99.258 Y99.641 Z0.400 E1.15724 F800

; polyline 3
G1 X98.638 Y99.531 Z0.400 F800
G1 X98.918 Y99.561 Z0.400 E1.17413 F800
G1 X98.938 Y99.561 Z0.400 E1.17533 F800
G1 X98.598 Y99.441 Z0.400 E1.19697 F800
G1 X98.998 Y99.381 Z0.400 E1.22123 F800
G1 X98.698 Y99.231 Z0.400 E1.24136 F800
G1 X99.018 Y99.361 Z0.400 E1.26208 F800
G1 X99.118 Y99.161 Z0.400 E1.27550 F800
G1 X98.878 Y98.981 Z0.400 E1.29350 F800
G1 X98.858 Y98.961 Z0.400 E1.29520 F800
G1 X99.008 Y98.761 Z0.400 E1.31020 F800
G1 X99.008 Y98.751 Z0.400 E1.31080 F800
G1 X99.248 Y98.951 Z0.400 E1.32954 F800
G1 X99.258 Y98.571 Z0.400 E1.35235 F800
G1 X99.258 Y98.551 Z0.400 E1.35355 F800
G1 X99.448 Y98.821 Z0.400 E1.37336 F800
G1 X99.498 Y98.431 Z0.400 E1.39695 F800
G1 X99.528 Y98.411 Z0.400 E1.39911 F800
G1 X99.808 Y98.321 Z0.400 E1.41676 F800
G1 X99.828 Y98.311 Z0.400 E1.41810 F800
G1 X99.898 Y98.641 Z0.400 E1.43834 F800
G1 X100.088 Y98.641 Z0.400 E1.44974 F800
G1 X100.088 Y98.621 Z0.400 E1.45094 F800
G1 X100.088 Y98.281 Z0.400 E1.47134 F800
G1 X100.318 Y98.651 Z0.400 E1.49748 F800
G1 X100.338 Y98.651 Z0.400 E1.49868 F800
G1 X100.408 Y98.361 Z0.400 E1.51658 F800
G1 X100.538 Y98.691 Z0.400 E1.53786 F800
G1 X100.648 Y98.421 Z0.400 E1.55535 F800
G1 X100.668 Y98.421 Z0.400 E1.55655 F800
G1 X100.728 Y98.831 Z0.400 E1.58142 F800
G1 X100.928 Y98.531 Z0.400 E1.60305 F800
G1 X100.948 Y98.571 Z0.400 E1.60573 F800
G1 X100.778 Y98.821 Z0.400 E1.62387 F800
G1 X100.778 Y98.831 Z0.400 E1.62447 F800
G1 X101.168 Y98.741 Z0.400 E1.64849 F800
G1 X101.158 Y98.761 Z0.400 E1.64983 F800
G1 X100.938 Y98.981 Z0.400 E1.66850 F800
G1 X101.168 Y98.761 Z0.400 E1.68759 F800
G1 X101.328 Y98.961 Z0.400 E1.70296 F800
G1 X101.088 Y99.141 Z0.400 E1.72096 F800
G1 X101.188 Y99.341 Z0.400 E1.73438 F800
G1 X101.518 Y99.261 Z0.400 E1.75475 F800
G1 X101.278 Y99.571 Z0.400 E1.77827 F800
G1 X101.568 Y99.531 Z0.400 E1.79584 F800
G1 X101.618 Y99.531 Z0.400 E1.79884 F800
G1 X101.568 Y99.551 Z0.400 E1.80207 F800
G1 X101.598 Y99.791 Z0.400 E1.81658 F800
G1 X101.618 Y99.821 Z0.400 E1.81874 F800
G1 X101.278 Y99.821 Z0.400 E1.83914 F800
G1 X101.578 Y100.111 Z0.400 E1.86418 F800
G1 X101.238 Y100.051 Z0.400 E1.88490 F800
G1 X101.598 Y100.131 Z0.400 E1.90702 F800
G1 X101.488 Y100.351 Z0.400 E1.92178 F800
G1 X101.178 Y100.281 Z0.400 E1.94085 F800
G1 X101.438 Y100.401 Z0.400 E1.95803 F800
G1 X101.368 Y100.611 Z0.400 E1.97131 F800
G1 X101.068 Y100.481 Z0.400 E1.99093 F800
G1 X100.988 Y100.611 Z0.400 E2.00009 F800
G1 X100.938 Y100.621 Z0.400 E2.00315 F800
G1 X101.178 Y100.861 Z0.400 E2.02351 F800
G1 X101.148 Y100.841 Z0.400 E2.02567 F800
G1 X100.758 Y100.781 Z0.400 E2.04935 F800
G1 X100.928 Y101.041 Z0.400 E2.06799 F800
G1 X100.708 Y100.801 Z0.400 E2.08752 F800
G1 X100.578 Y100.901 Z0.400 E2.09736 F800
G1 X100.568 Y100.921 Z0.400 E2.09871 F800
G1 X100.548 Y100.911 Z0.400 E2.10005 F800
G1 X100.658 Y101.211 Z0.400 E2.11922 F800
G1 X100.338 Y100.991 Z0.400 E2.14252 F800
G1 X100.398 Y101.301 Z0.400 E2.16146 F800
G1 X100.308 Y101.011 Z0.400 E2.17968 F800
G1 X100.128 Y101.011 Z0.400 E2.19048 F800
G1 X100.108 Y101.331 Z0.400 E2.20972 F800
G1 X100.098 Y101.331 Z0.400 E2.21032 F800
G1 X99.878 Y100.981 Z0.400 E2.23512 F800
G1 X99.788 Y101.271 Z0.400 E2.25334 F800
G1 X99.558 Y101.181 Z0.400 E2.26816 F800
G1 X99.648 Y100.921 Z0.400 E2.28467 F800
G1 X99.648 Y100.891 Z0.400 E2.28647 F800
G1 X99.268 Y101.061 Z0.400 E2.31145 F800
G1 X99.448 Y100.781 Z0.400 E2.33142 F800
G1 X99.438 Y100.791 Z0.400 E2.33227 F800
G1 X99.048 Y100.861 Z0.400 E2.35604 F800
G1 X98.978 Y100.851 Z0.400 E2.36028 F800
G1 X99.128 Y100.491 Z0.400 E2.38368 F800
G1 X98.838 Y100.671 Z0.400 E2.40416 F800
G1 X98.868 Y100.641 Z0.400 E2.40671 F800
G1 X98.858 Y100.641 Z0.400 E2.40731 F800
G1 X99.098 Y100.441 Z0.400 E2.42605 F800
G1 X98.748 Y100.371 Z0.400 E2.44747 F800
G1 X98.708 Y100.381 Z0.400 E2.44994 F800
G1 X98.998 Y100.261 Z0.400 E2.46877 F800
G1 X98.618 Y100.111 Z0.400 E2.49329 F800
G1 X98.648 Y100.101 Z0.400 E2.49518 F800
G1 X98.918 Y100.041 Z0.400 E2.51178 F800
G1 X98.578 Y99.841 Z0.400 E2.53545 F800
G1 X98.638 Y99.531 Z0.400 E2.55439 F800

; polyline 4
G1 X96.268 Y90.551 Z0.400 F800
G1 X100.098 Y89.801 Z0.400 E2.78856 F800
G1 X102.078 Y89.971 Z0.400 E2.90779 F800
G1 X103.928 Y90.561 Z0.400 E3.02430 F800
G1 X105.598 Y91.591 Z0.400 E3.14203 F800
G1 X107.168 Y92.751 Z0.400 E3.25915 F800
G1 X108.288 Y94.351 Z0.400 E3.37633 F800
G1 X109.188 Y96.031 Z0.400 E3.49069 F800
G1 X109.918 Y97.861 Z0.400 E3.60890 F800
G1 X110.108 Y99.801 Z0.400 E3.72586 F800
G1 X109.768 Y101.741 Z0.400 E3.84403 F800
G1 X109.238 Y103.571 Z0.400 E3.95834 F800
G1 X108.378 Y105.391 Z0.400 E4.07912 F800
G1 X107.158 Y106.861 Z0.400 E4.19374 F800
G1 X105.658 Y108.151 Z0.400 E4.31244 F800
G1 X103.888 Y108.891 Z0.400 E4.42755 F800
G1 X102.068 Y109.641 Z0.400 E4.54566 F800
G1 X100.118 Y109.821 Z0.400 E4.66316 F800
G1 X98.178 Y109.501 Z0.400 E4.78113 F800
G1 X96.318 Y108.871 Z0.400 E4.89896 F800
G1 X94.538 Y108.141 Z0.400 E5.01439 F800
G1 X93.028 Y106.891 Z0.400 E5.13201 F800
G1 X90.838 Y103.641 Z0.400 E5.36715 F800
G1 X90.438 Y101.701 Z0.400 E5.48600 F800
G1 X90.238 Y99.851 Z0.400 E5.59764 F800
G1 X90.288 Y97.881 Z0.400 E5.71588 F800
G1 X91.008 Y96.041 Z0.400 E5.83443 F800
G1 X91.928 Y94.351 Z0.400 E5.94988 F800
G1 X93.108 Y92.821 Z0.400 E6.06581 F800
G1 X94.518 Y91.491 Z0.400 E6.18211 F800
G1 X96.268 Y90.551 Z0.400 E6.30130 F800

; polyline 5
G1 X90.288 Y97.881 Z0.400 F800
G1 X90.728 Y97.921 Z0.400 E6.32781 F800
G1 X91.008 Y96.041 Z0.400 E6.44185 F800
G1 X91.928 Y94.351 Z0.400 E6.55730 F800
G1 X93.108 Y92.821 Z0.400 E6.67323 F800
G1 X94.518 Y91.491 Z0.400 E6.78953 F800
G1 X94.528 Y91.501 Z0.400 E6.79038 F800
G1 X94.758 Y91.731 Z0.400 E6.80990 F800
G1 X96.408 Y90.891 Z0.400 E6.92099 F800
G1 X96.268 Y90.551 Z0.400 E6.94305 F800
G1 X98.188 Y90.211 Z0.400 E7.06004 F800
G1 X100.098 Y89.801 Z0.400 E7.17725 F800
G1 X100.118 Y90.131 Z0.400 E7.19709 F800
G1 X101.988 Y90.291 Z0.400 E7.30970 F800
G1 X102.078 Y89.971 Z0.400 E7.32964 F800
G1 X103.788 Y90.841 Z0.400 E7.44476 F800
G1 X103.928 Y90.561 Z0.400 E7.46354 F800
G1 X105.598 Y91.591 Z0.400 E7.58127 F800
G1 X107.168 Y92.751 Z0.400 E7.69839 F800
G1 X108.288 Y94.351 Z0.400 E7.81557 F800
G1 X109.188 Y96.031 Z0.400 E7.92993 F800
G1 X109.918 Y97.861 Z0.400 E8.04814 F800
G1 X110.108 Y99.801 Z0.400 E8.16510 F800
G1 X109.768 Y101.741 Z0.400 E8.28327 F800
G1 X109.238 Y103.571 Z0.400 E8.39758 F800
G1 X108.158 Y105.241 Z0.400 E8.51691 F800
G1 X108.378 Y105.391 Z0.400 E8.53289 F800
G1 X106.978 Y106.641 Z0.400 E8.64550 F800
G1 X107.158 Y106.861 Z0.400 E8.66255 F800
G1 X105.488 Y107.861 Z0.400 E8.77934 F800
G1 X105.658 Y108.151 Z0.400 E8.79951 F800
G1 X103.888 Y108.891 Z0.400 E8.91462 F800
G1 X102.018 Y109.291 Z0.400 E9.02936 F800
G1 X102.068 Y109.641 Z0.400 E9.05057 F800
G1 X100.118 Y109.821 Z0.400 E9.16807 F800
G1 X100.078 Y109.491 Z0.400 E9.18801 F800
G1 X98.178 Y109.501 Z0.400 E9.30202 F800
G1 X96.318 Y108.871 Z0.400 E9.41984 F800
G1 X94.538 Y108.141 Z0.400 E9.53528 F800
G1 X94.698 Y107.891 Z0.400 E9.55309 F800
G1 X93.028 Y106.891 Z0.400 E9.66988 F800
G1 X93.238 Y106.671 Z0.400 E9.68812 F800
G1 X91.948 Y105.241 Z0.400 E9.80368 F800
G1 X90.838 Y103.641 Z0.400 E9.92052 F800
G1 X90.438 Y101.701 Z0.400 E10.03937 F800
G1 X90.238 Y99.851 Z0.400 E10.15101 F800
G1 X90.288 Y97.881 Z0.400 E10.26925 F800

; polyline 6
G1 X91.028 Y99.801 Z0.400 F800
G1 X91.648 Y96.351 Z0.400 E10.47957 F800
G1 X92.328 Y94.661 Z0.400 E10.58887 F800
G1 X93.478 Y93.221 Z0.400 E10.69944 F800
G1 X94.898 Y92.031 Z0.400 E10.81060 F800
G1 X96.508 Y91.211 Z0.400 E10.91901 F800
G1 X98.248 Y90.611 Z0.400 E11.02944 F800
G1 X98.338 Y90.931 Z0.400 E11.04938 F800
G1 X100.058 Y90.451 Z0.400 E11.15653 F800
G1 X100.068 Y90.761 Z0.400 E11.17514 F800
G1 X101.858 Y90.941 Z0.400 E11.28308 F800
G1 X101.938 Y90.631 Z0.400 E11.30229 F800
G1 X103.668 Y91.201 Z0.400 E11.41158 F800
G1 X105.288 Y92.001 Z0.400 E11.51998 F800
G1 X105.148 Y92.291 Z0.400 E11.53931 F800
G1 X106.838 Y93.081 Z0.400 E11.65124 F800
G1 X107.898 Y94.631 Z0.400 E11.76390 F800
G1 X108.738 Y96.241 Z0.400 E11.87286 F800
G1 X109.438 Y97.971 Z0.400 E11.98484 F800
G1 X109.628 Y99.821 Z0.400 E12.09642 F800
G1 X109.208 Y101.701 Z0.400 E12.21200 F800
G1 X108.738 Y103.391 Z0.400 E12.31725 F800
G1 X107.618 Y104.841 Z0.400 E12.42718 F800
G1 X107.908 Y105.051 Z0.400 E12.44866 F800
G1 X106.608 Y106.301 Z0.400 E12.55687 F800
G1 X105.368 Y107.581 Z0.400 E12.66380 F800
G1 X103.678 Y108.451 Z0.400 E12.77785 F800
G1 X102.018 Y108.991 Z0.400 E12.88258 F800
G1 X101.838 Y108.691 Z0.400 E12.90358 F800
G1 X100.098 Y109.171 Z0.400 E13.01188 F800
G1 X98.268 Y108.961 Z0.400 E13.12240 F800
G1 X96.528 Y108.451 Z0.400 E13.23119 F800
G1 X94.908 Y107.601 Z0.400 E13.34096 F800
G1 X93.578 Y106.351 Z0.400 E13.45047 F800
G1 X92.298 Y104.991 Z0.400 E13.56253 F800
G1 X91.338 Y103.451 Z0.400 E13.67141 F800
G1 X91.748 Y103.271 Z0.400 E13.69827 F800
G1 X91.038 Y101.611 Z0.400 E13.80660 F800
G1 X90.758 Y99.821 Z0.400 E13.91531 F800
G1 X91.028 Y99.801 Z0.400 E13.93155 F800

; polyline 7
G1 X91.398 Y99.791 Z0.400 F800
G1 X91.258 Y98.051 Z0.400 E14.03629 F800
G1 X91.548 Y98.061 Z0.400 E14.05370 F800
G1 X92.618 Y94.791 Z0.400 E14.26014 F800
G1 X92.878 Y94.951 Z0.400 E14.27845 F800
G1 X93.848 Y93.551 Z0.400 E14.38065 F800
G1 X95.238 Y92.591 Z0.400 E14.48200 F800
G1 X95.148 Y92.271 Z0.400 E14.50195 F800
G1 X96.748 Y91.751 Z0.400 E14.60289 F800
G1 X96.648 Y91.501 Z0.400 E14.61905 F800
G1 X98.388 Y91.241 Z0.400 E14.72461 F800
G1 X100.108 Y91.131 Z0.400 E14.82802 F800
G1 X101.838 Y91.281 Z0.400 E14.93221 F800
G1 X103.528 Y91.481 Z0.400 E15.03431 F800
G1 X103.438 Y91.781 Z0.400 E15.05311 F800
G1 X104.938 Y92.581 Z0.400 E15.15511 F800
G1 X106.248 Y93.641 Z0.400 E15.25622 F800
G1 X106.488 Y93.451 Z0.400 E15.27458 F800
G1 X107.348 Y94.931 Z0.400 E15.37729 F800
G1 X107.348 Y94.961 Z0.400 E15.37909 F800
G1 X107.598 Y94.821 Z0.400 E15.39628 F800
G1 X108.308 Y96.421 Z0.400 E15.50130 F800
G1 X108.958 Y98.041 Z0.400 E15.60604 F800
G1 X108.648 Y98.111 Z0.400 E15.62510 F800
G1 X108.668 Y98.111 Z0.400 E15.62630 F800
G1 X108.998 Y99.801 Z0.400 E15.72962 F800
G1 X108.798 Y101.551 Z0.400 E15.83530 F800
G1 X108.308 Y103.221 Z0.400 E15.93973 F800
G1 X107.338 Y104.661 Z0.400 E16.04390 F800
G1 X106.238 Y105.951 Z0.400 E16.14562 F800
G1 X105.098 Y107.311 Z0.400 E16.25210 F800
G1 X104.928 Y107.061 Z0.400 E16.27024 F800
G1 X104.918 Y107.081 Z0.400 E16.27158 F800
G1 X103.568 Y108.131 Z0.400 E16.37419 F800
G1 X103.408 Y107.851 Z0.400 E16.39354 F800
G1 X101.798 Y108.351 Z0.400 E16.49469 F800
G1 X100.108 Y108.511 Z0.400 E16.59655 F800
G1 X100.108 Y108.811 Z0.400 E16.61455 F800
G1 X98.388 Y108.451 Z0.400 E16.71998 F800
G1 X96.778 Y107.871 Z0.400 E16.82266 F800
G1 X96.648 Y108.151 Z0.400 E16.84118 F800
G1 X96.628 Y108.151 Z0.400 E16.84238 F800
G1 X95.088 Y107.291 Z0.400 E16.94821 F800
G1 X95.068 Y107.311 Z0.400 E16.94991 F800
G1 X95.268 Y107.011 Z0.400 E16.97154 F800
G1 X93.928 Y105.971 Z0.400 E17.07332 F800
G1 X92.578 Y104.811 Z0.400 E17.18011 F800
G1 X92.828 Y104.621 Z0.400 E17.19895 F800
G1 X92.058 Y103.171 Z0.400 E17.29746 F800
G1 X91.578 Y101.501 Z0.400 E17.40172 F800
G1 X91.398 Y99.791 Z0.400 E17.50488 F800

; polyline 8
G1 X91.898 Y99.811 Z0.400 F800
G1 X91.878 Y98.201 Z0.400 E17.60149 F800
G1 X92.198 Y98.221 Z0.400 E17.62073 F800
G1 X92.258 Y96.561 Z0.400 E17.72039 F800
G1 X92.678 Y96.721 Z0.400 E17.74736 F800
G1 X93.138 Y95.171 Z0.400 E17.84437 F800
G1 X93.418 Y95.331 Z0.400 E17.86372 F800
G1 X93.408 Y95.321 Z0.400 E17.86457 F800
G1 X94.178 Y93.891 Z0.400 E17.96202 F800
G1 X94.408 Y94.111 Z0.400 E17.98111 F800
G1 X95.438 Y92.831 Z0.400 E18.07969 F800
G1 X95.478 Y92.881 Z0.400 E18.08353 F800
G1 X96.918 Y92.071 Z0.400 E18.18266 F800
G1 X97.038 Y92.351 Z0.400 E18.20094 F800
G1 X98.438 Y91.571 Z0.400 E18.29710 F800
G1 X98.518 Y91.901 Z0.400 E18.31747 F800
G1 X98.468 Y91.591 Z0.400 E18.33631 F800
G1 X100.118 Y91.421 Z0.400 E18.43584 F800
G1 X101.638 Y91.911 Z0.400 E18.53166 F800
G1 X101.718 Y91.591 Z0.400 E18.55145 F800
G1 X101.728 Y91.591 Z0.400 E18.55205 F800
G1 X101.738 Y91.601 Z0.400 E18.55290 F800
G1 X101.758 Y91.581 Z0.400 E18.55459 F800
G1 X103.158 Y92.361 Z0.400 E18.65075 F800
G1 X103.328 Y92.061 Z0.400 E18.67144 F800
G1 X104.548 Y93.081 Z0.400 E18.76685 F800
G1 X104.728 Y92.851 Z0.400 E18.78438 F800
G1 X105.788 Y94.101 Z0.400 E18.88271 F800
G1 X105.788 Y94.131 Z0.400 E18.88451 F800
G1 X106.038 Y93.891 Z0.400 E18.90531 F800
G1 X106.768 Y95.311 Z0.400 E19.00111 F800
G1 X106.798 Y95.351 Z0.400 E19.00411 F800
G1 X107.078 Y95.171 Z0.400 E19.02408 F800
G1 X107.158 Y95.121 Z0.400 E19.02974 F800
G1 X107.518 Y96.711 Z0.400 E19.12755 F800
G1 X107.838 Y96.591 Z0.400 E19.14806 F800
G1 X108.318 Y98.161 Z0.400 E19.24656 F800
G1 X108.008 Y98.241 Z0.400 E19.26577 F800
G1 X108.488 Y99.801 Z0.400 E19.36370 F800
G1 X108.138 Y99.841 Z0.400 E19.38484 F800
G1 X107.998 Y101.361 Z0.400 E19.47642 F800
G1 X108.338 Y101.451 Z0.400 E19.49753 F800
G1 X107.858 Y102.991 Z0.400 E19.59431 F800
G1 X107.548 Y102.901 Z0.400 E19.61368 F800
G1 X107.078 Y104.481 Z0.400 E19.71258 F800
G1 X107.048 Y104.461 Z0.400 E19.71475 F800
G1 X106.078 Y105.711 Z0.400 E19.80968 F800
G1 X105.778 Y105.501 Z0.400 E19.83165 F800
G1 X104.758 Y106.771 Z0.400 E19.92939 F800
G1 X104.578 Y106.511 Z0.400 E19.94836 F800
G1 X104.578 Y106.521 Z0.400 E19.94896 F800
G1 X104.728 Y106.771 Z0.400 E19.96645 F800
G1 X103.288 Y107.551 Z0.400 E20.06471 F800
G1 X103.148 Y107.281 Z0.400 E20.08296 F800
G1 X101.678 Y107.701 Z0.400 E20.17469 F800
G1 X101.738 Y108.031 Z0.400 E20.19482 F800
G1 X101.698 Y108.011 Z0.400 E20.19750 F800
G1 X100.098 Y107.861 Z0.400 E20.29392 F800
G1 X100.088 Y108.191 Z0.400 E20.31373 F800
G1 X100.068 Y108.171 Z0.400 E20.31543 F800
G1 X98.478 Y108.011 Z0.400 E20.41131 F800
G1 X98.528 Y107.701 Z0.400 E20.43015 F800
G1 X97.058 Y107.321 Z0.400 E20.52125 F800
G1 X96.918 Y107.541 Z0.400 E20.53689 F800
G1 X96.888 Y107.561 Z0.400 E20.53906 F800
G1 X96.998 Y107.241 Z0.400 E20.55936 F800
G1 X95.428 Y106.781 Z0.400 E20.65752 F800
G1 X95.428 Y106.761 Z0.400 E20.65872 F800
G1 X95.598 Y106.471 Z0.400 E20.67889 F800
G1 X94.198 Y105.771 Z0.400 E20.77280 F800
G1 X94.358 Y105.571 Z0.400 E20.78817 F800
G1 X94.178 Y105.741 Z0.400 E20.80303 F800
G1 X94.398 Y105.491 Z0.400 E20.82301 F800
G1 X93.138 Y104.481 Z0.400 E20.91990 F800
G1 X93.398 Y104.291 Z0.400 E20.93922 F800
G1 X92.358 Y103.041 Z0.400 E21.03678 F800
G1 X92.648 Y102.891 Z0.400 E21.05637 F800
G1 X91.878 Y101.431 Z0.400 E21.15541 F800
G1 X91.898 Y99.811 Z0.400 E21.25262 F800

; polyline 9
G1 X92.368 Y99.801 Z0.400 F800
G1 X92.558 Y98.311 Z0.400 E21.34274 F800
G1 X92.968 Y96.841 Z0.400 E21.43431 F800
G1 X93.628 Y95.541 Z0.400 E21.52178 F800
G1 X93.658 Y95.511 Z0.400 E21.52433 F800
G1 X93.708 Y95.511 Z0.400 E21.52733 F800
G1 X94.618 Y94.331 Z0.400 E21.61674 F800
G1 X95.798 Y93.391 Z0.400 E21.70726 F800
G1 X95.638 Y93.141 Z0.400 E21.72507 F800
G1 X95.648 Y93.151 Z0.400 E21.72591 F800
G1 X95.638 Y93.131 Z0.400 E21.72726 F800
G1 X95.658 Y93.151 Z0.400 E21.72895 F800
G1 X95.818 Y93.381 Z0.400 E21.74576 F800
G1 X95.808 Y93.361 Z0.400 E21.74711 F800
G1 X97.138 Y92.681 Z0.400 E21.83673 F800
G1 X98.588 Y92.221 Z0.400 E21.92800 F800
G1 X98.598 Y92.191 Z0.400 E21.92990 F800
G1 X100.098 Y91.791 Z0.400 E22.02305 F800
G1 X100.098 Y92.101 Z0.400 E22.04165 F800
G1 X101.588 Y92.211 Z0.400 E22.13129 F800
G1 X101.588 Y92.261 Z0.400 E22.13429 F800
G1 X103.028 Y92.681 Z0.400 E22.22429 F800
G1 X104.398 Y93.371 Z0.400 E22.31633 F800
G1 X105.548 Y94.391 Z0.400 E22.40856 F800
G1 X106.498 Y95.531 Z0.400 E22.49759 F800
G1 X106.518 Y95.541 Z0.400 E22.49893 F800
G1 X107.218 Y96.891 Z0.400 E22.59018 F800
G1 X107.978 Y98.251 Z0.400 E22.68365 F800
G1 X107.678 Y98.321 Z0.400 E22.70214 F800
G1 X107.688 Y98.331 Z0.400 E22.70299 F800
G1 X107.688 Y98.351 Z0.400 E22.70419 F800
G1 X107.818 Y99.861 Z0.400 E22.79512 F800
G1 X107.718 Y101.281 Z0.400 E22.88053 F800
G1 X107.208 Y102.761 Z0.400 E22.97446 F800
G1 X106.508 Y104.101 Z0.400 E23.06517 F800
G1 X106.758 Y104.271 Z0.400 E23.08330 F800
G1 X105.578 Y105.231 Z0.400 E23.17458 F800
G1 X104.388 Y106.231 Z0.400 E23.26784 F800
G1 X104.378 Y106.251 Z0.400 E23.26918 F800
G1 X103.028 Y106.911 Z0.400 E23.35934 F800
G1 X101.548 Y107.361 Z0.400 E23.45216 F800
G1 X100.128 Y107.501 Z0.400 E23.53777 F800
G1 X100.118 Y107.511 Z0.400 E23.53862 F800
G1 X100.088 Y107.531 Z0.400 E23.54078 F800
G1 X98.608 Y107.351 Z0.400 E23.63024 F800
G1 X98.598 Y107.391 Z0.400 E23.63271 F800
G1 X97.168 Y106.951 Z0.400 E23.72248 F800
G1 X95.838 Y106.221 Z0.400 E23.81351 F800
G1 X95.658 Y106.491 Z0.400 E23.83298 F800
G1 X95.848 Y106.201 Z0.400 E23.85378 F800
G1 X94.418 Y105.491 Z0.400 E23.94957 F800
G1 X94.658 Y105.211 Z0.400 E23.97170 F800
G1 X93.708 Y104.101 Z0.400 E24.05936 F800
G1 X92.988 Y102.721 Z0.400 E24.15275 F800
G1 X92.378 Y101.321 Z0.400 E24.24438 F800
G1 X92.368 Y99.801 Z0.400 E24.33558 F800

; polyline 10
G1 X92.708 Y99.811 Z0.400 F800
G1 X93.148 Y98.431 Z0.400 E24.42249 F800
G1 X92.828 Y98.361 Z0.400 E24.44215 F800
G1 X93.538 Y97.141 Z0.400 E24.52684 F800
G1 X93.568 Y97.101 Z0.400 E24.52984 F800
G1 X93.308 Y96.961 Z0.400 E24.54756 F800
G1 X94.208 Y95.891 Z0.400 E24.63145 F800
G1 X93.938 Y95.691 Z0.400 E24.65161 F800
G1 X94.228 Y95.871 Z0.400 E24.67209 F800
G1 X94.858 Y94.581 Z0.400 E24.75822 F800
G1 X95.108 Y94.821 Z0.400 E24.77902 F800
G1 X95.128 Y94.791 Z0.400 E24.78118 F800
G1 X96.168 Y93.931 Z0.400 E24.86215 F800
G1 X95.978 Y93.641 Z0.400 E24.88295 F800
G1 X96.038 Y93.701 Z0.400 E24.88804 F800
G1 X95.998 Y93.621 Z0.400 E24.89341 F800
G1 X96.188 Y93.891 Z0.400 E24.91322 F800
G1 X96.218 Y93.931 Z0.400 E24.91622 F800
G1 X97.258 Y92.981 Z0.400 E25.00074 F800
G1 X97.388 Y93.271 Z0.400 E25.01980 F800
G1 X97.398 Y93.291 Z0.400 E25.02115 F800
G1 X97.398 Y93.261 Z0.400 E25.02295 F800
G1 X98.658 Y92.571 Z0.400 E25.10914 F800
G1 X100.088 Y92.411 Z0.400 E25.19547 F800
G1 X100.108 Y92.741 Z0.400 E25.21531 F800
G1 X101.438 Y92.841 Z0.400 E25.29534 F800
G1 X101.468 Y92.881 Z0.400 E25.29834 F800
G1 X101.568 Y92.551 Z0.400 E25.31902 F800
G1 X102.878 Y92.981 Z0.400 E25.40175 F800
G1 X102.778 Y93.301 Z0.400 E25.42187 F800
G1 X102.788 Y93.281 Z0.400 E25.42321 F800
G1 X102.798 Y93.271 Z0.400 E25.42406 F800
G1 X102.928 Y92.961 Z0.400 E25.44423 F800
G1 X102.938 Y92.971 Z0.400 E25.44507 F800
G1 X103.998 Y93.911 Z0.400 E25.53008 F800
G1 X104.198 Y93.641 Z0.400 E25.55024 F800
G1 X105.328 Y94.561 Z0.400 E25.63767 F800
G1 X105.088 Y94.831 Z0.400 E25.65934 F800
G1 X105.948 Y95.881 Z0.400 E25.74078 F800
G1 X106.288 Y95.681 Z0.400 E25.76445 F800
G1 X106.618 Y97.101 Z0.400 E25.85192 F800
G1 X106.938 Y96.981 Z0.400 E25.87242 F800
G1 X106.628 Y97.121 Z0.400 E25.89283 F800
G1 X107.358 Y98.371 Z0.400 E25.97968 F800
G1 X107.018 Y98.451 Z0.400 E26.00064 F800
G1 X107.178 Y99.801 Z0.400 E26.08221 F800
G1 X107.498 Y99.811 Z0.400 E26.10142 F800
G1 X107.038 Y101.151 Z0.400 E26.18642 F800
G1 X107.338 Y101.271 Z0.400 E26.20581 F800
G1 X107.038 Y101.221 Z0.400 E26.22406 F800
G1 X106.628 Y102.501 Z0.400 E26.30470 F800
G1 X106.938 Y102.641 Z0.400 E26.32511 F800
G1 X106.638 Y102.531 Z0.400 E26.34428 F800
G1 X106.928 Y102.661 Z0.400 E26.36335 F800
G1 X106.228 Y103.891 Z0.400 E26.44826 F800
G1 X105.968 Y103.731 Z0.400 E26.46658 F800
G1 X105.338 Y105.041 Z0.400 E26.55380 F800
G1 X105.098 Y104.811 Z0.400 E26.57374 F800
G1 X104.228 Y105.951 Z0.400 E26.65979 F800
G1 X104.038 Y105.671 Z0.400 E26.68009 F800
G1 X104.058 Y105.711 Z0.400 E26.68277 F800
G1 X104.218 Y105.961 Z0.400 E26.70058 F800
G1 X104.018 Y105.711 Z0.400 E26.71979 F800
G1 X102.808 Y106.341 Z0.400 E26.80164 F800
G1 X102.808 Y106.351 Z0.400 E26.80224 F800
G1 X102.928 Y106.641 Z0.400 E26.82107 F800
G1 X102.788 Y106.331 Z0.400 E26.84148 F800
G1 X101.548 Y107.071 Z0.400 E26.92812 F800
G1 X101.478 Y106.721 Z0.400 E26.94954 F800
G1 X101.468 Y106.731 Z0.400 E26.95039 F800
G1 X100.148 Y107.221 Z0.400 E27.03487 F800
G1 X100.118 Y107.211 Z0.400 E27.03677 F800
G1 X100.108 Y106.901 Z0.400 E27.05538 F800
G1 X100.098 Y106.871 Z0.400 E27.05727 F800
G1 X98.728 Y106.731 Z0.400 E27.13990 F800
G1 X98.648 Y107.051 Z0.400 E27.15969 F800
G1 X98.688 Y106.761 Z0.400 E27.17726 F800
G1 X98.598 Y107.051 Z0.400 E27.19548 F800
G1 X97.428 Y106.351 Z0.400 E27.27728 F800
G1 X97.408 Y106.351 Z0.400 E27.27848 F800
G1 X97.278 Y106.621 Z0.400 E27.29646 F800
G1 X97.278 Y106.611 Z0.400 E27.29706 F800
G1 X97.268 Y106.631 Z0.400 E27.29840 F800
G1 X97.358 Y106.341 Z0.400 E27.31662 F800
G1 X96.178 Y105.691 Z0.400 E27.39745 F800
G1 X95.988 Y105.951 Z0.400 E27.41677 F800
G1 X95.978 Y105.951 Z0.400 E27.41737 F800
G1 X96.148 Y105.691 Z0.400 E27.43601 F800
G1 X96.138 Y105.691 Z0.400 E27.43661 F800
G1 X94.868 Y105.051 Z0.400 E27.52194 F800
G1 X94.848 Y105.061 Z0.400 E27.52328 F800
G1 X95.088 Y104.811 Z0.400 E27.54408 F800
G1 X95.108 Y104.781 Z0.400 E27.54624 F800
G1 X93.978 Y103.951 Z0.400 E27.63036 F800
G1 X94.238 Y103.751 Z0.400 E27.65004 F800
G1 X93.268 Y102.651 Z0.400 E27.73804 F800
G1 X93.278 Y102.631 Z0.400 E27.73938 F800
G1 X93.578 Y102.501 Z0.400 E27.75900 F800
G1 X93.178 Y101.171 Z0.400 E27.84233 F800
G1 X92.838 Y101.231 Z0.400 E27.86305 F800
G1 X92.708 Y99.811 Z0.400 E27.94860 F800

; polyline 11
G1 X93.338 Y99.801 Z0.400 F800
G1 X93.478 Y98.491 Z0.400 E28.02765 F800
G1 X93.498 Y98.491 Z0.400 E28.02885 F800
G1 X93.918 Y97.251 Z0.400 E28.10740 F800
G1 X94.508 Y96.131 Z0.400 E28.18335 F800
G1 X95.338 Y95.031 Z0.400 E28.26604 F800
G1 X95.358 Y95.031 Z0.400 E28.26724 F800
G1 X96.338 Y94.221 Z0.400 E28.34352 F800
G1 X96.358 Y94.191 Z0.400 E28.34568 F800
G1 X96.358 Y94.171 Z0.400 E28.34688 F800
G1 X96.378 Y94.201 Z0.400 E28.34905 F800
G1 X96.368 Y94.181 Z0.400 E28.35039 F800
G1 X96.378 Y94.181 Z0.400 E28.35099 F800
G1 X96.398 Y94.211 Z0.400 E28.35315 F800
G1 X96.368 Y94.161 Z0.400 E28.35665 F800
G1 X96.388 Y94.191 Z0.400 E28.35881 F800
G1 X96.398 Y94.191 Z0.400 E28.35941 F800
G1 X97.508 Y93.581 Z0.400 E28.43541 F800
G1 X97.538 Y93.591 Z0.400 E28.43731 F800
G1 X98.738 Y93.231 Z0.400 E28.51248 F800
G1 X98.758 Y93.191 Z0.400 E28.51516 F800
G1 X98.728 Y92.931 Z0.400 E28.53086 F800
G1 X100.088 Y93.061 Z0.400 E28.61283 F800
G1 X100.098 Y93.081 Z0.400 E28.61418 F800
G1 X100.128 Y93.091 Z0.400 E28.61607 F800
G1 X101.408 Y93.191 Z0.400 E28.69311 F800
G1 X101.428 Y93.211 Z0.400 E28.69480 F800
G1 X102.658 Y93.561 Z0.400 E28.77153 F800
G1 X102.678 Y93.581 Z0.400 E28.77323 F800
G1 X102.688 Y93.591 Z0.400 E28.77408 F800
G1 X103.838 Y94.231 Z0.400 E28.85305 F800
G1 X103.858 Y94.231 Z0.400 E28.85425 F800
G1 X104.878 Y95.021 Z0.400 E28.93165 F800
G1 X104.858 Y95.061 Z0.400 E28.93434 F800
G1 X105.728 Y96.071 Z0.400 E29.01432 F800
G1 X106.328 Y97.251 Z0.400 E29.09375 F800
G1 X106.358 Y97.241 Z0.400 E29.09564 F800
G1 X106.718 Y98.531 Z0.400 E29.17600 F800
G1 X106.848 Y99.801 Z0.400 E29.25260 F800
G1 X106.728 Y101.121 Z0.400 E29.33213 F800
G1 X106.708 Y101.131 Z0.400 E29.33347 F800
G1 X106.308 Y102.361 Z0.400 E29.41107 F800
G1 X105.718 Y103.561 Z0.400 E29.49130 F800
G1 X105.928 Y103.721 Z0.400 E29.50715 F800
G1 X104.848 Y104.541 Z0.400 E29.58851 F800
G1 X103.878 Y105.361 Z0.400 E29.66472 F800
G1 X103.818 Y105.381 Z0.400 E29.66851 F800
G1 X103.828 Y105.441 Z0.400 E29.67216 F800
G1 X102.678 Y106.041 Z0.400 E29.74999 F800
G1 X102.658 Y106.041 Z0.400 E29.75119 F800
G1 X101.428 Y106.401 Z0.400 E29.82808 F800
G1 X101.398 Y106.431 Z0.400 E29.83063 F800
G1 X101.388 Y106.421 Z0.400 E29.83148 F800
G1 X100.098 Y106.551 Z0.400 E29.90927 F800
G1 X100.088 Y106.551 Z0.400 E29.90987 F800
G1 X100.078 Y106.551 Z0.400 E29.91047 F800
G1 X98.818 Y106.461 Z0.400 E29.98626 F800
G1 X98.788 Y106.431 Z0.400 E29.98881 F800
G1 X98.778 Y106.401 Z0.400 E29.99071 F800
G1 X97.528 Y106.051 Z0.400 E30.06859 F800
G1 X97.528 Y106.031 Z0.400 E30.06979 F800
G1 X96.368 Y105.401 Z0.400 E30.14899 F800
G1 X96.358 Y105.411 Z0.400 E30.14984 F800
G1 X96.348 Y105.421 Z0.400 E30.15069 F800
G1 X96.328 Y105.421 Z0.400 E30.15189 F800
G1 X96.308 Y105.421 Z0.400 E30.15309 F800
G1 X95.338 Y104.581 Z0.400 E30.23008 F800
G1 X95.328 Y104.571 Z0.400 E30.23093 F800
G1 X94.508 Y103.531 Z0.400 E30.31039 F800
G1 X94.448 Y103.561 Z0.400 E30.31442 F800
G1 X93.858 Y102.411 Z0.400 E30.39197 F800
G1 X93.878 Y102.401 Z0.400 E30.39331 F800
G1 X93.858 Y102.361 Z0.400 E30.39599 F800
G1 X93.488 Y101.151 Z0.400 E30.47191 F800
G1 X93.078 Y99.811 Z0.400 E30.55599 F800
G1 X93.338 Y99.801 Z0.400 E30.57160 F800

; polyline 12
G1 X94.018 Y99.811 Z0.400 F800
G1 X93.688 Y99.801 Z0.400 E30.59141 F800
G1 X94.168 Y98.641 Z0.400 E30.66673 F800
G1 X93.818 Y98.571 Z0.400 E30.68815 F800
G1 X93.838 Y98.571 Z0.400 E30.68935 F800
G1 X94.418 Y97.471 Z0.400 E30.76396 F800
G1 X94.188 Y97.361 Z0.400 E30.77926 F800
G1 X95.008 Y96.441 Z0.400 E30.85320 F800
G1 X95.028 Y96.421 Z0.400 E30.85490 F800
G1 X94.768 Y96.241 Z0.400 E30.87387 F800
G1 X95.058 Y96.421 Z0.400 E30.89435 F800
G1 X94.798 Y96.231 Z0.400 E30.91367 F800
G1 X95.568 Y95.271 Z0.400 E30.98751 F800
G1 X95.798 Y95.491 Z0.400 E31.00661 F800
G1 X95.808 Y95.481 Z0.400 E31.00746 F800
G1 X96.718 Y94.781 Z0.400 E31.07634 F800
G1 X96.718 Y94.761 Z0.400 E31.07754 F800
G1 X96.528 Y94.461 Z0.400 E31.09885 F800
G1 X96.728 Y94.741 Z0.400 E31.11949 F800
G1 X96.748 Y94.771 Z0.400 E31.12166 F800
G1 X96.738 Y94.751 Z0.400 E31.12300 F800
G1 X96.728 Y94.731 Z0.400 E31.12434 F800
G1 X96.558 Y94.471 Z0.400 E31.14298 F800
G1 X96.758 Y94.771 Z0.400 E31.16461 F800
G1 X96.728 Y94.721 Z0.400 E31.16811 F800
G1 X96.728 Y94.711 Z0.400 E31.16871 F800
G1 X96.718 Y94.691 Z0.400 E31.17005 F800
G1 X96.738 Y94.721 Z0.400 E31.17222 F800
G1 X96.748 Y94.731 Z0.400 E31.17307 F800
G1 X96.738 Y94.711 Z0.400 E31.17441 F800
G1 X96.748 Y94.721 Z0.400 E31.17526 F800
G1 X96.578 Y94.461 Z0.400 E31.19389 F800
G1 X96.758 Y94.731 Z0.400 E31.21336 F800
G1 X96.778 Y94.751 Z0.400 E31.21506 F800
G1 X96.748 Y94.701 Z0.400 E31.21856 F800
G1 X96.758 Y94.711 Z0.400 E31.21941 F800
G1 X97.758 Y94.201 Z0.400 E31.28676 F800
G1 X97.628 Y93.861 Z0.400 E31.30860 F800
G1 X97.768 Y94.171 Z0.400 E31.32901 F800
G1 X97.658 Y93.901 Z0.400 E31.34650 F800
G1 X97.798 Y94.161 Z0.400 E31.36422 F800
G1 X97.788 Y94.131 Z0.400 E31.36612 F800
G1 X97.698 Y93.871 Z0.400 E31.38263 F800
G1 X98.838 Y93.511 Z0.400 E31.45436 F800
G1 X98.908 Y93.791 Z0.400 E31.47167 F800
G1 X100.068 Y93.721 Z0.400 E31.54140 F800
G1 X100.098 Y93.421 Z0.400 E31.55949 F800
G1 X100.098 Y93.731 Z0.400 E31.57809 F800
G1 X100.108 Y93.731 Z0.400 E31.57869 F800
G1 X100.108 Y93.761 Z0.400 E31.58049 F800
G1 X100.138 Y93.381 Z0.400 E31.60336 F800
G1 X101.238 Y93.821 Z0.400 E31.67444 F800
G1 X101.278 Y93.831 Z0.400 E31.67692 F800
G1 X101.348 Y93.531 Z0.400 E31.69540 F800
G1 X102.398 Y94.171 Z0.400 E31.76918 F800
G1 X102.408 Y94.171 Z0.400 E31.76978 F800
G1 X102.538 Y93.901 Z0.400 E31.78776 F800
G1 X102.408 Y94.221 Z0.400 E31.80849 F800
G1 X102.588 Y93.861 Z0.400 E31.83264 F800
G1 X103.648 Y94.451 Z0.400 E31.90542 F800
G1 X103.458 Y94.741 Z0.400 E31.92623 F800
G1 X103.648 Y94.481 Z0.400 E31.94555 F800
G1 X103.658 Y94.481 Z0.400 E31.94615 F800
G1 X104.388 Y95.481 Z0.400 E32.02043 F800
G1 X104.618 Y95.261 Z0.400 E32.03953 F800
G1 X105.418 Y96.221 Z0.400 E32.11451 F800
G1 X105.138 Y96.431 Z0.400 E32.13551 F800
G1 X105.418 Y96.281 Z0.400 E32.15457 F800
G1 X106.018 Y97.341 Z0.400 E32.22765 F800
G1 X105.988 Y97.381 Z0.400 E32.23065 F800
G1 X105.728 Y97.491 Z0.400 E32.24759 F800
G1 X106.078 Y98.571 Z0.400 E32.31571 F800
G1 X106.428 Y98.551 Z0.400 E32.33674 F800
G1 X106.498 Y99.781 Z0.400 E32.41066 F800
G1 X106.498 Y99.791 Z0.400 E32.41126 F800
G1 X106.168 Y99.831 Z0.400 E32.43120 F800
G1 X106.058 Y100.991 Z0.400 E32.50112 F800
G1 X106.398 Y101.081 Z0.400 E32.52222 F800
G1 X106.018 Y102.261 Z0.400 E32.59660 F800
G1 X105.678 Y102.121 Z0.400 E32.61866 F800
G1 X106.028 Y102.281 Z0.400 E32.64175 F800
G1 X105.148 Y103.181 Z0.400 E32.71728 F800
G1 X105.168 Y103.211 Z0.400 E32.71944 F800
G1 X105.408 Y103.401 Z0.400 E32.73780 F800
G1 X104.388 Y104.111 Z0.400 E32.81237 F800
G1 X104.628 Y104.381 Z0.400 E32.83405 F800
G1 X104.598 Y104.371 Z0.400 E32.83594 F800
G1 X103.488 Y104.901 Z0.400 E32.90975 F800
G1 X103.658 Y105.161 Z0.400 E32.92839 F800
G1 X103.648 Y105.151 Z0.400 E32.92923 F800
G1 X103.638 Y105.141 Z0.400 E32.93008 F800
G1 X103.648 Y105.161 Z0.400 E32.93142 F800
G1 X102.458 Y105.441 Z0.400 E33.00477 F800
G1 X102.568 Y105.711 Z0.400 E33.02227 F800
G1 X102.558 Y105.711 Z0.400 E33.02287 F800
G1 X102.558 Y105.731 Z0.400 E33.02407 F800
G1 X102.428 Y105.421 Z0.400 E33.04424 F800
G1 X102.558 Y105.761 Z0.400 E33.06608 F800
G1 X102.398 Y105.411 Z0.400 E33.08917 F800
G1 X101.368 Y106.111 Z0.400 E33.16389 F800
G1 X101.268 Y105.801 Z0.400 E33.18343 F800
G1 X100.118 Y106.211 Z0.400 E33.25669 F800
G1 X100.108 Y106.231 Z0.400 E33.25803 F800
G1 X100.098 Y105.901 Z0.400 E33.27784 F800
G1 X100.088 Y105.901 Z0.400 E33.27844 F800
G1 X100.078 Y106.221 Z0.400 E33.29765 F800
G1 X100.068 Y105.881 Z0.400 E33.31805 F800
G1 X98.928 Y105.791 Z0.400 E33.38667 F800
G1 X98.858 Y106.101 Z0.400 E33.40574 F800
G1 X98.918 Y105.781 Z0.400 E33.42527 F800
G1 X98.848 Y106.131 Z0.400 E33.44669 F800
G1 X98.908 Y105.781 Z0.400 E33.46799 F800
G1 X97.788 Y105.441 Z0.400 E33.53822 F800
G1 X97.648 Y105.741 Z0.400 E33.55808 F800
G1 X97.648 Y105.731 Z0.400 E33.55868 F800
G1 X97.748 Y105.461 Z0.400 E33.57596 F800
G1 X97.638 Y105.701 Z0.400 E33.59180 F800
G1 X97.718 Y105.451 Z0.400 E33.60755 F800
G1 X96.568 Y105.171 Z0.400 E33.67856 F800
G1 X96.568 Y105.161 Z0.400 E33.67916 F800
G1 X96.728 Y104.881 Z0.400 E33.69851 F800
G1 X96.718 Y104.891 Z0.400 E33.69936 F800
G1 X96.538 Y105.151 Z0.400 E33.71834 F800
G1 X96.698 Y104.891 Z0.400 E33.73665 F800
G1 X96.518 Y105.121 Z0.400 E33.75418 F800
G1 X95.808 Y104.141 Z0.400 E33.82679 F800
G1 X95.588 Y104.361 Z0.400 E33.84545 F800
G1 X95.798 Y104.131 Z0.400 E33.86414 F800
G1 X95.578 Y104.351 Z0.400 E33.88281 F800
G1 X95.558 Y104.371 Z0.400 E33.88451 F800
G1 X95.798 Y104.111 Z0.400 E33.90574 F800
G1 X95.768 Y104.121 Z0.400 E33.90763 F800
G1 X94.798 Y103.381 Z0.400 E33.98084 F800
G1 X95.048 Y103.211 Z0.400 E33.99898 F800
G1 X95.038 Y103.191 Z0.400 E34.00032 F800
G1 X94.778 Y103.291 Z0.400 E34.01703 F800
G1 X94.488 Y102.151 Z0.400 E34.08761 F800
G1 X94.178 Y102.271 Z0.400 E34.10756 F800
G1 X94.118 Y100.991 Z0.400 E34.18444 F800
G1 X93.788 Y101.051 Z0.400 E34.20456 F800
G1 X94.028 Y99.811 Z0.400 E34.28034 F800
G1 X93.678 Y99.811 Z0.400 E34.30134 F800
G1 X94.018 Y99.811 Z0.400 E34.32174 F800

; polyline 13
G1 X94.348 Y99.801 Z0.400 F800
G1 X94.338 Y99.791 Z0.400 E34.32259 F800
G1 X94.468 Y98.691 Z0.400 E34.38905 F800
G1 X94.778 Y97.621 Z0.400 E34.45589 F800
G1 X95.308 Y96.601 Z0.400 E34.52486 F800
G1 X95.328 Y96.591 Z0.400 E34.52620 F800
G1 X96.018 Y95.731 Z0.400 E34.59236 F800
G1 X96.028 Y95.741 Z0.400 E34.59321 F800
G1 X96.038 Y95.731 Z0.400 E34.59406 F800
G1 X96.048 Y95.721 Z0.400 E34.59490 F800
G1 X96.068 Y95.741 Z0.400 E34.59660 F800
G1 X96.918 Y95.061 Z0.400 E34.66191 F800
G1 X96.888 Y95.001 Z0.400 E34.66594 F800
G1 X96.888 Y94.991 Z0.400 E34.66654 F800
G1 X96.908 Y95.021 Z0.400 E34.66870 F800
G1 X96.898 Y95.001 Z0.400 E34.67004 F800
G1 X96.908 Y95.001 Z0.400 E34.67064 F800
G1 X96.898 Y94.981 Z0.400 E34.67198 F800
G1 X96.918 Y95.011 Z0.400 E34.67415 F800
G1 X96.908 Y94.991 Z0.400 E34.67549 F800
G1 X96.918 Y94.981 Z0.400 E34.67634 F800
G1 X96.928 Y94.981 Z0.400 E34.67694 F800
G1 X97.878 Y94.481 Z0.400 E34.74135 F800
G1 X97.908 Y94.481 Z0.400 E34.74315 F800
G1 X97.908 Y94.471 Z0.400 E34.74375 F800
G1 X97.918 Y94.461 Z0.400 E34.74460 F800
G1 X97.948 Y94.441 Z0.400 E34.74676 F800
G1 X98.978 Y94.151 Z0.400 E34.81097 F800
G1 X98.988 Y94.171 Z0.400 E34.81231 F800
G1 X98.998 Y94.161 Z0.400 E34.81316 F800
G1 X98.998 Y94.131 Z0.400 E34.81496 F800
G1 X100.068 Y94.071 Z0.400 E34.87926 F800
G1 X100.088 Y94.051 Z0.400 E34.88095 F800
G1 X100.118 Y94.071 Z0.400 E34.88312 F800
G1 X101.218 Y94.131 Z0.400 E34.94921 F800
G1 X101.218 Y94.141 Z0.400 E34.94981 F800
G1 X101.218 Y94.161 Z0.400 E34.95101 F800
G1 X101.248 Y94.191 Z0.400 E34.95356 F800
G1 X102.278 Y94.471 Z0.400 E35.01760 F800
G1 X102.298 Y94.471 Z0.400 E35.01880 F800
G1 X102.298 Y94.521 Z0.400 E35.02180 F800
G1 X103.268 Y95.031 Z0.400 E35.08756 F800
G1 X103.308 Y95.021 Z0.400 E35.09003 F800
G1 X104.168 Y95.721 Z0.400 E35.15656 F800
G1 X104.168 Y95.741 Z0.400 E35.15776 F800
G1 X104.878 Y96.631 Z0.400 E35.22607 F800
G1 X105.408 Y97.601 Z0.400 E35.29239 F800
G1 X105.758 Y98.671 Z0.400 E35.35994 F800
G1 X105.738 Y98.691 Z0.400 E35.36164 F800
G1 X105.858 Y99.771 Z0.400 E35.42684 F800
G1 X105.738 Y100.921 Z0.400 E35.49621 F800
G1 X105.438 Y101.991 Z0.400 E35.56289 F800
G1 X105.418 Y102.001 Z0.400 E35.56423 F800
G1 X105.428 Y102.021 Z0.400 E35.56557 F800
G1 X104.888 Y102.991 Z0.400 E35.63218 F800
G1 X104.868 Y103.011 Z0.400 E35.63388 F800
G1 X104.168 Y103.881 Z0.400 E35.70088 F800
G1 X104.188 Y103.901 Z0.400 E35.70258 F800
G1 X104.128 Y103.881 Z0.400 E35.70637 F800
G1 X103.308 Y104.611 Z0.400 E35.77224 F800
G1 X103.298 Y104.601 Z0.400 E35.77309 F800
G1 X103.268 Y104.581 Z0.400 E35.77525 F800
G1 X102.318 Y105.161 Z0.400 E35.84204 F800
G1 X102.298 Y105.131 Z0.400 E35.84420 F800
G1 X102.288 Y105.121 Z0.400 E35.84505 F800
G1 X101.238 Y105.431 Z0.400 E35.91074 F800
G1 X101.208 Y105.461 Z0.400 E35.91328 F800
G1 X100.058 Y105.561 Z0.400 E35.98254 F800
G1 X98.988 Y105.461 Z0.400 E36.04702 F800
G1 X98.968 Y105.481 Z0.400 E36.04872 F800
G1 X98.968 Y105.471 Z0.400 E36.04932 F800
G1 X97.908 Y105.151 Z0.400 E36.11575 F800
G1 X97.888 Y105.151 Z0.400 E36.11695 F800
G1 X97.888 Y105.131 Z0.400 E36.11815 F800
G1 X97.888 Y105.121 Z0.400 E36.11875 F800
G1 X96.908 Y104.621 Z0.400 E36.18477 F800
G1 X96.908 Y104.601 Z0.400 E36.18597 F800
G1 X96.908 Y104.591 Z0.400 E36.18657 F800
G1 X96.878 Y104.611 Z0.400 E36.18873 F800
G1 X96.048 Y103.901 Z0.400 E36.25426 F800
G1 X96.018 Y103.911 Z0.400 E36.25616 F800
G1 X95.288 Y103.011 Z0.400 E36.32569 F800
G1 X94.798 Y102.041 Z0.400 E36.39090 F800
G1 X94.788 Y102.021 Z0.400 E36.39224 F800
G1 X94.788 Y102.001 Z0.400 E36.39344 F800
G1 X94.478 Y100.941 Z0.400 E36.45970 F800
G1 X94.348 Y99.801 Z0.400 E36.52854 F800

; polyline 14
G1 X94.678 Y99.811 Z0.400 F800
G1 X95.108 Y98.831 Z0.400 E36.59276 F800
G1 X94.778 Y98.741 Z0.400 E36.61328 F800
G1 X95.088 Y97.741 Z0.400 E36.67610 F800
G1 X95.408 Y97.841 Z0.400 E36.69621 F800
G1 X95.858 Y96.971 Z0.400 E36.75498 F800
G1 X95.898 Y96.981 Z0.400 E36.75745 F800
G1 X95.588 Y96.751 Z0.400 E36.78062 F800
G1 X95.608 Y96.741 Z0.400 E36.78196 F800
G1 X96.508 Y96.231 Z0.400 E36.84402 F800
G1 X96.248 Y95.951 Z0.400 E36.86695 F800
G1 X96.498 Y96.191 Z0.400 E36.88774 F800
G1 X96.288 Y95.971 Z0.400 E36.90599 F800
G1 X96.258 Y95.931 Z0.400 E36.90899 F800
G1 X96.278 Y95.951 Z0.400 E36.91069 F800
G1 X96.298 Y95.961 Z0.400 E36.91203 F800
G1 X97.218 Y95.571 Z0.400 E36.97199 F800
G1 X97.078 Y95.311 Z0.400 E36.98970 F800
G1 X97.078 Y95.291 Z0.400 E36.99090 F800
G1 X97.068 Y95.271 Z0.400 E36.99224 F800
G1 X97.078 Y95.271 Z0.400 E36.99284 F800
G1 X97.258 Y95.541 Z0.400 E37.01231 F800
G1 X97.278 Y95.571 Z0.400 E37.01448 F800
G1 X97.268 Y95.551 Z0.400 E37.01582 F800
G1 X97.258 Y95.531 Z0.400 E37.01716 F800
G1 X97.278 Y95.551 Z0.400 E37.01886 F800
G1 X97.088 Y95.251 Z0.400 E37.04016 F800
G1 X97.288 Y95.551 Z0.400 E37.06180 F800
G1 X97.278 Y95.531 Z0.400 E37.06314 F800
G1 X97.108 Y95.261 Z0.400 E37.08228 F800
G1 X97.288 Y95.531 Z0.400 E37.10175 F800
G1 X97.308 Y95.541 Z0.400 E37.10310 F800
G1 X97.128 Y95.261 Z0.400 E37.12307 F800
G1 X98.108 Y95.121 Z0.400 E37.18246 F800
G1 X98.158 Y95.111 Z0.400 E37.18552 F800
G1 X98.158 Y95.091 Z0.400 E37.18672 F800
G1 X98.028 Y94.771 Z0.400 E37.20745 F800
G1 X98.158 Y95.081 Z0.400 E37.22762 F800
G1 X98.168 Y95.081 Z0.400 E37.22822 F800
G1 X98.048 Y94.771 Z0.400 E37.24816 F800
G1 X99.048 Y94.481 Z0.400 E37.31063 F800
G1 X99.118 Y94.811 Z0.400 E37.33087 F800
G1 X99.068 Y94.471 Z0.400 E37.35149 F800
G1 X100.078 Y94.371 Z0.400 E37.41239 F800
G1 X100.088 Y94.731 Z0.400 E37.43400 F800
G1 X100.098 Y94.351 Z0.400 E37.45681 F800
G1 X100.098 Y94.651 Z0.400 E37.47481 F800
G1 X100.098 Y94.371 Z0.400 E37.49161 F800
G1 X100.108 Y94.671 Z0.400 E37.50962 F800
G1 X100.118 Y94.361 Z0.400 E37.52823 F800
G1 X101.128 Y94.461 Z0.400 E37.58912 F800
G1 X101.078 Y94.781 Z0.400 E37.60856 F800
G1 X101.078 Y94.811 Z0.400 E37.61036 F800
G1 X101.088 Y94.811 Z0.400 E37.61096 F800
G1 X101.158 Y94.471 Z0.400 E37.63178 F800
G1 X101.158 Y94.491 Z0.400 E37.63298 F800
G1 X101.088 Y94.851 Z0.400 E37.65499 F800
G1 X101.098 Y94.801 Z0.400 E37.65805 F800
G1 X101.108 Y94.781 Z0.400 E37.65939 F800
G1 X101.108 Y94.791 Z0.400 E37.65999 F800
G1 X101.118 Y94.801 Z0.400 E37.66084 F800
G1 X102.148 Y94.781 Z0.400 E37.72265 F800
G1 X102.038 Y95.061 Z0.400 E37.74070 F800
G1 X102.038 Y95.091 Z0.400 E37.74250 F800
G1 X102.048 Y95.071 Z0.400 E37.74384 F800
G1 X102.168 Y94.781 Z0.400 E37.76267 F800
G1 X102.048 Y95.091 Z0.400 E37.78262 F800
G1 X102.168 Y94.801 Z0.400 E37.80145 F800
G1 X102.178 Y94.781 Z0.400 E37.80279 F800
G1 X102.178 Y94.791 Z0.400 E37.80339 F800
G1 X102.178 Y94.811 Z0.400 E37.80459 F800
G1 X102.058 Y95.101 Z0.400 E37.82342 F800
G1 X102.198 Y94.771 Z0.400 E37.84493 F800
G1 X102.928 Y95.551 Z0.400 E37.90903 F800
G1 X102.948 Y95.531 Z0.400 E37.91072 F800
G1 X103.118 Y95.311 Z0.400 E37.92741 F800
G1 X102.948 Y95.571 Z0.400 E37.94604 F800
G1 X103.908 Y95.981 Z0.400 E38.00868 F800
G1 X103.918 Y95.971 Z0.400 E38.00953 F800
G1 X103.938 Y95.961 Z0.400 E38.01087 F800
G1 X103.708 Y96.201 Z0.400 E38.03081 F800
G1 X103.698 Y96.211 Z0.400 E38.03166 F800
G1 X103.728 Y96.201 Z0.400 E38.03356 F800
G1 X104.618 Y96.771 Z0.400 E38.09697 F800
G1 X104.338 Y96.961 Z0.400 E38.11727 F800
G1 X104.588 Y96.801 Z0.400 E38.13508 F800
G1 X104.628 Y96.791 Z0.400 E38.13756 F800
G1 X104.338 Y97.021 Z0.400 E38.15976 F800
G1 X104.808 Y97.871 Z0.400 E38.21804 F800
G1 X105.138 Y97.761 Z0.400 E38.23891 F800
G1 X105.428 Y98.741 Z0.400 E38.30023 F800
G1 X105.088 Y98.831 Z0.400 E38.32134 F800
G1 X105.208 Y99.811 Z0.400 E38.38058 F800
G1 X105.528 Y99.831 Z0.400 E38.39981 F800
G1 X105.488 Y99.841 Z0.400 E38.40229 F800
G1 X105.118 Y100.791 Z0.400 E38.46346 F800
G1 X105.438 Y100.871 Z0.400 E38.48325 F800
G1 X105.418 Y100.871 Z0.400 E38.48445 F800
G1 X105.088 Y100.831 Z0.400 E38.50439 F800
G1 X105.118 Y101.901 Z0.400 E38.56862 F800
G1 X104.768 Y101.791 Z0.400 E38.59063 F800
G1 X104.608 Y102.811 Z0.400 E38.65258 F800
G1 X104.348 Y102.641 Z0.400 E38.67122 F800
G1 X104.588 Y102.801 Z0.400 E38.68852 F800
G1 X104.318 Y102.641 Z0.400 E38.70736 F800
G1 X104.338 Y102.671 Z0.400 E38.70952 F800
G1 X103.718 Y103.411 Z0.400 E38.76744 F800
G1 X103.958 Y103.651 Z0.400 E38.78781 F800
G1 X103.688 Y103.391 Z0.400 E38.81030 F800
G1 X103.708 Y103.411 Z0.400 E38.81199 F800
G1 X103.708 Y103.421 Z0.400 E38.81259 F800
G1 X103.928 Y103.651 Z0.400 E38.83169 F800
G1 X102.958 Y104.051 Z0.400 E38.89465 F800
G1 X103.128 Y104.321 Z0.400 E38.91379 F800
G1 X103.108 Y104.301 Z0.400 E38.91549 F800
G1 X103.128 Y104.341 Z0.400 E38.91817 F800
G1 X102.918 Y104.031 Z0.400 E38.94064 F800
G1 X103.108 Y104.321 Z0.400 E38.96144 F800
G1 X103.108 Y104.331 Z0.400 E38.96204 F800
G1 X102.928 Y104.061 Z0.400 E38.98151 F800
G1 X103.118 Y104.361 Z0.400 E39.00281 F800
G1 X102.918 Y104.061 Z0.400 E39.02445 F800
G1 X102.928 Y104.081 Z0.400 E39.02579 F800
G1 X103.098 Y104.341 Z0.400 E39.04443 F800
G1 X102.918 Y104.071 Z0.400 E39.06390 F800
G1 X103.088 Y104.341 Z0.400 E39.08304 F800
G1 X102.908 Y104.071 Z0.400 E39.10251 F800
G1 X103.078 Y104.331 Z0.400 E39.12115 F800
G1 X102.888 Y104.081 Z0.400 E39.13999 F800
G1 X102.068 Y104.531 Z0.400 E39.19611 F800
G1 X102.048 Y104.501 Z0.400 E39.19828 F800
G1 X102.178 Y104.821 Z0.400 E39.21900 F800
G1 X102.178 Y104.831 Z0.400 E39.21960 F800
G1 X102.178 Y104.851 Z0.400 E39.22080 F800
G1 X102.168 Y104.861 Z0.400 E39.22165 F800
G1 X102.028 Y104.551 Z0.400 E39.24206 F800
G1 X101.118 Y104.801 Z0.400 E39.29868 F800
G1 X101.108 Y104.791 Z0.400 E39.29953 F800
G1 X101.168 Y105.161 Z0.400 E39.32202 F800
G1 X101.098 Y104.821 Z0.400 E39.34285 F800
G1 X101.158 Y105.131 Z0.400 E39.36179 F800
G1 X101.098 Y104.841 Z0.400 E39.37956 F800
G1 X101.088 Y104.791 Z0.400 E39.38262 F800
G1 X101.078 Y104.801 Z0.400 E39.38347 F800
G1 X101.138 Y105.131 Z0.400 E39.40359 F800
G1 X101.128 Y105.141 Z0.400 E39.40444 F800
G1 X100.128 Y104.931 Z0.400 E39.46575 F800
G1 X100.098 Y105.241 Z0.400 E39.48444 F800
G1 X100.088 Y105.231 Z0.400 E39.48528 F800
G1 X100.088 Y104.911 Z0.400 E39.50448 F800
G1 X100.088 Y104.901 Z0.400 E39.50508 F800
G1 X100.078 Y105.221 Z0.400 E39.52429 F800
G1 X99.068 Y105.131 Z0.400 E39.58513 F800
G1 X99.068 Y105.111 Z0.400 E39.58633 F800
G1 X99.058 Y105.131 Z0.400 E39.58768 F800
G1 X99.038 Y105.131 Z0.400 E39.58888 F800
G1 X99.098 Y104.821 Z0.400 E39.60782 F800
G1 X99.038 Y105.121 Z0.400 E39.62618 F800
G1 X99.098 Y104.811 Z0.400 E39.64512 F800
G1 X99.098 Y104.801 Z0.400 E39.64572 F800
G1 X99.028 Y105.141 Z0.400 E39.66655 F800
G1 X99.028 Y105.101 Z0.400 E39.66895 F800
G1 X98.038 Y104.841 Z0.400 E39.73036 F800
G1 X98.028 Y104.851 Z0.400 E39.73121 F800
G1 X98.148 Y104.551 Z0.400 E39.75060 F800
G1 X98.028 Y104.841 Z0.400 E39.76943 F800
G1 X98.158 Y104.521 Z0.400 E39.79015 F800
G1 X98.028 Y104.831 Z0.400 E39.81032 F800
G1 X98.148 Y104.531 Z0.400 E39.82971 F800
G1 X98.148 Y104.521 Z0.400 E39.83031 F800
G1 X98.018 Y104.831 Z0.400 E39.85048 F800
G1 X98.018 Y104.821 Z0.400 E39.85108 F800
G1 X98.138 Y104.521 Z0.400 E39.87047 F800
G1 X98.008 Y104.831 Z0.400 E39.89064 F800
G1 X97.998 Y104.851 Z0.400 E39.89198 F800
G1 X98.128 Y104.531 Z0.400 E39.91270 F800
G1 X98.008 Y104.811 Z0.400 E39.93098 F800
G1 X98.128 Y104.501 Z0.400 E39.95092 F800
G1 X97.288 Y104.091 Z0.400 E40.00701 F800
G1 X97.118 Y104.341 Z0.400 E40.02515 F800
G1 X97.108 Y104.351 Z0.400 E40.02600 F800
G1 X97.088 Y104.371 Z0.400 E40.02769 F800
G1 X97.098 Y104.351 Z0.400 E40.02903 F800
G1 X97.268 Y104.091 Z0.400 E40.04767 F800
G1 X97.268 Y104.081 Z0.400 E40.04827 F800
G1 X97.098 Y104.331 Z0.400 E40.06641 F800
G1 X97.268 Y104.071 Z0.400 E40.08505 F800
G1 X97.088 Y104.341 Z0.400 E40.10452 F800
G1 X97.278 Y104.051 Z0.400 E40.12532 F800
G1 X97.258 Y104.081 Z0.400 E40.12749 F800
G1 X97.078 Y104.351 Z0.400 E40.14696 F800
G1 X97.268 Y104.061 Z0.400 E40.16776 F800
G1 X97.088 Y104.331 Z0.400 E40.18723 F800
G1 X97.258 Y104.071 Z0.400 E40.20587 F800
G1 X97.278 Y104.041 Z0.400 E40.20803 F800
G1 X97.268 Y104.051 Z0.400 E40.20888 F800
G1 X97.078 Y104.331 Z0.400 E40.22918 F800
G1 X97.258 Y104.061 Z0.400 E40.24865 F800
G1 X97.068 Y104.341 Z0.400 E40.26895 F800
G1 X97.248 Y104.071 Z0.400 E40.28842 F800
G1 X97.258 Y104.051 Z0.400 E40.28977 F800
G1 X97.248 Y104.061 Z0.400 E40.29061 F800
G1 X97.258 Y104.041 Z0.400 E40.29196 F800
G1 X97.068 Y104.321 Z0.400 E40.31226 F800
G1 X97.248 Y104.051 Z0.400 E40.33173 F800
G1 X97.228 Y104.051 Z0.400 E40.33293 F800
G1 X96.268 Y103.661 Z0.400 E40.39510 F800
G1 X96.488 Y103.431 Z0.400 E40.41420 F800
G1 X96.258 Y103.661 Z0.400 E40.43371 F800
G1 X96.248 Y103.661 Z0.400 E40.43431 F800
G1 X96.238 Y103.671 Z0.400 E40.43516 F800
G1 X95.858 Y102.671 Z0.400 E40.49935 F800
G1 X95.588 Y102.841 Z0.400 E40.51849 F800
G1 X95.568 Y102.831 Z0.400 E40.51983 F800
G1 X95.848 Y102.641 Z0.400 E40.54014 F800
G1 X95.378 Y101.771 Z0.400 E40.59947 F800
G1 X95.088 Y101.891 Z0.400 E40.61830 F800
G1 X95.388 Y101.761 Z0.400 E40.63791 F800
G1 X95.398 Y101.751 Z0.400 E40.63876 F800
G1 X95.078 Y101.881 Z0.400 E40.65949 F800
G1 X95.058 Y101.881 Z0.400 E40.66069 F800
G1 X94.788 Y100.871 Z0.400 E40.72341 F800
G1 X95.088 Y100.801 Z0.400 E40.74190 F800
G1 X94.998 Y99.821 Z0.400 E40.80094 F800
G1 X94.678 Y99.811 Z0.400 E40.82015 F800

; polyline 15
G1 X95.398 Y98.881 Z0.400 F800
G1 X95.698 Y98.001 Z0.400 E40.87594 F800
G1 X95.688 Y97.961 Z0.400 E40.87841 F800
G1 X96.128 Y97.171 Z0.400 E40.93267 F800
G1 X96.138 Y97.161 Z0.400 E40.93352 F800
G1 X96.718 Y96.441 Z0.400 E40.98899 F800
G1 X96.748 Y96.421 Z0.400 E40.99115 F800
G1 X97.438 Y95.831 Z0.400 E41.04562 F800
G1 X97.448 Y95.841 Z0.400 E41.04647 F800
G1 X97.478 Y95.831 Z0.400 E41.04837 F800
G1 X97.468 Y95.811 Z0.400 E41.04971 F800
G1 X97.478 Y95.821 Z0.400 E41.05056 F800
G1 X97.478 Y95.801 Z0.400 E41.05176 F800
G1 X98.268 Y95.391 Z0.400 E41.10516 F800
G1 X98.288 Y95.411 Z0.400 E41.10686 F800
G1 X98.298 Y95.371 Z0.400 E41.10933 F800
G1 X98.288 Y95.341 Z0.400 E41.11123 F800
G1 X99.138 Y95.091 Z0.400 E41.16439 F800
G1 X99.168 Y95.141 Z0.400 E41.16789 F800
G1 X100.068 Y95.031 Z0.400 E41.22229 F800
G1 X100.088 Y95.011 Z0.400 E41.22399 F800
G1 X100.998 Y95.141 Z0.400 E41.27914 F800
G1 X101.008 Y95.131 Z0.400 E41.27999 F800
G1 X101.018 Y95.121 Z0.400 E41.28084 F800
G1 X101.028 Y95.121 Z0.400 E41.28144 F800
G1 X101.048 Y95.081 Z0.400 E41.28412 F800
G1 X101.048 Y95.111 Z0.400 E41.28592 F800
G1 X101.058 Y95.111 Z0.400 E41.28652 F800
G1 X101.908 Y95.411 Z0.400 E41.34061 F800
G1 X101.918 Y95.401 Z0.400 E41.34146 F800
G1 X101.928 Y95.381 Z0.400 E41.34280 F800
G1 X101.938 Y95.361 Z0.400 E41.34414 F800
G1 X101.928 Y95.391 Z0.400 E41.34604 F800
G1 X101.918 Y95.421 Z0.400 E41.34793 F800
G1 X101.928 Y95.401 Z0.400 E41.34928 F800
G1 X101.938 Y95.381 Z0.400 E41.35062 F800
G1 X101.938 Y95.391 Z0.400 E41.35122 F800
G1 X101.938 Y95.401 Z0.400 E41.35182 F800
G1 X101.938 Y95.411 Z0.400 E41.35242 F800
G1 X101.948 Y95.391 Z0.400 E41.35376 F800
G1 X101.928 Y95.441 Z0.400 E41.35699 F800
G1 X101.948 Y95.401 Z0.400 E41.35967 F800
G1 X101.948 Y95.411 Z0.400 E41.36027 F800
G1 X101.958 Y95.401 Z0.400 E41.36112 F800
G1 X102.758 Y95.811 Z0.400 E41.41506 F800
G1 X102.748 Y95.831 Z0.400 E41.41640 F800
G1 X102.748 Y95.841 Z0.400 E41.41700 F800
G1 X102.758 Y95.831 Z0.400 E41.41785 F800
G1 X102.758 Y95.841 Z0.400 E41.41845 F800
G1 X102.758 Y95.851 Z0.400 E41.41905 F800
G1 X103.468 Y96.411 Z0.400 E41.47330 F800
G1 X103.488 Y96.431 Z0.400 E41.47500 F800
G1 X103.488 Y96.451 Z0.400 E41.47620 F800
G1 X104.028 Y97.161 Z0.400 E41.52972 F800
G1 X104.068 Y97.161 Z0.400 E41.53212 F800
G1 X104.088 Y97.151 Z0.400 E41.53346 F800
G1 X104.078 Y97.161 Z0.400 E41.53431 F800
G1 X104.528 Y98.001 Z0.400 E41.59149 F800
G1 X104.808 Y98.901 Z0.400 E41.64804 F800
G1 X104.868 Y99.791 Z0.400 E41.70156 F800
G1 X104.868 Y99.811 Z0.400 E41.70276 F800
G1 X104.888 Y99.861 Z0.400 E41.70600 F800
G1 X104.788 Y100.731 Z0.400 E41.75854 F800
G1 X104.788 Y100.741 Z0.400 E41.75914 F800
G1 X104.518 Y101.631 Z0.400 E41.81494 F800
G1 X104.518 Y101.651 Z0.400 E41.81614 F800
G1 X104.518 Y101.661 Z0.400 E41.81674 F800
G1 X104.088 Y102.471 Z0.400 E41.87177 F800
G1 X104.058 Y102.491 Z0.400 E41.87393 F800
G1 X103.478 Y103.161 Z0.400 E41.92710 F800
G1 X103.498 Y103.201 Z0.400 E41.92978 F800
G1 X102.758 Y103.751 Z0.400 E41.98510 F800
G1 X102.768 Y103.781 Z0.400 E41.98700 F800
G1 X102.768 Y103.791 Z0.400 E41.98760 F800
G1 X102.758 Y103.781 Z0.400 E41.98845 F800
G1 X102.778 Y103.811 Z0.400 E41.99061 F800
G1 X102.768 Y103.801 Z0.400 E41.99146 F800
G1 X102.758 Y103.791 Z0.400 E41.99231 F800
G1 X102.768 Y103.811 Z0.400 E41.99365 F800
G1 X102.758 Y103.801 Z0.400 E41.99450 F800
G1 X102.748 Y103.791 Z0.400 E41.99535 F800
G1 X102.738 Y103.781 Z0.400 E41.99620 F800
G1 X102.748 Y103.801 Z0.400 E41.99754 F800
G1 X102.738 Y103.791 Z0.400 E41.99839 F800
G1 X102.748 Y103.811 Z0.400 E41.99973 F800
G1 X102.738 Y103.801 Z0.400 E42.00058 F800
G1 X102.748 Y103.821 Z0.400 E42.00192 F800
G1 X102.728 Y103.791 Z0.400 E42.00408 F800
G1 X102.738 Y103.811 Z0.400 E42.00542 F800
G1 X102.728 Y103.801 Z0.400 E42.00627 F800
G1 X101.938 Y104.231 Z0.400 E42.06024 F800
G1 X101.928 Y104.231 Z0.400 E42.06084 F800
G1 X101.918 Y104.211 Z0.400 E42.06218 F800
G1 X101.928 Y104.241 Z0.400 E42.06408 F800
G1 X101.918 Y104.241 Z0.400 E42.06468 F800
G1 X101.908 Y104.241 Z0.400 E42.06528 F800
G1 X101.048 Y104.491 Z0.400 E42.11901 F800
G1 X101.048 Y104.501 Z0.400 E42.11961 F800
G1 X101.038 Y104.491 Z0.400 E42.12046 F800
G1 X101.038 Y104.501 Z0.400 E42.12106 F800
G1 X101.038 Y104.511 Z0.400 E42.12166 F800
G1 X101.028 Y104.491 Z0.400 E42.12300 F800
G1 X101.028 Y104.501 Z0.400 E42.12360 F800
G1 X101.018 Y104.501 Z0.400 E42.12420 F800
G1 X101.018 Y104.511 Z0.400 E42.12480 F800
G1 X101.008 Y104.491 Z0.400 E42.12615 F800
G1 X100.108 Y104.571 Z0.400 E42.18036 F800
G1 X100.098 Y104.591 Z0.400 E42.18170 F800
G1 X100.088 Y104.571 Z0.400 E42.18304 F800
G1 X99.188 Y104.501 Z0.400 E42.23720 F800
G1 X99.178 Y104.481 Z0.400 E42.23855 F800
G1 X99.168 Y104.491 Z0.400 E42.23939 F800
G1 X99.168 Y104.471 Z0.400 E42.24059 F800
G1 X99.158 Y104.521 Z0.400 E42.24365 F800
G1 X99.158 Y104.491 Z0.400 E42.24545 F800
G1 X99.148 Y104.481 Z0.400 E42.24630 F800
G1 X98.288 Y104.241 Z0.400 E42.29987 F800
G1 X98.278 Y104.261 Z0.400 E42.30122 F800
G1 X98.288 Y104.231 Z0.400 E42.30311 F800
G1 X98.278 Y104.241 Z0.400 E42.30396 F800
G1 X98.288 Y104.211 Z0.400 E42.30586 F800
G1 X98.278 Y104.231 Z0.400 E42.30720 F800
G1 X98.268 Y104.251 Z0.400 E42.30854 F800
G1 X98.278 Y104.221 Z0.400 E42.31044 F800
G1 X98.268 Y104.241 Z0.400 E42.31178 F800
G1 X98.268 Y104.231 Z0.400 E42.31238 F800
G1 X98.258 Y104.251 Z0.400 E42.31372 F800
G1 X98.268 Y104.221 Z0.400 E42.31562 F800
G1 X98.268 Y104.211 Z0.400 E42.31622 F800
G1 X98.258 Y104.221 Z0.400 E42.31707 F800
G1 X98.248 Y104.241 Z0.400 E42.31841 F800
G1 X98.248 Y104.231 Z0.400 E42.31901 F800
G1 X97.488 Y103.771 Z0.400 E42.37231 F800
G1 X97.468 Y103.791 Z0.400 E42.37401 F800
G1 X97.478 Y103.771 Z0.400 E42.37535 F800
G1 X97.458 Y103.801 Z0.400 E42.37751 F800
G1 X97.468 Y103.781 Z0.400 E42.37886 F800
G1 X97.458 Y103.791 Z0.400 E42.37971 F800
G1 X97.468 Y103.771 Z0.400 E42.38105 F800
G1 X97.448 Y103.801 Z0.400 E42.38321 F800
G1 X97.458 Y103.781 Z0.400 E42.38455 F800
G1 X97.438 Y103.811 Z0.400 E42.38671 F800
G1 X97.448 Y103.791 Z0.400 E42.38806 F800
G1 X97.438 Y103.801 Z0.400 E42.38891 F800
G1 X97.458 Y103.771 Z0.400 E42.39107 F800
G1 X97.448 Y103.781 Z0.400 E42.39192 F800
G1 X97.438 Y103.791 Z0.400 E42.39277 F800
G1 X97.428 Y103.801 Z0.400 E42.39361 F800
G1 X97.448 Y103.771 Z0.400 E42.39578 F800
G1 X97.438 Y103.781 Z0.400 E42.39663 F800
G1 X97.428 Y103.791 Z0.400 E42.39747 F800
G1 X97.438 Y103.771 Z0.400 E42.39882 F800
G1 X97.428 Y103.781 Z0.400 E42.39966 F800
G1 X97.448 Y103.751 Z0.400 E42.40183 F800
G1 X97.418 Y103.791 Z0.400 E42.40483 F800
G1 X97.438 Y103.761 Z0.400 E42.40699 F800
G1 X97.428 Y103.771 Z0.400 E42.40784 F800
G1 X97.418 Y103.771 Z0.400 E42.40844 F800
G1 X97.418 Y103.761 Z0.400 E42.40904 F800
G1 X97.408 Y103.771 Z0.400 E42.40989 F800
G1 X96.738 Y103.191 Z0.400 E42.46306 F800
G1 X96.708 Y103.201 Z0.400 E42.46496 F800
G1 X96.688 Y103.221 Z0.400 E42.46665 F800
G1 X96.698 Y103.181 Z0.400 E42.46913 F800
G1 X96.708 Y103.151 Z0.400 E42.47102 F800
G1 X96.148 Y102.491 Z0.400 E42.52296 F800
G1 X95.688 Y101.641 Z0.400 E42.58095 F800
G1 X95.668 Y101.601 Z0.400 E42.58363 F800
G1 X95.418 Y100.751 Z0.400 E42.63679 F800
G1 X95.398 Y100.721 Z0.400 E42.63895 F800
G1 X95.328 Y99.831 Z0.400 E42.69252 F800
G1 X95.398 Y98.881 Z0.400 E42.74967 F800

; polyline 16
G1 X95.628 Y99.811 Z0.400 F800
G1 X96.068 Y99.021 Z0.400 E42.80393 F800
G1 X96.088 Y99.021 Z0.400 E42.80513 F800
G1 X96.058 Y99.011 Z0.400 E42.80703 F800
G1 X95.718 Y98.941 Z0.400 E42.82785 F800
G1 X95.758 Y98.911 Z0.400 E42.83085 F800
G1 X96.298 Y98.251 Z0.400 E42.88202 F800
G1 X95.998 Y98.091 Z0.400 E42.90242 F800
G1 X96.628 Y97.521 Z0.400 E42.95340 F800
G1 X96.408 Y97.341 Z0.400 E42.97045 F800
G1 X96.698 Y97.521 Z0.400 E42.99093 F800
G1 X96.398 Y97.311 Z0.400 E43.01290 F800
G1 X96.688 Y97.501 Z0.400 E43.03370 F800
G1 X96.718 Y97.521 Z0.400 E43.03587 F800
G1 X96.958 Y96.651 Z0.400 E43.09002 F800
G1 X97.198 Y96.891 Z0.400 E43.11038 F800
G1 X96.958 Y96.631 Z0.400 E43.13161 F800
G1 X96.968 Y96.641 Z0.400 E43.13246 F800
G1 X96.978 Y96.651 Z0.400 E43.13331 F800
G1 X97.208 Y96.871 Z0.400 E43.15241 F800
G1 X97.218 Y96.881 Z0.400 E43.15325 F800
G1 X96.968 Y96.611 Z0.400 E43.17533 F800
G1 X97.618 Y96.121 Z0.400 E43.22417 F800
G1 X97.808 Y96.401 Z0.400 E43.24447 F800
G1 X97.628 Y96.121 Z0.400 E43.26445 F800
G1 X97.798 Y96.361 Z0.400 E43.28209 F800
G1 X97.618 Y96.091 Z0.400 E43.30156 F800
G1 X97.818 Y96.391 Z0.400 E43.32320 F800
G1 X97.808 Y96.371 Z0.400 E43.32454 F800
G1 X97.638 Y96.111 Z0.400 E43.34318 F800
G1 X97.818 Y96.381 Z0.400 E43.36265 F800
G1 X97.628 Y96.091 Z0.400 E43.38345 F800
G1 X97.828 Y96.391 Z0.400 E43.40508 F800
G1 X97.638 Y96.101 Z0.400 E43.42588 F800
G1 X97.818 Y96.371 Z0.400 E43.44535 F800
G1 X97.838 Y96.401 Z0.400 E43.44752 F800
G1 X97.628 Y96.081 Z0.400 E43.47048 F800
G1 X97.638 Y96.091 Z0.400 E43.47133 F800
G1 X97.818 Y96.361 Z0.400 E43.49080 F800
G1 X97.838 Y96.391 Z0.400 E43.49296 F800
G1 X97.648 Y96.101 Z0.400 E43.51377 F800
G1 X97.828 Y96.371 Z0.400 E43.53324 F800
G1 X97.638 Y96.081 Z0.400 E43.55404 F800
G1 X97.658 Y96.111 Z0.400 E43.55620 F800
G1 X97.818 Y96.351 Z0.400 E43.57351 F800
G1 X97.838 Y96.381 Z0.400 E43.57567 F800
G1 X97.648 Y96.091 Z0.400 E43.59647 F800
G1 X97.668 Y96.121 Z0.400 E43.59864 F800
G1 X97.828 Y96.361 Z0.400 E43.61594 F800
G1 X97.638 Y96.071 Z0.400 E43.63675 F800
G1 X97.658 Y96.101 Z0.400 E43.63891 F800
G1 X97.838 Y96.371 Z0.400 E43.65838 F800
G1 X97.648 Y96.081 Z0.400 E43.67918 F800
G1 X97.828 Y96.351 Z0.400 E43.69865 F800
G1 X97.658 Y96.091 Z0.400 E43.71729 F800
G1 X97.838 Y96.361 Z0.400 E43.73676 F800
G1 X97.848 Y96.371 Z0.400 E43.73761 F800
G1 X97.838 Y96.351 Z0.400 E43.73895 F800
G1 X97.838 Y96.341 Z0.400 E43.73955 F800
G1 X97.858 Y96.371 Z0.400 E43.74171 F800
G1 X97.698 Y96.111 Z0.400 E43.76003 F800
G1 X97.708 Y96.081 Z0.400 E43.76193 F800
G1 X98.368 Y95.701 Z0.400 E43.80762 F800
G1 X98.378 Y95.681 Z0.400 E43.80896 F800
G1 X98.398 Y95.691 Z0.400 E43.81031 F800
G1 X98.518 Y95.981 Z0.400 E43.82914 F800
G1 X98.538 Y96.001 Z0.400 E43.83083 F800
G1 X98.408 Y95.681 Z0.400 E43.85156 F800
G1 X98.528 Y95.971 Z0.400 E43.87039 F800
G1 X98.408 Y95.661 Z0.400 E43.89033 F800
G1 X98.548 Y96.001 Z0.400 E43.91239 F800
G1 X98.428 Y95.701 Z0.400 E43.93178 F800
G1 X98.548 Y95.981 Z0.400 E43.95006 F800
G1 X98.438 Y95.681 Z0.400 E43.96923 F800
G1 X98.568 Y95.981 Z0.400 E43.98885 F800
G1 X99.268 Y95.731 Z0.400 E44.03345 F800
G1 X99.208 Y95.431 Z0.400 E44.05180 F800
G1 X99.288 Y95.781 Z0.400 E44.07334 F800
G1 X99.298 Y95.771 Z0.400 E44.07419 F800
G1 X99.298 Y95.711 Z0.400 E44.07779 F800
G1 X99.248 Y95.431 Z0.400 E44.09486 F800
G1 X99.248 Y95.411 Z0.400 E44.09606 F800
G1 X99.258 Y95.411 Z0.400 E44.09666 F800
G1 X99.268 Y95.421 Z0.400 E44.09751 F800
G1 X100.058 Y95.681 Z0.400 E44.14741 F800
G1 X100.068 Y95.351 Z0.400 E44.16722 F800
G1 X100.078 Y95.351 Z0.400 E44.16782 F800
G1 X100.088 Y95.661 Z0.400 E44.18643 F800
G1 X100.088 Y95.331 Z0.400 E44.20623 F800
G1 X100.098 Y95.671 Z0.400 E44.22664 F800
G1 X100.118 Y95.351 Z0.400 E44.24587 F800
G1 X100.118 Y95.371 Z0.400 E44.24707 F800
G1 X100.938 Y95.451 Z0.400 E44.29651 F800
G1 X100.948 Y95.421 Z0.400 E44.29840 F800
G1 X100.888 Y95.741 Z0.400 E44.31794 F800
G1 X100.888 Y95.761 Z0.400 E44.31914 F800
G1 X100.898 Y95.731 Z0.400 E44.32104 F800
G1 X100.948 Y95.481 Z0.400 E44.33633 F800
G1 X100.888 Y95.791 Z0.400 E44.35528 F800
G1 X100.958 Y95.441 Z0.400 E44.37669 F800
G1 X100.958 Y95.451 Z0.400 E44.37729 F800
G1 X100.958 Y95.461 Z0.400 E44.37789 F800
G1 X100.898 Y95.771 Z0.400 E44.39684 F800
G1 X100.968 Y95.431 Z0.400 E44.41767 F800
G1 X100.968 Y95.441 Z0.400 E44.41827 F800
G1 X100.908 Y95.761 Z0.400 E44.43780 F800
G1 X100.978 Y95.421 Z0.400 E44.45863 F800
G1 X100.968 Y95.471 Z0.400 E44.46169 F800
G1 X100.908 Y95.771 Z0.400 E44.48005 F800
G1 X100.978 Y95.431 Z0.400 E44.50087 F800
G1 X100.918 Y95.751 Z0.400 E44.52041 F800
G1 X100.988 Y95.461 Z0.400 E44.53831 F800
G1 X101.758 Y95.691 Z0.400 E44.58653 F800
G1 X101.638 Y95.991 Z0.400 E44.60591 F800
G1 X101.638 Y96.001 Z0.400 E44.60651 F800
G1 X101.748 Y95.731 Z0.400 E44.62400 F800
G1 X101.778 Y95.681 Z0.400 E44.62750 F800
G1 X101.658 Y95.981 Z0.400 E44.64689 F800
G1 X101.768 Y95.721 Z0.400 E44.66383 F800
G1 X101.658 Y95.991 Z0.400 E44.68132 F800
G1 X101.778 Y95.701 Z0.400 E44.70015 F800
G1 X101.788 Y95.691 Z0.400 E44.70100 F800
G1 X101.658 Y96.011 Z0.400 E44.72172 F800
G1 X101.668 Y95.991 Z0.400 E44.72307 F800
G1 X101.788 Y95.701 Z0.400 E44.74190 F800
G1 X101.798 Y95.681 Z0.400 E44.74324 F800
G1 X101.668 Y96.001 Z0.400 E44.76396 F800
G1 X101.678 Y95.981 Z0.400 E44.76530 F800
G1 X101.798 Y95.691 Z0.400 E44.78414 F800
G1 X101.658 Y96.031 Z0.400 E44.80620 F800
G1 X101.808 Y95.671 Z0.400 E44.82960 F800
G1 X101.678 Y95.991 Z0.400 E44.85032 F800
G1 X101.798 Y95.701 Z0.400 E44.86915 F800
G1 X101.808 Y95.681 Z0.400 E44.87049 F800
G1 X101.788 Y95.731 Z0.400 E44.87372 F800
G1 X101.668 Y96.021 Z0.400 E44.89256 F800
G1 X101.798 Y95.711 Z0.400 E44.91272 F800
G1 X101.678 Y96.001 Z0.400 E44.93156 F800
G1 X101.808 Y95.691 Z0.400 E44.95172 F800
G1 X101.798 Y95.721 Z0.400 E44.95362 F800
G1 X101.678 Y96.011 Z0.400 E44.97245 F800
G1 X101.808 Y95.701 Z0.400 E44.99262 F800
G1 X101.688 Y95.991 Z0.400 E45.01145 F800
G1 X101.808 Y95.711 Z0.400 E45.02973 F800
G1 X101.688 Y96.001 Z0.400 E45.04856 F800
G1 X101.818 Y95.691 Z0.400 E45.06873 F800
G1 X101.678 Y96.031 Z0.400 E45.09079 F800
G1 X101.808 Y95.721 Z0.400 E45.11096 F800
G1 X101.688 Y96.011 Z0.400 E45.12979 F800
G1 X101.818 Y95.701 Z0.400 E45.14996 F800
G1 X101.698 Y95.991 Z0.400 E45.16879 F800
G1 X101.808 Y95.731 Z0.400 E45.18573 F800
G1 X101.818 Y95.711 Z0.400 E45.18707 F800
G1 X101.828 Y95.691 Z0.400 E45.18841 F800
G1 X101.698 Y96.001 Z0.400 E45.20858 F800
G1 X101.838 Y95.671 Z0.400 E45.23009 F800
G1 X101.818 Y95.721 Z0.400 E45.23332 F800
G1 X101.828 Y95.701 Z0.400 E45.23466 F800
G1 X101.698 Y96.011 Z0.400 E45.25483 F800
G1 X101.818 Y95.731 Z0.400 E45.27311 F800
G1 X101.828 Y95.711 Z0.400 E45.27445 F800
G1 X101.698 Y96.021 Z0.400 E45.29462 F800
G1 X101.838 Y95.691 Z0.400 E45.31613 F800
G1 X101.828 Y95.721 Z0.400 E45.31803 F800
G1 X101.838 Y95.701 Z0.400 E45.31937 F800
G1 X101.708 Y96.021 Z0.400 E45.34009 F800
G1 X102.378 Y96.361 Z0.400 E45.38517 F800
G1 X102.388 Y96.361 Z0.400 E45.38577 F800
G1 X102.568 Y96.091 Z0.400 E45.40524 F800
G1 X102.378 Y96.381 Z0.400 E45.42605 F800
G1 X102.558 Y96.111 Z0.400 E45.44552 F800
G1 X102.568 Y96.101 Z0.400 E45.44636 F800
G1 X102.378 Y96.391 Z0.400 E45.46717 F800
G1 X102.578 Y96.091 Z0.400 E45.48880 F800
G1 X102.398 Y96.361 Z0.400 E45.50827 F800
G1 X102.568 Y96.111 Z0.400 E45.52641 F800
G1 X102.388 Y96.381 Z0.400 E45.54588 F800
G1 X102.398 Y96.371 Z0.400 E45.54673 F800
G1 X102.588 Y96.091 Z0.400 E45.56703 F800
G1 X102.568 Y96.121 Z0.400 E45.56919 F800
G1 X102.388 Y96.391 Z0.400 E45.58866 F800
G1 X102.398 Y96.381 Z0.400 E45.58951 F800
G1 X102.588 Y96.101 Z0.400 E45.60981 F800
G1 X102.408 Y96.371 Z0.400 E45.62928 F800
G1 X102.398 Y96.391 Z0.400 E45.63063 F800
G1 X102.588 Y96.111 Z0.400 E45.65093 F800
G1 X102.408 Y96.381 Z0.400 E45.67040 F800
G1 X103.208 Y96.651 Z0.400 E45.72106 F800
G1 X103.238 Y96.651 Z0.400 E45.72286 F800
G1 X103.008 Y96.891 Z0.400 E45.74280 F800
G1 X103.238 Y96.661 Z0.400 E45.76232 F800
G1 X103.008 Y96.911 Z0.400 E45.78270 F800
G1 X103.258 Y96.701 Z0.400 E45.80229 F800
G1 X103.798 Y97.311 Z0.400 E45.85117 F800
G1 X103.508 Y97.511 Z0.400 E45.87231 F800
G1 X103.808 Y97.311 Z0.400 E45.89394 F800
G1 X103.508 Y97.531 Z0.400 E45.91626 F800
G1 X103.518 Y97.531 Z0.400 E45.91686 F800
G1 X103.808 Y97.341 Z0.400 E45.93767 F800
G1 X103.798 Y97.351 Z0.400 E45.93851 F800
G1 X103.928 Y98.201 Z0.400 E45.99011 F800
G1 X104.208 Y98.111 Z0.400 E46.00775 F800
G1 X104.188 Y98.121 Z0.400 E46.00910 F800
G1 X103.928 Y98.231 Z0.400 E46.02603 F800
G1 X104.128 Y98.981 Z0.400 E46.07261 F800
G1 X104.138 Y99.001 Z0.400 E46.07395 F800
G1 X104.148 Y99.001 Z0.400 E46.07455 F800
G1 X104.128 Y99.021 Z0.400 E46.07625 F800
G1 X104.158 Y99.021 Z0.400 E46.07805 F800
G1 X104.468 Y98.961 Z0.400 E46.09699 F800
G1 X104.458 Y98.971 Z0.400 E46.09784 F800
G1 X104.208 Y99.811 Z0.400 E46.15042 F800
G1 X104.228 Y99.811 Z0.400 E46.15162 F800
G1 X104.558 Y99.811 Z0.400 E46.17142 F800
G1 X104.528 Y99.831 Z0.400 E46.17359 F800
G1 X104.558 Y99.841 Z0.400 E46.17549 F800
G1 X104.458 Y100.671 Z0.400 E46.22565 F800
G1 X104.128 Y100.611 Z0.400 E46.24577 F800
G1 X104.458 Y100.681 Z0.400 E46.26601 F800
G1 X104.108 Y100.621 Z0.400 E46.28732 F800
G1 X104.458 Y100.721 Z0.400 E46.30916 F800
G1 X104.218 Y101.501 Z0.400 E46.35812 F800
G1 X103.918 Y101.381 Z0.400 E46.37751 F800
G1 X104.208 Y101.521 Z0.400 E46.39683 F800
G1 X103.888 Y101.391 Z0.400 E46.41755 F800
G1 X103.818 Y102.291 Z0.400 E46.47172 F800
G1 X103.518 Y102.091 Z0.400 E46.49335 F800
G1 X103.528 Y102.101 Z0.400 E46.49420 F800
G1 X103.508 Y102.101 Z0.400 E46.49540 F800
G1 X103.788 Y102.301 Z0.400 E46.51605 F800
G1 X103.028 Y102.701 Z0.400 E46.56758 F800
G1 X103.018 Y102.721 Z0.400 E46.56892 F800
G1 X103.258 Y102.961 Z0.400 E46.58928 F800
G1 X103.258 Y102.971 Z0.400 E46.58988 F800
G1 X103.238 Y102.951 Z0.400 E46.59158 F800
G1 X103.018 Y102.731 Z0.400 E46.61025 F800
G1 X103.018 Y102.741 Z0.400 E46.61085 F800
G1 X103.228 Y102.961 Z0.400 E46.62909 F800
G1 X102.628 Y103.491 Z0.400 E46.67713 F800
G1 X102.398 Y103.211 Z0.400 E46.69887 F800
G1 X102.598 Y103.511 Z0.400 E46.72050 F800
G1 X102.398 Y103.221 Z0.400 E46.74164 F800
G1 X102.588 Y103.511 Z0.400 E46.76244 F800
G1 X102.578 Y103.501 Z0.400 E46.76329 F800
G1 X102.388 Y103.221 Z0.400 E46.78359 F800
G1 X102.588 Y103.521 Z0.400 E46.80523 F800
G1 X102.398 Y103.241 Z0.400 E46.82553 F800
G1 X102.408 Y103.261 Z0.400 E46.82687 F800
G1 X102.588 Y103.531 Z0.400 E46.84634 F800
G1 X102.398 Y103.251 Z0.400 E46.86664 F800
G1 X102.578 Y103.521 Z0.400 E46.88611 F800
G1 X102.568 Y103.511 Z0.400 E46.88696 F800
G1 X102.588 Y103.541 Z0.400 E46.88912 F800
G1 X102.398 Y103.261 Z0.400 E46.90943 F800
G1 X102.578 Y103.531 Z0.400 E46.92890 F800
G1 X102.568 Y103.521 Z0.400 E46.92975 F800
G1 X102.388 Y103.251 Z0.400 E46.94922 F800
G1 X102.578 Y103.541 Z0.400 E46.97002 F800
G1 X102.558 Y103.511 Z0.400 E46.97218 F800
G1 X102.398 Y103.271 Z0.400 E46.98949 F800
G1 X102.568 Y103.531 Z0.400 E47.00813 F800
G1 X102.548 Y103.501 Z0.400 E47.01029 F800
G1 X102.558 Y103.521 Z0.400 E47.01163 F800
G1 X102.378 Y103.251 Z0.400 E47.03110 F800
G1 X102.568 Y103.541 Z0.400 E47.05190 F800
G1 X102.548 Y103.511 Z0.400 E47.05407 F800
G1 X102.578 Y103.561 Z0.400 E47.05757 F800
G1 X102.558 Y103.531 Z0.400 E47.05973 F800
G1 X102.378 Y103.261 Z0.400 E47.07920 F800
G1 X102.548 Y103.521 Z0.400 E47.09784 F800
G1 X102.558 Y103.541 Z0.400 E47.09918 F800
G1 X102.368 Y103.261 Z0.400 E47.11948 F800
G1 X102.558 Y103.551 Z0.400 E47.14028 F800
G1 X102.548 Y103.541 Z0.400 E47.14113 F800
G1 X102.558 Y103.561 Z0.400 E47.14247 F800
G1 X101.828 Y103.911 Z0.400 E47.19105 F800
G1 X101.808 Y103.871 Z0.400 E47.19373 F800
G1 X101.828 Y103.921 Z0.400 E47.19696 F800
G1 X101.668 Y103.571 Z0.400 E47.22005 F800
G1 X101.808 Y103.911 Z0.400 E47.24211 F800
G1 X101.808 Y103.921 Z0.400 E47.24271 F800
G1 X101.688 Y103.641 Z0.400 E47.26099 F800
G1 X101.808 Y103.931 Z0.400 E47.27982 F800
G1 X101.798 Y103.911 Z0.400 E47.28116 F800
G1 X101.808 Y103.941 Z0.400 E47.28306 F800
G1 X101.798 Y103.931 Z0.400 E47.28391 F800
G1 X101.668 Y103.621 Z0.400 E47.30408 F800
G1 X101.798 Y103.941 Z0.400 E47.32480 F800
G1 X101.668 Y103.631 Z0.400 E47.34497 F800
G1 X101.798 Y103.951 Z0.400 E47.36570 F800
G1 X101.788 Y103.941 Z0.400 E47.36655 F800
G1 X101.778 Y103.921 Z0.400 E47.36789 F800
G1 X101.668 Y103.661 Z0.400 E47.38483 F800
G1 X101.648 Y103.651 Z0.400 E47.38617 F800
G1 X100.928 Y103.871 Z0.400 E47.43134 F800
G1 X100.988 Y104.171 Z0.400 E47.44970 F800
G1 X100.988 Y104.181 Z0.400 E47.45030 F800
G1 X100.988 Y104.191 Z0.400 E47.45090 F800
G1 X100.918 Y103.851 Z0.400 E47.47172 F800
G1 X100.978 Y104.151 Z0.400 E47.49008 F800
G1 X100.918 Y103.871 Z0.400 E47.50726 F800
G1 X100.908 Y103.831 Z0.400 E47.50974 F800
G1 X100.978 Y104.181 Z0.400 E47.53115 F800
G1 X100.908 Y103.841 Z0.400 E47.55198 F800
G1 X100.978 Y104.191 Z0.400 E47.57339 F800
G1 X100.908 Y103.851 Z0.400 E47.59422 F800
G1 X100.968 Y104.161 Z0.400 E47.61317 F800
G1 X100.968 Y104.171 Z0.400 E47.61377 F800
G1 X100.968 Y104.181 Z0.400 E47.61437 F800
G1 X100.968 Y104.191 Z0.400 E47.61497 F800
G1 X100.898 Y103.841 Z0.400 E47.63638 F800
G1 X100.968 Y104.201 Z0.400 E47.65839 F800
G1 X100.898 Y103.851 Z0.400 E47.67980 F800
G1 X100.958 Y104.161 Z0.400 E47.69875 F800
G1 X100.898 Y103.861 Z0.400 E47.71711 F800
G1 X100.958 Y104.171 Z0.400 E47.73605 F800
G1 X100.898 Y103.871 Z0.400 E47.75441 F800
G1 X100.958 Y104.181 Z0.400 E47.77335 F800
G1 X100.958 Y104.191 Z0.400 E47.77395 F800
G1 X100.948 Y104.161 Z0.400 E47.77585 F800
G1 X100.888 Y103.861 Z0.400 E47.79421 F800
G1 X100.958 Y104.221 Z0.400 E47.81621 F800
G1 X100.948 Y104.171 Z0.400 E47.81927 F800
G1 X100.888 Y103.871 Z0.400 E47.83763 F800
G1 X100.948 Y104.201 Z0.400 E47.85775 F800
G1 X100.938 Y104.161 Z0.400 E47.86023 F800
G1 X100.908 Y104.211 Z0.400 E47.86372 F800
G1 X100.128 Y104.241 Z0.400 E47.91056 F800
G1 X100.128 Y104.261 Z0.400 E47.91176 F800
G1 X100.118 Y103.921 Z0.400 E47.93217 F800
G1 X100.118 Y103.941 Z0.400 E47.93337 F800
G1 X100.118 Y104.241 Z0.400 E47.95137 F800
G1 X100.108 Y103.921 Z0.400 E47.97058 F800
G1 X100.108 Y103.961 Z0.400 E47.97298 F800
G1 X100.108 Y104.241 Z0.400 E47.98978 F800
G1 X100.108 Y104.271 Z0.400 E47.99158 F800
G1 X100.108 Y104.291 Z0.400 E47.99278 F800
G1 X100.098 Y103.951 Z0.400 E48.01319 F800
G1 X100.098 Y104.251 Z0.400 E48.03119 F800
G1 X100.098 Y104.261 Z0.400 E48.03179 F800
G1 X100.098 Y104.281 Z0.400 E48.03299 F800
G1 X100.088 Y104.281 Z0.400 E48.03359 F800
G1 X100.088 Y104.271 Z0.400 E48.03419 F800
G1 X100.088 Y104.251 Z0.400 E48.03539 F800
G1 X100.088 Y104.241 Z0.400 E48.03599 F800
G1 X100.088 Y103.951 Z0.400 E48.05339 F800
G1 X100.088 Y103.941 Z0.400 E48.05399 F800
G1 X100.078 Y104.271 Z0.400 E48.07379 F800
G1 X100.078 Y104.251 Z0.400 E48.07499 F800
G1 X100.078 Y104.231 Z0.400 E48.07619 F800
G1 X99.238 Y104.191 Z0.400 E48.12665 F800
G1 X99.238 Y104.181 Z0.400 E48.12725 F800
G1 X99.298 Y103.871 Z0.400 E48.14620 F800
G1 X99.298 Y103.841 Z0.400 E48.14800 F800
G1 X99.228 Y104.191 Z0.400 E48.16941 F800
G1 X99.288 Y103.881 Z0.400 E48.18836 F800
G1 X99.228 Y104.171 Z0.400 E48.20613 F800
G1 X99.228 Y104.161 Z0.400 E48.20673 F800
G1 X99.228 Y104.151 Z0.400 E48.20733 F800
G1 X99.288 Y103.851 Z0.400 E48.22568 F800
G1 X99.228 Y104.141 Z0.400 E48.24345 F800
G1 X99.288 Y103.841 Z0.400 E48.26181 F800
G1 X99.218 Y104.171 Z0.400 E48.28205 F800
G1 X99.278 Y103.841 Z0.400 E48.30217 F800
G1 X99.208 Y104.171 Z0.400 E48.32241 F800
G1 X99.208 Y104.161 Z0.400 E48.32301 F800
G1 X99.268 Y103.861 Z0.400 E48.34137 F800
G1 X98.468 Y103.931 Z0.400 E48.38955 F800
G1 X98.418 Y103.931 Z0.400 E48.39255 F800
G1 X98.418 Y103.921 Z0.400 E48.39315 F800
G1 X98.528 Y103.651 Z0.400 E48.41065 F800
G1 X98.538 Y103.621 Z0.400 E48.41254 F800
G1 X98.418 Y103.911 Z0.400 E48.43137 F800
G1 X98.408 Y103.931 Z0.400 E48.43272 F800
G1 X98.408 Y103.921 Z0.400 E48.43332 F800
G1 X98.398 Y103.941 Z0.400 E48.43466 F800
G1 X98.528 Y103.621 Z0.400 E48.45538 F800
G1 X98.408 Y103.911 Z0.400 E48.47421 F800
G1 X98.518 Y103.641 Z0.400 E48.49171 F800
G1 X98.398 Y103.931 Z0.400 E48.51054 F800
G1 X98.388 Y103.951 Z0.400 E48.51188 F800
G1 X98.528 Y103.611 Z0.400 E48.53394 F800
G1 X98.518 Y103.631 Z0.400 E48.53528 F800
G1 X98.398 Y103.921 Z0.400 E48.55411 F800
G1 X98.388 Y103.941 Z0.400 E48.55545 F800
G1 X98.528 Y103.601 Z0.400 E48.57752 F800
G1 X98.378 Y103.961 Z0.400 E48.60092 F800
G1 X98.398 Y103.911 Z0.400 E48.60415 F800
G1 X98.388 Y103.931 Z0.400 E48.60549 F800
G1 X98.508 Y103.641 Z0.400 E48.62432 F800
G1 X98.398 Y103.901 Z0.400 E48.64126 F800
G1 X98.518 Y103.611 Z0.400 E48.66009 F800
G1 X98.388 Y103.921 Z0.400 E48.68026 F800
G1 X98.508 Y103.631 Z0.400 E48.69909 F800
G1 X98.378 Y103.931 Z0.400 E48.71871 F800
G1 X98.388 Y103.901 Z0.400 E48.72060 F800
G1 X98.388 Y103.891 Z0.400 E48.72120 F800
G1 X98.378 Y103.911 Z0.400 E48.72255 F800
G1 X98.348 Y103.931 Z0.400 E48.72471 F800
G1 X97.658 Y103.531 Z0.400 E48.77256 F800
G1 X97.648 Y103.531 Z0.400 E48.77316 F800
G1 X97.818 Y103.271 Z0.400 E48.79180 F800
G1 X97.648 Y103.521 Z0.400 E48.80994 F800
G1 X97.818 Y103.261 Z0.400 E48.82858 F800
G1 X97.658 Y103.501 Z0.400 E48.84589 F800
G1 X97.638 Y103.531 Z0.400 E48.84805 F800
G1 X97.828 Y103.241 Z0.400 E48.86885 F800
G1 X97.808 Y103.271 Z0.400 E48.87101 F800
G1 X97.648 Y103.511 Z0.400 E48.88832 F800
G1 X97.798 Y103.281 Z0.400 E48.90480 F800
G1 X97.638 Y103.521 Z0.400 E48.92210 F800
G1 X97.808 Y103.261 Z0.400 E48.94074 F800
G1 X97.628 Y103.531 Z0.400 E48.96021 F800
G1 X97.818 Y103.241 Z0.400 E48.98101 F800
G1 X97.638 Y103.511 Z0.400 E49.00048 F800
G1 X97.618 Y103.541 Z0.400 E49.00265 F800
G1 X97.628 Y103.521 Z0.400 E49.00399 F800
G1 X97.818 Y103.231 Z0.400 E49.02479 F800
G1 X97.638 Y103.501 Z0.400 E49.04426 F800
G1 X97.798 Y103.261 Z0.400 E49.06157 F800
G1 X97.618 Y103.531 Z0.400 E49.08104 F800
G1 X97.628 Y103.511 Z0.400 E49.08238 F800
G1 X97.618 Y103.521 Z0.400 E49.08323 F800
G1 X97.638 Y103.491 Z0.400 E49.08539 F800
G1 X97.798 Y103.251 Z0.400 E49.10270 F800
G1 X97.818 Y103.221 Z0.400 E49.10486 F800
G1 X97.628 Y103.501 Z0.400 E49.12516 F800
G1 X97.788 Y103.261 Z0.400 E49.14247 F800
G1 X97.808 Y103.231 Z0.400 E49.14463 F800
G1 X97.618 Y103.511 Z0.400 E49.16494 F800
G1 X97.638 Y103.481 Z0.400 E49.16710 F800
G1 X97.798 Y103.241 Z0.400 E49.18441 F800
G1 X97.608 Y103.521 Z0.400 E49.20471 F800
G1 X97.628 Y103.491 Z0.400 E49.20687 F800
G1 X97.618 Y103.501 Z0.400 E49.20772 F800
G1 X97.798 Y103.231 Z0.400 E49.22719 F800
G1 X97.788 Y103.241 Z0.400 E49.22804 F800
G1 X97.598 Y103.521 Z0.400 E49.24834 F800
G1 X97.618 Y103.491 Z0.400 E49.25050 F800
G1 X97.608 Y103.501 Z0.400 E49.25135 F800
G1 X97.618 Y103.481 Z0.400 E49.25269 F800
G1 X97.608 Y103.491 Z0.400 E49.25354 F800
G1 X97.768 Y103.251 Z0.400 E49.27085 F800
G1 X97.608 Y103.481 Z0.400 E49.28766 F800
G1 X97.598 Y103.491 Z0.400 E49.28851 F800
G1 X97.588 Y103.501 Z0.400 E49.28936 F800
G1 X97.778 Y103.211 Z0.400 E49.31016 F800
G1 X97.188 Y102.761 Z0.400 E49.35468 F800
G1 X97.188 Y102.741 Z0.400 E49.35588 F800
G1 X96.948 Y102.981 Z0.400 E49.37625 F800
G1 X96.958 Y102.961 Z0.400 E49.37759 F800
G1 X96.948 Y102.971 Z0.400 E49.37844 F800
G1 X96.948 Y102.961 Z0.400 E49.37904 F800
G1 X96.958 Y102.951 Z0.400 E49.37988 F800
G1 X96.928 Y102.971 Z0.400 E49.38205 F800
G1 X96.958 Y102.941 Z0.400 E49.38459 F800
G1 X96.938 Y102.951 Z0.400 E49.38594 F800
G1 X96.398 Y102.321 Z0.400 E49.43572 F800
G1 X96.398 Y102.301 Z0.400 E49.43692 F800
G1 X96.658 Y102.111 Z0.400 E49.45624 F800
G1 X96.378 Y102.281 Z0.400 E49.47590 F800
G1 X95.998 Y101.541 Z0.400 E49.52581 F800
G1 X96.288 Y101.401 Z0.400 E49.54513 F800
G1 X95.998 Y101.521 Z0.400 E49.56396 F800
G1 X96.278 Y101.401 Z0.400 E49.58224 F800
G1 X95.758 Y100.721 Z0.400 E49.63360 F800
G1 X96.068 Y100.631 Z0.400 E49.65297 F800
G1 X96.058 Y100.611 Z0.400 E49.65431 F800
G1 X95.648 Y99.841 Z0.400 E49.70665 F800
G1 X95.978 Y99.821 Z0.400 E49.72649 F800
G1 X95.628 Y99.811 Z0.400 E49.74750 F800

; polyline 17
G1 X96.308 Y99.801 Z0.400 F800
G1 X96.378 Y99.051 Z0.400 E49.79269 F800
G1 X96.618 Y98.361 Z0.400 E49.83652 F800
G1 X96.938 Y97.691 Z0.400 E49.88107 F800
G1 X97.418 Y97.111 Z0.400 E49.92625 F800
G1 X97.978 Y96.681 Z0.400 E49.96861 F800
G1 X97.978 Y96.631 Z0.400 E49.97161 F800
G1 X98.018 Y96.691 Z0.400 E49.97594 F800
G1 X97.988 Y96.641 Z0.400 E49.97943 F800
G1 X97.998 Y96.641 Z0.400 E49.98003 F800
G1 X98.008 Y96.651 Z0.400 E49.98088 F800
G1 X97.998 Y96.621 Z0.400 E49.98278 F800
G1 X98.008 Y96.631 Z0.400 E49.98363 F800
G1 X98.008 Y96.621 Z0.400 E49.98423 F800
G1 X98.648 Y96.351 Z0.400 E50.02591 F800
G1 X98.638 Y96.291 Z0.400 E50.02956 F800
G1 X98.658 Y96.301 Z0.400 E50.03090 F800
G1 X98.658 Y96.281 Z0.400 E50.03210 F800
G1 X98.668 Y96.281 Z0.400 E50.03270 F800
G1 X99.358 Y96.101 Z0.400 E50.07548 F800
G1 X99.368 Y96.071 Z0.400 E50.07738 F800
G1 X99.398 Y96.071 Z0.400 E50.07918 F800
G1 X100.088 Y96.021 Z0.400 E50.12069 F800
G1 X100.828 Y96.061 Z0.400 E50.16515 F800
G1 X100.828 Y96.081 Z0.400 E50.16635 F800
G1 X100.838 Y96.051 Z0.400 E50.16825 F800
G1 X101.538 Y96.281 Z0.400 E50.21246 F800
G1 X101.538 Y96.301 Z0.400 E50.21366 F800
G1 X101.548 Y96.291 Z0.400 E50.21451 F800
G1 X101.568 Y96.271 Z0.400 E50.21621 F800
G1 X101.558 Y96.301 Z0.400 E50.21810 F800
G1 X101.558 Y96.311 Z0.400 E50.21870 F800
G1 X101.558 Y96.321 Z0.400 E50.21930 F800
G1 X101.568 Y96.301 Z0.400 E50.22064 F800
G1 X101.568 Y96.311 Z0.400 E50.22124 F800
G1 X101.578 Y96.291 Z0.400 E50.22259 F800
G1 X101.588 Y96.301 Z0.400 E50.22343 F800
G1 X102.198 Y96.641 Z0.400 E50.26534 F800
G1 X102.198 Y96.651 Z0.400 E50.26594 F800
G1 X102.198 Y96.671 Z0.400 E50.26714 F800
G1 X102.248 Y96.681 Z0.400 E50.27020 F800
G1 X102.778 Y97.121 Z0.400 E50.31153 F800
G1 X102.778 Y97.131 Z0.400 E50.31213 F800
G1 X102.788 Y97.141 Z0.400 E50.31297 F800
G1 X103.258 Y97.691 Z0.400 E50.35638 F800
G1 X103.258 Y97.701 Z0.400 E50.35698 F800
G1 X103.588 Y98.351 Z0.400 E50.40072 F800
G1 X103.598 Y98.351 Z0.400 E50.40132 F800
G1 X103.608 Y98.371 Z0.400 E50.40266 F800
G1 X103.628 Y98.371 Z0.400 E50.40386 F800
G1 X103.828 Y99.061 Z0.400 E50.44697 F800
G1 X103.888 Y99.801 Z0.400 E50.49151 F800
G1 X103.808 Y100.541 Z0.400 E50.53617 F800
G1 X103.608 Y101.251 Z0.400 E50.58043 F800
G1 X103.598 Y101.261 Z0.400 E50.58128 F800
G1 X103.278 Y101.921 Z0.400 E50.62529 F800
G1 X103.248 Y101.911 Z0.400 E50.62718 F800
G1 X102.798 Y102.481 Z0.400 E50.67076 F800
G1 X102.798 Y102.531 Z0.400 E50.67376 F800
G1 X102.198 Y102.951 Z0.400 E50.71770 F800
G1 X101.578 Y103.311 Z0.400 E50.76072 F800
G1 X101.548 Y103.331 Z0.400 E50.76288 F800
G1 X101.558 Y103.361 Z0.400 E50.76478 F800
G1 X101.538 Y103.341 Z0.400 E50.76647 F800
G1 X101.538 Y103.351 Z0.400 E50.76707 F800
G1 X100.848 Y103.551 Z0.400 E50.81018 F800
G1 X100.838 Y103.521 Z0.400 E50.81208 F800
G1 X100.838 Y103.541 Z0.400 E50.81328 F800
G1 X100.828 Y103.531 Z0.400 E50.81412 F800
G1 X100.128 Y103.571 Z0.400 E50.85619 F800
G1 X100.118 Y103.621 Z0.400 E50.85925 F800
G1 X99.408 Y103.531 Z0.400 E50.90219 F800
G1 X99.368 Y103.551 Z0.400 E50.90488 F800
G1 X99.358 Y103.551 Z0.400 E50.90548 F800
G1 X98.648 Y103.351 Z0.400 E50.94973 F800
G1 X98.628 Y103.341 Z0.400 E50.95108 F800
G1 X98.008 Y102.971 Z0.400 E50.99440 F800
G1 X97.968 Y103.001 Z0.400 E50.99740 F800
G1 X98.008 Y102.941 Z0.400 E51.00172 F800
G1 X97.978 Y102.981 Z0.400 E51.00472 F800
G1 X97.988 Y102.951 Z0.400 E51.00662 F800
G1 X97.968 Y102.951 Z0.400 E51.00782 F800
G1 X97.418 Y102.491 Z0.400 E51.05084 F800
G1 X97.408 Y102.491 Z0.400 E51.05144 F800
G1 X96.948 Y101.941 Z0.400 E51.09446 F800
G1 X96.938 Y101.921 Z0.400 E51.09580 F800
G1 X96.588 Y101.281 Z0.400 E51.13957 F800
G1 X96.618 Y101.251 Z0.400 E51.14212 F800
G1 X96.398 Y100.561 Z0.400 E51.18557 F800
G1 X96.398 Y100.521 Z0.400 E51.18797 F800
G1 X96.308 Y99.801 Z0.400 E51.23151 F800

; polyline 18
G1 X96.958 Y99.801 Z0.400 F800
G1 X96.708 Y99.141 Z0.400 E51.27385 F800
G1 X97.018 Y99.201 Z0.400 E51.29280 F800
G1 X97.028 Y99.201 Z0.400 E51.29340 F800
G1 X96.708 Y99.111 Z0.400 E51.31334 F800
G1 X96.848 Y98.481 Z0.400 E51.35206 F800
G1 X96.908 Y98.491 Z0.400 E51.35571 F800
G1 X97.208 Y98.591 Z0.400 E51.37469 F800
G1 X97.178 Y97.861 Z0.400 E51.41852 F800
G1 X97.508 Y98.081 Z0.400 E51.44232 F800
G1 X97.238 Y97.881 Z0.400 E51.46248 F800
G1 X97.228 Y97.861 Z0.400 E51.46382 F800
G1 X97.228 Y97.851 Z0.400 E51.46442 F800
G1 X97.628 Y97.351 Z0.400 E51.50284 F800
G1 X97.628 Y97.321 Z0.400 E51.50464 F800
G1 X97.888 Y97.571 Z0.400 E51.52628 F800
G1 X97.898 Y97.581 Z0.400 E51.52713 F800
G1 X97.908 Y97.561 Z0.400 E51.52847 F800
G1 X98.338 Y97.161 Z0.400 E51.56371 F800
G1 X98.358 Y97.191 Z0.400 E51.56587 F800
G1 X98.178 Y96.901 Z0.400 E51.58635 F800
G1 X98.188 Y96.911 Z0.400 E51.58720 F800
G1 X98.198 Y96.921 Z0.400 E51.58805 F800
G1 X98.198 Y96.911 Z0.400 E51.58865 F800
G1 X98.378 Y97.171 Z0.400 E51.60762 F800
G1 X98.758 Y96.621 Z0.400 E51.64773 F800
G1 X98.908 Y96.921 Z0.400 E51.66786 F800
G1 X98.788 Y96.601 Z0.400 E51.68836 F800
G1 X98.778 Y96.571 Z0.400 E51.69026 F800
G1 X98.778 Y96.561 Z0.400 E51.69086 F800
G1 X98.908 Y96.871 Z0.400 E51.71103 F800
G1 X98.928 Y96.911 Z0.400 E51.71371 F800
G1 X99.378 Y96.411 Z0.400 E51.75407 F800
G1 X99.478 Y96.691 Z0.400 E51.77191 F800
G1 X99.418 Y96.371 Z0.400 E51.79145 F800
G1 X99.438 Y96.401 Z0.400 E51.79361 F800
G1 X100.088 Y96.331 Z0.400 E51.83284 F800
G1 X100.098 Y96.661 Z0.400 E51.85265 F800
G1 X100.128 Y96.701 Z0.400 E51.85565 F800
G1 X100.678 Y96.721 Z0.400 E51.88867 F800
G1 X100.758 Y96.401 Z0.400 E51.90846 F800
G1 X100.768 Y96.391 Z0.400 E51.90931 F800
G1 X100.768 Y96.411 Z0.400 E51.91051 F800
G1 X100.778 Y96.441 Z0.400 E51.91240 F800
G1 X100.768 Y96.691 Z0.400 E51.92742 F800
G1 X101.398 Y96.591 Z0.400 E51.96569 F800
G1 X101.418 Y96.561 Z0.400 E51.96785 F800
G1 X101.298 Y96.871 Z0.400 E51.98780 F800
G1 X101.418 Y96.591 Z0.400 E52.00608 F800
G1 X101.418 Y96.601 Z0.400 E52.00668 F800
G1 X101.298 Y96.901 Z0.400 E52.02606 F800
G1 X101.428 Y96.591 Z0.400 E52.04623 F800
G1 X101.308 Y96.901 Z0.400 E52.06618 F800
G1 X101.308 Y96.931 Z0.400 E52.06798 F800
G1 X101.998 Y96.931 Z0.400 E52.10938 F800
G1 X102.008 Y96.921 Z0.400 E52.11023 F800
G1 X102.028 Y96.891 Z0.400 E52.11239 F800
G1 X102.028 Y96.941 Z0.400 E52.11539 F800
G1 X101.858 Y97.211 Z0.400 E52.13453 F800
G1 X101.868 Y97.231 Z0.400 E52.13587 F800
G1 X102.278 Y97.581 Z0.400 E52.16822 F800
G1 X102.318 Y97.581 Z0.400 E52.17062 F800
G1 X102.538 Y97.361 Z0.400 E52.18929 F800
G1 X102.568 Y97.341 Z0.400 E52.19145 F800
G1 X102.698 Y98.051 Z0.400 E52.23476 F800
G1 X102.968 Y97.881 Z0.400 E52.25390 F800
G1 X102.718 Y98.061 Z0.400 E52.27238 F800
G1 X102.698 Y98.081 Z0.400 E52.27408 F800
G1 X102.748 Y98.051 Z0.400 E52.27758 F800
G1 X102.978 Y97.901 Z0.400 E52.29406 F800
G1 X103.278 Y98.481 Z0.400 E52.33324 F800
G1 X103.008 Y98.601 Z0.400 E52.35096 F800
G1 X102.968 Y98.621 Z0.400 E52.35365 F800
G1 X103.298 Y98.491 Z0.400 E52.37493 F800
G1 X103.008 Y98.611 Z0.400 E52.39376 F800
G1 X103.488 Y99.141 Z0.400 E52.43666 F800
G1 X103.188 Y99.211 Z0.400 E52.45515 F800
G1 X103.188 Y99.221 Z0.400 E52.45575 F800
G1 X103.238 Y99.821 Z0.400 E52.49187 F800
G1 X103.548 Y99.831 Z0.400 E52.51048 F800
G1 X103.568 Y99.851 Z0.400 E52.51218 F800
G1 X103.528 Y100.481 Z0.400 E52.55005 F800
G1 X103.478 Y100.491 Z0.400 E52.55311 F800
G1 X103.148 Y100.431 Z0.400 E52.57324 F800
G1 X103.178 Y100.441 Z0.400 E52.57513 F800
G1 X103.448 Y100.501 Z0.400 E52.59173 F800
G1 X102.958 Y101.001 Z0.400 E52.63373 F800
G1 X103.278 Y101.151 Z0.400 E52.65494 F800
G1 X102.988 Y101.061 Z0.400 E52.67316 F800
G1 X103.008 Y101.741 Z0.400 E52.71397 F800
G1 X102.698 Y101.551 Z0.400 E52.73579 F800
G1 X102.978 Y101.741 Z0.400 E52.75609 F800
G1 X102.708 Y101.571 Z0.400 E52.77524 F800
G1 X102.318 Y102.031 Z0.400 E52.81142 F800
G1 X102.538 Y102.261 Z0.400 E52.83052 F800
G1 X102.568 Y102.301 Z0.400 E52.83352 F800
G1 X102.028 Y102.691 Z0.400 E52.87348 F800
G1 X102.018 Y102.701 Z0.400 E52.87433 F800
G1 X102.018 Y102.711 Z0.400 E52.87493 F800
G1 X101.838 Y102.441 Z0.400 E52.89440 F800
G1 X102.008 Y102.701 Z0.400 E52.91304 F800
G1 X101.448 Y103.031 Z0.400 E52.95204 F800
G1 X101.418 Y102.981 Z0.400 E52.95554 F800
G1 X101.298 Y102.711 Z0.400 E52.97327 F800
G1 X101.428 Y103.031 Z0.400 E52.99399 F800
G1 X101.418 Y103.021 Z0.400 E52.99484 F800
G1 X101.288 Y102.711 Z0.400 E53.01501 F800
G1 X101.408 Y103.041 Z0.400 E53.03608 F800
G1 X101.278 Y102.721 Z0.400 E53.05680 F800
G1 X100.718 Y102.891 Z0.400 E53.09192 F800
G1 X100.718 Y102.901 Z0.400 E53.09252 F800
G1 X100.768 Y103.201 Z0.400 E53.11076 F800
G1 X100.768 Y103.211 Z0.400 E53.11136 F800
G1 X100.708 Y102.911 Z0.400 E53.12972 F800
G1 X100.698 Y102.911 Z0.400 E53.13032 F800
G1 X100.128 Y102.911 Z0.400 E53.16452 F800
G1 X100.118 Y103.271 Z0.400 E53.18613 F800
G1 X100.108 Y102.951 Z0.400 E53.20534 F800
G1 X100.088 Y103.261 Z0.400 E53.22398 F800
G1 X100.048 Y102.941 Z0.400 E53.24333 F800
G1 X99.428 Y103.231 Z0.400 E53.28439 F800
G1 X99.428 Y103.201 Z0.400 E53.28619 F800
G1 X99.418 Y103.211 Z0.400 E53.28704 F800
G1 X99.468 Y102.921 Z0.400 E53.30470 F800
G1 X99.468 Y102.871 Z0.400 E53.30770 F800
G1 X98.938 Y102.741 Z0.400 E53.34044 F800
G1 X98.788 Y103.031 Z0.400 E53.36003 F800
G1 X98.918 Y102.671 Z0.400 E53.38300 F800
G1 X98.768 Y103.031 Z0.400 E53.40640 F800
G1 X98.768 Y103.021 Z0.400 E53.40700 F800
G1 X98.768 Y103.011 Z0.400 E53.40760 F800
G1 X98.758 Y103.001 Z0.400 E53.40845 F800
G1 X98.368 Y102.441 Z0.400 E53.44939 F800
G1 X98.368 Y102.431 Z0.400 E53.44999 F800
G1 X98.348 Y102.461 Z0.400 E53.45215 F800
G1 X98.368 Y102.421 Z0.400 E53.45484 F800
G1 X98.168 Y102.721 Z0.400 E53.47647 F800
G1 X98.188 Y102.681 Z0.400 E53.47915 F800
G1 X98.188 Y102.661 Z0.400 E53.48035 F800
G1 X98.168 Y102.671 Z0.400 E53.48170 F800
G1 X98.328 Y102.431 Z0.400 E53.49900 F800
G1 X98.318 Y102.401 Z0.400 E53.50090 F800
G1 X97.878 Y102.041 Z0.400 E53.53501 F800
G1 X97.668 Y102.251 Z0.400 E53.55283 F800
G1 X97.648 Y102.261 Z0.400 E53.55417 F800
G1 X97.508 Y101.571 Z0.400 E53.59642 F800
G1 X97.498 Y101.561 Z0.400 E53.59726 F800
G1 X97.228 Y101.721 Z0.400 E53.61609 F800
G1 X96.918 Y101.141 Z0.400 E53.65555 F800
G1 X96.908 Y101.131 Z0.400 E53.65640 F800
G1 X97.218 Y101.001 Z0.400 E53.67657 F800
G1 X97.248 Y100.981 Z0.400 E53.67873 F800
G1 X96.738 Y100.471 Z0.400 E53.72201 F800
G1 X97.018 Y100.411 Z0.400 E53.73919 F800
G1 X96.678 Y100.471 Z0.400 E53.75991 F800
G1 X96.628 Y99.821 Z0.400 E53.79902 F800
G1 X96.958 Y99.801 Z0.400 E53.81886 F800

; polyline 19
G1 X97.328 Y99.251 Z0.400 F800
G1 X97.488 Y98.741 Z0.400 E53.85093 F800
G1 X97.468 Y98.731 Z0.400 E53.85227 F800
G1 X97.498 Y98.741 Z0.400 E53.85417 F800
G1 X97.748 Y98.231 Z0.400 E53.88825 F800
G1 X97.768 Y98.241 Z0.400 E53.88959 F800
G1 X98.108 Y97.821 Z0.400 E53.92201 F800
G1 X98.528 Y97.461 Z0.400 E53.95520 F800
G1 X98.548 Y97.471 Z0.400 E53.95654 F800
G1 X99.018 Y97.211 Z0.400 E53.98877 F800
G1 X99.028 Y97.181 Z0.400 E53.99067 F800
G1 X99.038 Y97.201 Z0.400 E53.99201 F800
G1 X99.598 Y97.031 Z0.400 E54.02712 F800
G1 X100.088 Y97.021 Z0.400 E54.05653 F800
G1 X100.098 Y97.001 Z0.400 E54.05787 F800
G1 X100.108 Y97.011 Z0.400 E54.05872 F800
G1 X100.648 Y97.041 Z0.400 E54.09117 F800
G1 X101.158 Y97.211 Z0.400 E54.12342 F800
G1 X101.168 Y97.201 Z0.400 E54.12427 F800
G1 X101.168 Y97.221 Z0.400 E54.12547 F800
G1 X101.648 Y97.431 Z0.400 E54.15691 F800
G1 X101.658 Y97.441 Z0.400 E54.15776 F800
G1 X101.668 Y97.471 Z0.400 E54.15965 F800
G1 X101.658 Y97.491 Z0.400 E54.16100 F800
G1 X102.068 Y97.821 Z0.400 E54.19257 F800
G1 X102.078 Y97.821 Z0.400 E54.19317 F800
G1 X102.428 Y98.261 Z0.400 E54.22691 F800
G1 X102.678 Y98.711 Z0.400 E54.25779 F800
G1 X102.688 Y98.731 Z0.400 E54.25914 F800
G1 X102.848 Y99.271 Z0.400 E54.29293 F800
G1 X102.888 Y99.811 Z0.400 E54.32542 F800
G1 X102.938 Y99.831 Z0.400 E54.32865 F800
G1 X102.878 Y100.341 Z0.400 E54.35946 F800
G1 X102.688 Y100.881 Z0.400 E54.39381 F800
G1 X102.688 Y100.891 Z0.400 E54.39441 F800
G1 X102.428 Y101.371 Z0.400 E54.42716 F800
G1 X102.088 Y101.791 Z0.400 E54.45958 F800
G1 X101.628 Y102.151 Z0.400 E54.49463 F800
G1 X101.188 Y102.411 Z0.400 E54.52529 F800
G1 X101.188 Y102.431 Z0.400 E54.52649 F800
G1 X101.138 Y102.421 Z0.400 E54.52955 F800
G1 X100.638 Y102.581 Z0.400 E54.56105 F800
G1 X100.628 Y102.561 Z0.400 E54.56239 F800
G1 X100.618 Y102.561 Z0.400 E54.56299 F800
G1 X100.118 Y102.621 Z0.400 E54.59321 F800
G1 X100.118 Y102.631 Z0.400 E54.59381 F800
G1 X100.098 Y102.621 Z0.400 E54.59515 F800
G1 X99.568 Y102.581 Z0.400 E54.62704 F800
G1 X99.558 Y102.581 Z0.400 E54.62764 F800
G1 X99.548 Y102.551 Z0.400 E54.62954 F800
G1 X99.148 Y102.171 Z0.400 E54.66264 F800
G1 X99.028 Y102.431 Z0.400 E54.67982 F800
G1 X99.018 Y102.421 Z0.400 E54.68067 F800
G1 X98.538 Y102.171 Z0.400 E54.71314 F800
G1 X98.118 Y101.831 Z0.400 E54.74557 F800
G1 X98.088 Y101.801 Z0.400 E54.74811 F800
G1 X97.778 Y101.351 Z0.400 E54.78090 F800
G1 X97.748 Y101.361 Z0.400 E54.78280 F800
G1 X97.478 Y100.881 Z0.400 E54.81584 F800
G1 X97.338 Y100.381 Z0.400 E54.84699 F800
G1 X97.328 Y100.341 Z0.400 E54.84947 F800
G1 X97.288 Y99.821 Z0.400 E54.88076 F800
G1 X97.328 Y99.251 Z0.400 E54.91504 F800

; polyline 20
G1 X97.628 Y99.801 Z0.400 F800
G1 X97.938 Y99.801 Z0.400 E54.93364 F800
G1 X97.948 Y99.801 Z0.400 E54.93424 F800
G1 X97.928 Y99.421 Z0.400 E54.95707 F800
G1 X97.648 Y99.331 Z0.400 E54.97472 F800
G1 X97.978 Y99.391 Z0.400 E54.99485 F800
G1 X97.988 Y99.381 Z0.400 E54.99569 F800
G1 X97.678 Y99.311 Z0.400 E55.01476 F800
G1 X97.788 Y98.861 Z0.400 E55.04256 F800
G1 X98.088 Y98.981 Z0.400 E55.06194 F800
G1 X98.148 Y98.981 Z0.400 E55.06554 F800
G1 X98.298 Y98.631 Z0.400 E55.08839 F800
G1 X98.318 Y98.631 Z0.400 E55.08959 F800
G1 X98.028 Y98.411 Z0.400 E55.11143 F800
G1 X98.038 Y98.411 Z0.400 E55.11203 F800
G1 X98.068 Y98.411 Z0.400 E55.11383 F800
G1 X98.548 Y98.291 Z0.400 E55.14352 F800
G1 X98.338 Y98.001 Z0.400 E55.16500 F800
G1 X98.868 Y98.001 Z0.400 E55.19680 F800
G1 X98.718 Y97.741 Z0.400 E55.21481 F800
G1 X98.728 Y97.731 Z0.400 E55.21566 F800
G1 X98.908 Y98.001 Z0.400 E55.23513 F800
G1 X98.738 Y97.731 Z0.400 E55.25427 F800
G1 X98.748 Y97.741 Z0.400 E55.25512 F800
G1 X98.918 Y97.961 Z0.400 E55.27180 F800
G1 X99.128 Y97.521 Z0.400 E55.30106 F800
G1 X99.258 Y97.821 Z0.400 E55.32067 F800
G1 X99.268 Y97.811 Z0.400 E55.32152 F800
G1 X99.148 Y97.521 Z0.400 E55.34035 F800
G1 X99.138 Y97.491 Z0.400 E55.34225 F800
G1 X99.298 Y97.811 Z0.400 E55.36372 F800
G1 X99.588 Y97.371 Z0.400 E55.39534 F800
G1 X99.618 Y97.351 Z0.400 E55.39750 F800
G1 X99.638 Y97.371 Z0.400 E55.39920 F800
G1 X99.708 Y97.681 Z0.400 E55.41826 F800
G1 X100.098 Y97.301 Z0.400 E55.45093 F800
G1 X100.108 Y97.321 Z0.400 E55.45228 F800
G1 X100.108 Y97.661 Z0.400 E55.47268 F800
G1 X100.508 Y97.691 Z0.400 E55.49674 F800
G1 X100.568 Y97.401 Z0.400 E55.51451 F800
G1 X100.578 Y97.371 Z0.400 E55.51641 F800
G1 X101.038 Y97.521 Z0.400 E55.54544 F800
G1 X101.048 Y97.501 Z0.400 E55.54678 F800
G1 X100.928 Y97.801 Z0.400 E55.56617 F800
G1 X101.288 Y98.001 Z0.400 E55.59088 F800
G1 X101.298 Y98.031 Z0.400 E55.59278 F800
G1 X101.508 Y97.751 Z0.400 E55.61378 F800
G1 X101.848 Y98.061 Z0.400 E55.64138 F800
G1 X101.638 Y98.291 Z0.400 E55.66007 F800
G1 X102.158 Y98.421 Z0.400 E55.69223 F800
G1 X101.898 Y98.611 Z0.400 E55.71155 F800
G1 X102.168 Y98.441 Z0.400 E55.73069 F800
G1 X101.928 Y98.621 Z0.400 E55.74869 F800
G1 X102.398 Y98.851 Z0.400 E55.78009 F800
G1 X102.098 Y98.981 Z0.400 E55.79971 F800
G1 X102.378 Y98.881 Z0.400 E55.81755 F800
G1 X102.078 Y99.021 Z0.400 E55.83741 F800
G1 X102.528 Y99.311 Z0.400 E55.86953 F800
G1 X102.208 Y99.381 Z0.400 E55.88918 F800
G1 X102.528 Y99.331 Z0.400 E55.90862 F800
G1 X102.538 Y99.331 Z0.400 E55.90922 F800
G1 X102.548 Y99.351 Z0.400 E55.91056 F800
G1 X102.178 Y99.441 Z0.400 E55.93341 F800
G1 X102.258 Y99.791 Z0.400 E55.95495 F800
G1 X102.268 Y99.791 Z0.400 E55.95555 F800
G1 X102.568 Y99.791 Z0.400 E55.97355 F800
G1 X102.558 Y99.801 Z0.400 E55.97440 F800
G1 X102.578 Y99.821 Z0.400 E55.97609 F800
G1 X102.248 Y100.231 Z0.400 E56.00767 F800
G1 X102.188 Y100.221 Z0.400 E56.01132 F800
G1 X102.528 Y100.291 Z0.400 E56.03215 F800
G1 X102.218 Y100.231 Z0.400 E56.05110 F800
G1 X102.538 Y100.311 Z0.400 E56.07089 F800
G1 X102.358 Y100.751 Z0.400 E56.09941 F800
G1 X102.088 Y100.641 Z0.400 E56.11690 F800
G1 X101.898 Y101.001 Z0.400 E56.14133 F800
G1 X102.158 Y101.181 Z0.400 E56.16030 F800
G1 X102.198 Y101.221 Z0.400 E56.16369 F800
G1 X101.848 Y101.531 Z0.400 E56.19175 F800
G1 X101.628 Y101.321 Z0.400 E56.21000 F800
G1 X101.838 Y101.561 Z0.400 E56.22913 F800
G1 X101.588 Y101.311 Z0.400 E56.25034 F800
G1 X101.298 Y101.611 Z0.400 E56.27538 F800
G1 X101.468 Y101.871 Z0.400 E56.29402 F800
G1 X101.478 Y101.911 Z0.400 E56.29649 F800
G1 X101.458 Y101.881 Z0.400 E56.29865 F800
G1 X101.088 Y102.111 Z0.400 E56.32479 F800
G1 X101.038 Y102.101 Z0.400 E56.32785 F800
G1 X100.908 Y101.811 Z0.400 E56.34692 F800
G1 X100.908 Y101.821 Z0.400 E56.34752 F800
G1 X100.528 Y101.921 Z0.400 E56.37110 F800
G1 X100.578 Y102.251 Z0.400 E56.39112 F800
G1 X100.578 Y102.271 Z0.400 E56.39232 F800
G1 X100.568 Y102.261 Z0.400 E56.39317 F800
G1 X100.098 Y101.971 Z0.400 E56.42631 F800
G1 X100.098 Y102.291 Z0.400 E56.44551 F800
G1 X100.058 Y101.961 Z0.400 E56.46545 F800
G1 X99.638 Y102.251 Z0.400 E56.49608 F800
G1 X99.678 Y101.931 Z0.400 E56.51543 F800
G1 X99.668 Y101.911 Z0.400 E56.51677 F800
G1 X99.668 Y101.901 Z0.400 E56.51737 F800
G1 X99.268 Y101.801 Z0.400 E56.54211 F800
G1 X98.738 Y101.901 Z0.400 E56.57447 F800
G1 X98.728 Y101.881 Z0.400 E56.57581 F800
G1 X98.718 Y101.891 Z0.400 E56.57666 F800
G1 X98.708 Y101.891 Z0.400 E56.57726 F800
G1 X98.878 Y101.621 Z0.400 E56.59640 F800
G1 X98.888 Y101.601 Z0.400 E56.59774 F800
G1 X98.888 Y101.591 Z0.400 E56.59834 F800
G1 X98.368 Y101.571 Z0.400 E56.62957 F800
G1 X98.598 Y101.311 Z0.400 E56.65039 F800
G1 X98.558 Y101.321 Z0.400 E56.65287 F800
G1 X98.038 Y101.211 Z0.400 E56.68476 F800
G1 X98.308 Y101.001 Z0.400 E56.70528 F800
G1 X97.798 Y100.761 Z0.400 E56.73910 F800
G1 X98.098 Y100.631 Z0.400 E56.75872 F800
G1 X97.658 Y100.281 Z0.400 E56.79245 F800
G1 X97.988 Y100.211 Z0.400 E56.81269 F800
G1 X97.608 Y99.821 Z0.400 E56.84536 F800
G1 X97.628 Y99.801 Z0.400 E56.84706 F800

; polyline 21
G1 X98.258 Y99.811 Z0.400 F800
G1 X98.268 Y99.801 Z0.400 E56.84791 F800
G1 X98.318 Y99.481 Z0.400 E56.86734 F800
G1 X98.318 Y99.441 Z0.400 E56.86974 F800
G1 X98.388 Y99.111 Z0.400 E56.88998 F800
G1 X98.398 Y99.091 Z0.400 E56.89132 F800
G1 X98.568 Y98.761 Z0.400 E56.91360 F800
G1 X98.798 Y98.491 Z0.400 E56.93488 F800
G1 X99.098 Y98.261 Z0.400 E56.95756 F800
G1 X99.388 Y98.101 Z0.400 E56.97743 F800
G1 X99.428 Y98.131 Z0.400 E56.98043 F800
G1 X99.738 Y98.021 Z0.400 E57.00017 F800
G1 X99.758 Y98.051 Z0.400 E57.00233 F800
G1 X100.108 Y97.991 Z0.400 E57.02364 F800
G1 X100.448 Y97.991 Z0.400 E57.04404 F800
G1 X100.448 Y98.021 Z0.400 E57.04584 F800
G1 X100.468 Y98.001 Z0.400 E57.04753 F800
G1 X100.788 Y98.111 Z0.400 E57.06784 F800
G1 X101.108 Y98.261 Z0.400 E57.08904 F800
G1 X101.088 Y98.321 Z0.400 E57.09284 F800
G1 X101.388 Y98.521 Z0.400 E57.11447 F800
G1 X101.628 Y98.801 Z0.400 E57.13660 F800
G1 X101.778 Y99.091 Z0.400 E57.15619 F800
G1 X101.788 Y99.091 Z0.400 E57.15679 F800
G1 X101.778 Y99.101 Z0.400 E57.15763 F800
G1 X101.748 Y99.131 Z0.400 E57.16018 F800
G1 X101.888 Y99.461 Z0.400 E57.18169 F800
G1 X101.908 Y99.461 Z0.400 E57.18289 F800
G1 X101.928 Y99.821 Z0.400 E57.20452 F800
G1 X101.878 Y100.161 Z0.400 E57.22514 F800
G1 X101.868 Y100.191 Z0.400 E57.22704 F800
G1 X101.818 Y100.491 Z0.400 E57.24529 F800
G1 X101.638 Y100.831 Z0.400 E57.26837 F800
G1 X101.618 Y100.851 Z0.400 E57.27007 F800
G1 X101.598 Y100.841 Z0.400 E57.27141 F800
G1 X101.418 Y101.111 Z0.400 E57.29088 F800
G1 X101.128 Y101.311 Z0.400 E57.31201 F800
G1 X101.118 Y101.351 Z0.400 E57.31449 F800
G1 X100.798 Y101.521 Z0.400 E57.33623 F800
G1 X100.438 Y101.591 Z0.400 E57.35823 F800
G1 X100.438 Y101.621 Z0.400 E57.36003 F800
G1 X100.108 Y101.671 Z0.400 E57.38006 F800
G1 X100.088 Y101.651 Z0.400 E57.38176 F800
G1 X99.748 Y101.601 Z0.400 E57.40238 F800
G1 X99.388 Y101.491 Z0.400 E57.42496 F800
G1 X99.088 Y101.341 Z0.400 E57.44509 F800
G1 X99.088 Y101.331 Z0.400 E57.44569 F800
G1 X98.778 Y101.171 Z0.400 E57.46662 F800
G1 X98.788 Y101.121 Z0.400 E57.46968 F800
G1 X98.778 Y101.081 Z0.400 E57.47215 F800
G1 X98.608 Y100.851 Z0.400 E57.48931 F800
G1 X98.528 Y100.861 Z0.400 E57.49415 F800
G1 X98.418 Y100.521 Z0.400 E57.51559 F800
G1 X98.438 Y100.501 Z0.400 E57.51729 F800
G1 X98.328 Y100.171 Z0.400 E57.53816 F800
G1 X98.278 Y99.841 Z0.400 E57.55818 F800
G1 X98.258 Y99.811 Z0.400 E57.56035 F800


G92 E0
G1 E-1 F1800 ; retract
G1 Z5 F3000 ; move Z up
M104 S0 ; turn off extruder
M140 S0 ; turn off bed
M107 ; turn off fan
G28 X0 Y0 ; home XY axes
M84 ; disable motors
; End of print