G90
M82
M106 S0
M140 S60
M190 S60
M104 S210 T0
M109 S210 T0
G92 A0 ; zero extruder
G28 ; home all axes
G1 Z0.4 ; position nozzle
G1 X10 Y10 ; prepare to extrude
G1 X210 Y10 E12.5 F800; Extrude line
M73 P1 ;@body (notify GPX body has started)
; process Process1
; layer 1, Z = 0.196
T0
G92 E0.0000

; --- Generated toolpaths: gen_label0_cube_area1.0.gcode ---
; feedrate=800, z_height=0.4, E_per_mm=0.06

; polyline 1
G1 X99.899 Y99.587 Z0.400 F800
G1 X99.849 Y99.547 Z0.400 E0.00384 F800
G1 X99.829 Y99.527 Z0.400 E0.00554 F800
G1 X99.859 Y99.537 Z0.400 E0.00744 F800
G1 X99.849 Y99.527 Z0.400 E0.00828 F800
G1 X99.879 Y99.547 Z0.400 E0.01045 F800
G1 X99.869 Y99.537 Z0.400 E0.01130 F800
G1 X99.859 Y99.527 Z0.400 E0.01215 F800
G1 X99.889 Y99.547 Z0.400 E0.01431 F800
G1 X99.879 Y99.537 Z0.400 E0.01516 F800
G1 X99.869 Y99.527 Z0.400 E0.01601 F800
G1 X99.859 Y99.517 Z0.400 E0.01685 F800
G1 X99.849 Y99.507 Z0.400 E0.01770 F800
G1 X99.839 Y99.497 Z0.400 E0.01855 F800
G1 X99.889 Y99.537 Z0.400 E0.02239 F800
G1 X99.879 Y99.527 Z0.400 E0.02324 F800
G1 X99.869 Y99.517 Z0.400 E0.02409 F800
G1 X99.859 Y99.507 Z0.400 E0.02494 F800
G1 X99.849 Y99.497 Z0.400 E0.02579 F800
G1 X99.909 Y99.547 Z0.400 E0.03047 F800
G1 X99.899 Y99.537 Z0.400 E0.03132 F800
G1 X99.889 Y99.527 Z0.400 E0.03217 F800
G1 X99.879 Y99.517 Z0.400 E0.03302 F800
G1 X99.869 Y99.507 Z0.400 E0.03387 F800
G1 X99.859 Y99.497 Z0.400 E0.03472 F800
G1 X99.849 Y99.487 Z0.400 E0.03556 F800
G1 X99.839 Y99.477 Z0.400 E0.03641 F800
G1 X99.899 Y99.527 Z0.400 E0.04110 F800
G1 X99.889 Y99.517 Z0.400 E0.04195 F800
G1 X99.879 Y99.507 Z0.400 E0.04280 F800
G1 X99.869 Y99.497 Z0.400 E0.04364 F800
G1 X99.859 Y99.487 Z0.400 E0.04449 F800
G1 X99.889 Y99.507 Z0.400 E0.04666 F800
G1 X99.849 Y99.467 Z0.400 E0.05005 F800
G1 X99.909 Y99.527 Z0.400 E0.05514 F800
G1 X99.869 Y99.487 Z0.400 E0.05854 F800
G1 X99.859 Y99.477 Z0.400 E0.05938 F800
G1 X99.879 Y99.497 Z0.400 E0.06108 F800
G1 X99.899 Y99.517 Z0.400 E0.06278 F800
G1 X99.859 Y99.467 Z0.400 E0.06662 F800
G1 X99.869 Y99.477 Z0.400 E0.06747 F800
G1 X99.879 Y99.487 Z0.400 E0.06832 F800
G1 X99.889 Y99.497 Z0.400 E0.06917 F800
G1 X99.899 Y99.507 Z0.400 E0.07001 F800
G1 X99.909 Y99.517 Z0.400 E0.07086 F800
G1 X99.919 Y99.527 Z0.400 E0.07171 F800
G1 X99.869 Y99.467 Z0.400 E0.07640 F800
G1 X99.879 Y99.477 Z0.400 E0.07725 F800
G1 X99.889 Y99.487 Z0.400 E0.07809 F800
G1 X99.899 Y99.497 Z0.400 E0.07894 F800
G1 X99.909 Y99.507 Z0.400 E0.07979 F800
G1 X99.869 Y99.457 Z0.400 E0.08363 F800
G1 X99.879 Y99.467 Z0.400 E0.08448 F800
G1 X99.889 Y99.477 Z0.400 E0.08533 F800
G1 X99.899 Y99.487 Z0.400 E0.08618 F800
G1 X99.919 Y99.507 Z0.400 E0.08788 F800
G1 X99.889 Y99.467 Z0.400 E0.09088 F800
G1 X99.899 Y99.477 Z0.400 E0.09172 F800
G1 X99.909 Y99.487 Z0.400 E0.09257 F800
G1 X99.889 Y99.457 Z0.400 E0.09474 F800
G1 X99.899 Y99.467 Z0.400 E0.09559 F800
G1 X99.919 Y99.487 Z0.400 E0.09728 F800
G1 X99.929 Y99.497 Z0.400 E0.09813 F800
G1 X100.209 Y99.467 Z0.400 E0.11503 F800
G1 X100.279 Y99.387 Z0.400 E0.12141 F800
G1 X100.239 Y99.477 Z0.400 E0.12731 F800
G1 X100.219 Y99.507 Z0.400 E0.12948 F800
G1 X100.239 Y99.487 Z0.400 E0.13117 F800
G1 X100.259 Y99.467 Z0.400 E0.13287 F800
G1 X100.269 Y99.457 Z0.400 E0.13372 F800
G1 X100.239 Y99.497 Z0.400 E0.13672 F800
G1 X100.249 Y99.487 Z0.400 E0.13757 F800
G1 X100.259 Y99.477 Z0.400 E0.13842 F800
G1 X100.269 Y99.467 Z0.400 E0.13927 F800
G1 X100.279 Y99.457 Z0.400 E0.14011 F800
G1 X100.289 Y99.447 Z0.400 E0.14096 F800
G1 X100.259 Y99.487 Z0.400 E0.14396 F800
G1 X100.269 Y99.477 Z0.400 E0.14481 F800
G1 X100.279 Y99.467 Z0.400 E0.14566 F800
G1 X100.289 Y99.457 Z0.400 E0.14651 F800
G1 X100.229 Y99.527 Z0.400 E0.15204 F800
G1 X100.239 Y99.517 Z0.400 E0.15289 F800
G1 X100.249 Y99.507 Z0.400 E0.15374 F800
G1 X100.259 Y99.497 Z0.400 E0.15459 F800
G1 X100.269 Y99.487 Z0.400 E0.15543 F800
G1 X100.279 Y99.477 Z0.400 E0.15628 F800
G1 X100.289 Y99.467 Z0.400 E0.15713 F800
G1 X100.249 Y99.517 Z0.400 E0.16097 F800
G1 X100.259 Y99.507 Z0.400 E0.16182 F800
G1 X100.269 Y99.497 Z0.400 E0.16267 F800
G1 X100.279 Y99.487 Z0.400 E0.16352 F800
G1 X100.289 Y99.477 Z0.400 E0.16437 F800
G1 X100.259 Y99.517 Z0.400 E0.16737 F800
G1 X100.289 Y99.487 Z0.400 E0.16991 F800
G1 X100.299 Y99.477 Z0.400 E0.17076 F800
G1 X100.249 Y99.527 Z0.400 E0.17500 F800
G1 X100.309 Y99.467 Z0.400 E0.18010 F800
G1 X100.269 Y99.507 Z0.400 E0.18349 F800
G1 X100.279 Y99.497 Z0.400 E0.18434 F800
G1 X100.329 Y99.457 Z0.400 E0.18818 F800
G1 X100.309 Y99.477 Z0.400 E0.18988 F800
G1 X100.299 Y99.487 Z0.400 E0.19073 F800
G1 X100.289 Y99.497 Z0.400 E0.19157 F800
G1 X100.279 Y99.507 Z0.400 E0.19242 F800
G1 X100.269 Y99.517 Z0.400 E0.19327 F800
G1 X100.259 Y99.527 Z0.400 E0.19412 F800
G1 X100.319 Y99.477 Z0.400 E0.19881 F800
G1 X100.309 Y99.487 Z0.400 E0.19965 F800
G1 X100.299 Y99.497 Z0.400 E0.20050 F800
G1 X100.289 Y99.507 Z0.400 E0.20135 F800
G1 X100.279 Y99.517 Z0.400 E0.20220 F800
G1 X100.269 Y99.527 Z0.400 E0.20305 F800
G1 X100.319 Y99.487 Z0.400 E0.20689 F800
G1 X100.309 Y99.497 Z0.400 E0.20774 F800
G1 X100.299 Y99.507 Z0.400 E0.20859 F800
G1 X100.289 Y99.517 Z0.400 E0.20944 F800
G1 X100.279 Y99.527 Z0.400 E0.21028 F800
G1 X100.329 Y99.487 Z0.400 E0.21413 F800
G1 X100.319 Y99.497 Z0.400 E0.21497 F800
G1 X100.309 Y99.507 Z0.400 E0.21582 F800
G1 X100.299 Y99.517 Z0.400 E0.21667 F800
G1 X100.289 Y99.527 Z0.400 E0.21752 F800
G1 X100.279 Y99.537 Z0.400 E0.21837 F800
G1 X100.309 Y99.517 Z0.400 E0.22053 F800
G1 X100.289 Y99.537 Z0.400 E0.22223 F800
G1 X100.279 Y99.547 Z0.400 E0.22308 F800
G1 X100.299 Y99.537 Z0.400 E0.22442 F800
G1 X100.329 Y99.517 Z0.400 E0.22658 F800
G1 X100.289 Y99.547 Z0.400 E0.22958 F800
G1 X100.319 Y99.527 Z0.400 E0.23175 F800
G1 X100.299 Y99.547 Z0.400 E0.23344 F800
G1 X100.279 Y99.837 Z0.400 E0.25088 F800
G1 X100.339 Y99.887 Z0.400 E0.25557 F800
G1 X100.329 Y99.887 Z0.400 E0.25617 F800
G1 X100.289 Y99.867 Z0.400 E0.25885 F800
G1 X100.299 Y99.877 Z0.400 E0.25970 F800
G1 X100.319 Y99.897 Z0.400 E0.26140 F800
G1 X100.269 Y99.857 Z0.400 E0.26524 F800
G1 X100.279 Y99.867 Z0.400 E0.26609 F800
G1 X100.289 Y99.877 Z0.400 E0.26694 F800
G1 X100.299 Y99.887 Z0.400 E0.26779 F800
G1 X100.309 Y99.897 Z0.400 E0.26864 F800
G1 X100.319 Y99.907 Z0.400 E0.26948 F800
G1 X100.339 Y99.927 Z0.400 E0.27118 F800
G1 X100.269 Y99.867 Z0.400 E0.27671 F800
G1 X100.279 Y99.877 Z0.400 E0.27756 F800
G1 X100.289 Y99.887 Z0.400 E0.27841 F800
G1 X100.299 Y99.897 Z0.400 E0.27926 F800
G1 X100.319 Y99.917 Z0.400 E0.28096 F800
G1 X100.269 Y99.877 Z0.400 E0.28480 F800
G1 X100.279 Y99.887 Z0.400 E0.28565 F800
G1 X100.289 Y99.897 Z0.400 E0.28649 F800
G1 X100.299 Y99.907 Z0.400 E0.28734 F800
G1 X100.269 Y99.887 Z0.400 E0.28951 F800
G1 X100.329 Y99.947 Z0.400 E0.29460 F800
G1 X100.279 Y99.897 Z0.400 E0.29884 F800
G1 X100.259 Y99.877 Z0.400 E0.30054 F800
G1 X100.289 Y99.907 Z0.400 E0.30308 F800
G1 X100.299 Y99.917 Z0.400 E0.30393 F800
G1 X100.309 Y99.937 Z0.400 E0.30527 F800
G1 X100.299 Y99.927 Z0.400 E0.30612 F800
G1 X100.289 Y99.917 Z0.400 E0.30697 F800
G1 X100.279 Y99.907 Z0.400 E0.30782 F800
G1 X100.269 Y99.897 Z0.400 E0.30867 F800
G1 X100.259 Y99.887 Z0.400 E0.30952 F800
G1 X100.289 Y99.927 Z0.400 E0.31252 F800
G1 X100.279 Y99.917 Z0.400 E0.31336 F800
G1 X100.269 Y99.907 Z0.400 E0.31421 F800
G1 X100.259 Y99.897 Z0.400 E0.31506 F800
G1 X100.249 Y99.887 Z0.400 E0.31591 F800
G1 X100.289 Y99.937 Z0.400 E0.31975 F800
G1 X100.279 Y99.927 Z0.400 E0.32060 F800
G1 X100.269 Y99.917 Z0.400 E0.32145 F800
G1 X100.259 Y99.907 Z0.400 E0.32230 F800
G1 X100.249 Y99.897 Z0.400 E0.32315 F800
G1 X100.239 Y99.887 Z0.400 E0.32399 F800
G1 X100.279 Y99.937 Z0.400 E0.32784 F800
G1 X100.269 Y99.927 Z0.400 E0.32868 F800
G1 X100.259 Y99.917 Z0.400 E0.32953 F800
G1 X100.249 Y99.907 Z0.400 E0.33038 F800
G1 X100.269 Y99.937 Z0.400 E0.33255 F800
G1 X100.259 Y99.927 Z0.400 E0.33339 F800
G1 X100.249 Y99.917 Z0.400 E0.33424 F800
G1 X100.269 Y99.947 Z0.400 E0.33641 F800
G1 X100.259 Y99.937 Z0.400 E0.33725 F800
G1 X100.249 Y99.927 Z0.400 E0.33810 F800
G1 X100.239 Y99.917 Z0.400 E0.33895 F800
G1 X100.229 Y99.907 Z0.400 E0.33980 F800
G1 X100.249 Y99.937 Z0.400 E0.34196 F800
G1 X100.279 Y99.987 Z0.400 E0.34546 F800
G1 X100.249 Y99.957 Z0.400 E0.34801 F800
G1 X99.949 Y99.897 Z0.400 E0.36636 F800
G1 X99.909 Y99.937 Z0.400 E0.36976 F800
G1 X99.929 Y99.907 Z0.400 E0.37192 F800
G1 X99.909 Y99.927 Z0.400 E0.37362 F800
G1 X99.899 Y99.937 Z0.400 E0.37447 F800
G1 X99.889 Y99.947 Z0.400 E0.37532 F800
G1 X99.909 Y99.917 Z0.400 E0.37748 F800
G1 X99.899 Y99.927 Z0.400 E0.37833 F800
G1 X99.889 Y99.937 Z0.400 E0.37918 F800
G1 X99.879 Y99.947 Z0.400 E0.38002 F800
G1 X99.909 Y99.907 Z0.400 E0.38302 F800
G1 X99.899 Y99.917 Z0.400 E0.38387 F800
G1 X99.889 Y99.927 Z0.400 E0.38472 F800
G1 X99.879 Y99.937 Z0.400 E0.38557 F800
G1 X99.899 Y99.907 Z0.400 E0.38773 F800
G1 X99.889 Y99.917 Z0.400 E0.38858 F800
G1 X99.879 Y99.927 Z0.400 E0.38943 F800
G1 X99.869 Y99.937 Z0.400 E0.39028 F800
G1 X99.929 Y99.867 Z0.400 E0.39581 F800
G1 X99.909 Y99.887 Z0.400 E0.39751 F800
G1 X99.899 Y99.897 Z0.400 E0.39836 F800
G1 X99.889 Y99.907 Z0.400 E0.39920 F800
G1 X99.879 Y99.917 Z0.400 E0.40005 F800
G1 X99.869 Y99.927 Z0.400 E0.40090 F800
G1 X99.859 Y99.937 Z0.400 E0.40175 F800
G1 X99.849 Y99.947 Z0.400 E0.40260 F800
G1 X99.909 Y99.877 Z0.400 E0.40813 F800
G1 X99.899 Y99.887 Z0.400 E0.40898 F800
G1 X99.889 Y99.897 Z0.400 E0.40983 F800
G1 X99.879 Y99.907 Z0.400 E0.41068 F800
G1 X99.869 Y99.917 Z0.400 E0.41152 F800
G1 X99.859 Y99.927 Z0.400 E0.41237 F800
G1 X99.849 Y99.937 Z0.400 E0.41322 F800
G1 X99.819 Y99.967 Z0.400 E0.41577 F800
G1 X99.859 Y99.917 Z0.400 E0.41961 F800
G1 X99.879 Y99.897 Z0.400 E0.42131 F800
G1 X99.869 Y99.907 Z0.400 E0.42215 F800
G1 X99.889 Y99.887 Z0.400 E0.42385 F800
G1 X99.899 Y99.877 Z0.400 E0.42470 F800
G1 X99.849 Y99.927 Z0.400 E0.42894 F800
G1 X99.839 Y99.927 Z0.400 E0.42954 F800
G1 X99.849 Y99.917 Z0.400 E0.43039 F800
G1 X99.859 Y99.907 Z0.400 E0.43124 F800
G1 X99.869 Y99.897 Z0.400 E0.43209 F800
G1 X99.879 Y99.887 Z0.400 E0.43294 F800
G1 X99.889 Y99.877 Z0.400 E0.43379 F800
G1 X99.809 Y99.947 Z0.400 E0.44016 F800
G1 X99.839 Y99.917 Z0.400 E0.44271 F800
G1 X99.849 Y99.907 Z0.400 E0.44356 F800
G1 X99.859 Y99.897 Z0.400 E0.44441 F800
G1 X99.869 Y99.887 Z0.400 E0.44525 F800
G1 X99.879 Y99.877 Z0.400 E0.44610 F800
G1 X99.829 Y99.917 Z0.400 E0.44994 F800
G1 X99.849 Y99.897 Z0.400 E0.45164 F800
G1 X99.859 Y99.887 Z0.400 E0.45249 F800
G1 X99.869 Y99.877 Z0.400 E0.45334 F800
G1 X99.879 Y99.867 Z0.400 E0.45419 F800
G1 X99.849 Y99.887 Z0.400 E0.45635 F800
G1 X99.859 Y99.877 Z0.400 E0.45720 F800
G1 X99.859 Y99.867 Z0.400 E0.45780 F800
G1 X99.849 Y99.867 Z0.400 E0.45840 F800
G1 X99.829 Y99.867 Z0.400 E0.45960 F800
G1 X99.899 Y99.587 Z0.400 E0.47692 F800

; polyline 2
G1 X99.459 Y99.117 Z0.400 F800
G1 X99.439 Y99.097 Z0.400 E0.47861 F800
G1 X99.479 Y99.127 Z0.400 E0.48161 F800
G1 X99.469 Y99.107 Z0.400 E0.48296 F800
G1 X99.469 Y99.097 Z0.400 E0.48356 F800
G1 X99.459 Y99.077 Z0.400 E0.48490 F800
G1 X99.479 Y99.097 Z0.400 E0.48659 F800
G1 X99.459 Y99.067 Z0.400 E0.48876 F800
G1 X99.479 Y99.087 Z0.400 E0.49045 F800
G1 X99.489 Y99.097 Z0.400 E0.49130 F800
G1 X99.489 Y99.087 Z0.400 E0.49190 F800
G1 X100.689 Y99.077 Z0.400 E0.56391 F800
G1 X100.699 Y99.067 Z0.400 E0.56475 F800
G1 X100.679 Y99.097 Z0.400 E0.56692 F800
G1 X100.719 Y99.067 Z0.400 E0.56992 F800
G1 X100.709 Y99.077 Z0.400 E0.57077 F800
G1 X100.699 Y99.087 Z0.400 E0.57161 F800
G1 X100.679 Y99.107 Z0.400 E0.57331 F800
G1 X100.669 Y99.117 Z0.400 E0.57416 F800
G1 X100.719 Y99.087 Z0.400 E0.57766 F800
G1 X100.689 Y99.117 Z0.400 E0.58020 F800
G1 X100.729 Y99.087 Z0.400 E0.58320 F800
G1 X100.699 Y99.117 Z0.400 E0.58575 F800
G1 X100.719 Y100.347 Z0.400 E0.65956 F800
G1 X100.699 Y100.327 Z0.400 E0.66126 F800
G1 X100.709 Y100.357 Z0.400 E0.66315 F800
G1 X100.629 Y100.337 Z0.400 E0.66810 F800
G1 X99.519 Y100.307 Z0.400 E0.73473 F800
G1 X99.489 Y100.317 Z0.400 E0.73662 F800
G1 X99.479 Y100.327 Z0.400 E0.73747 F800
G1 X99.499 Y100.297 Z0.400 E0.73963 F800
G1 X99.459 Y100.337 Z0.400 E0.74303 F800
G1 X99.479 Y100.307 Z0.400 E0.74519 F800
G1 X99.469 Y100.317 Z0.400 E0.74604 F800
G1 X99.459 Y100.327 Z0.400 E0.74689 F800
G1 X99.449 Y100.337 Z0.400 E0.74774 F800
G1 X99.459 Y100.317 Z0.400 E0.74908 F800
G1 X99.469 Y100.307 Z0.400 E0.74993 F800
G1 X99.419 Y100.337 Z0.400 E0.75343 F800
G1 X99.459 Y99.117 Z0.400 E0.82667 F800

; polyline 3
G1 X99.059 Y98.717 Z0.400 F800
G1 X99.059 Y98.707 Z0.400 E0.82727 F800
G1 X99.029 Y98.677 Z0.400 E0.82981 F800
G1 X99.069 Y98.707 Z0.400 E0.83281 F800
G1 X99.059 Y98.697 Z0.400 E0.83366 F800
G1 X99.049 Y98.687 Z0.400 E0.83451 F800
G1 X99.069 Y98.697 Z0.400 E0.83585 F800
G1 X99.059 Y98.687 Z0.400 E0.83670 F800
G1 X99.049 Y98.677 Z0.400 E0.83755 F800
G1 X99.079 Y98.697 Z0.400 E0.83971 F800
G1 X99.089 Y98.707 Z0.400 E0.84056 F800
G1 X99.069 Y98.687 Z0.400 E0.84226 F800
G1 X99.059 Y98.677 Z0.400 E0.84310 F800
G1 X99.049 Y98.657 Z0.400 E0.84445 F800
G1 X99.059 Y98.667 Z0.400 E0.84530 F800
G1 X99.069 Y98.677 Z0.400 E0.84614 F800
G1 X99.079 Y98.687 Z0.400 E0.84699 F800
G1 X99.089 Y98.687 Z0.400 E0.84759 F800
G1 X99.069 Y98.647 Z0.400 E0.85028 F800
G1 X99.119 Y98.687 Z0.400 E0.85412 F800
G1 X101.069 Y98.637 Z0.400 E0.97116 F800
G1 X101.079 Y98.637 Z0.400 E0.97176 F800
G1 X101.059 Y98.667 Z0.400 E0.97392 F800
G1 X101.089 Y98.657 Z0.400 E0.97582 F800
G1 X101.099 Y98.647 Z0.400 E0.97666 F800
G1 X101.109 Y98.637 Z0.400 E0.97751 F800
G1 X101.079 Y98.677 Z0.400 E0.98051 F800
G1 X101.089 Y98.667 Z0.400 E0.98136 F800
G1 X101.099 Y98.657 Z0.400 E0.98221 F800
G1 X101.099 Y98.667 Z0.400 E0.98281 F800
G1 X101.109 Y98.657 Z0.400 E0.98366 F800
G1 X101.119 Y98.647 Z0.400 E0.98451 F800
G1 X101.109 Y98.667 Z0.400 E0.98585 F800
G1 X101.099 Y98.677 Z0.400 E0.98670 F800
G1 X101.129 Y98.657 Z0.400 E0.98886 F800
G1 X101.119 Y98.667 Z0.400 E0.98971 F800
G1 X101.109 Y98.677 Z0.400 E0.99056 F800
G1 X101.099 Y98.687 Z0.400 E0.99141 F800
G1 X101.089 Y98.697 Z0.400 E0.99226 F800
G1 X101.129 Y98.667 Z0.400 E0.99526 F800
G1 X101.119 Y98.677 Z0.400 E0.99610 F800
G1 X101.109 Y98.687 Z0.400 E0.99695 F800
G1 X101.099 Y98.697 Z0.400 E0.99780 F800
G1 X101.089 Y98.707 Z0.400 E0.99865 F800
G1 X101.079 Y98.717 Z0.400 E0.99950 F800
G1 X101.109 Y98.697 Z0.400 E1.00166 F800
G1 X101.099 Y98.707 Z0.400 E1.00251 F800
G1 X101.149 Y98.667 Z0.400 E1.00635 F800
G1 X101.139 Y98.677 Z0.400 E1.00720 F800
G1 X101.119 Y98.697 Z0.400 E1.00890 F800
G1 X101.109 Y98.707 Z0.400 E1.00975 F800
G1 X101.119 Y98.707 Z0.400 E1.01035 F800
G1 X101.199 Y98.677 Z0.400 E1.01547 F800
G1 X101.089 Y100.677 Z0.400 E1.13565 F800
G1 X101.109 Y100.727 Z0.400 E1.13888 F800
G1 X101.109 Y100.737 Z0.400 E1.13948 F800
G1 X101.099 Y100.727 Z0.400 E1.14033 F800
G1 X101.089 Y100.727 Z0.400 E1.14093 F800
G1 X101.069 Y100.707 Z0.400 E1.14263 F800
G1 X101.089 Y100.737 Z0.400 E1.14479 F800
G1 X101.079 Y100.737 Z0.400 E1.14539 F800
G1 X99.059 Y100.797 Z0.400 E1.26665 F800
G1 X99.069 Y100.767 Z0.400 E1.26854 F800
G1 X99.079 Y100.737 Z0.400 E1.27044 F800
G1 X99.069 Y100.747 Z0.400 E1.27129 F800
G1 X99.069 Y100.737 Z0.400 E1.27189 F800
G1 X99.059 Y100.747 Z0.400 E1.27274 F800
G1 X99.049 Y100.757 Z0.400 E1.27359 F800
G1 X99.079 Y100.717 Z0.400 E1.27659 F800
G1 X99.069 Y100.727 Z0.400 E1.27744 F800
G1 X99.059 Y100.737 Z0.400 E1.27828 F800
G1 X99.049 Y100.747 Z0.400 E1.27913 F800
G1 X99.069 Y100.717 Z0.400 E1.28130 F800
G1 X99.059 Y100.727 Z0.400 E1.28214 F800
G1 X99.049 Y100.737 Z0.400 E1.28299 F800
G1 X99.039 Y100.747 Z0.400 E1.28384 F800
G1 X99.039 Y100.737 Z0.400 E1.28444 F800
G1 X99.069 Y100.707 Z0.400 E1.28699 F800
G1 X99.059 Y100.717 Z0.400 E1.28784 F800
G1 X99.049 Y100.727 Z0.400 E1.28868 F800
G1 X99.049 Y100.717 Z0.400 E1.28928 F800
G1 X99.029 Y100.707 Z0.400 E1.29063 F800
G1 X99.029 Y100.687 Z0.400 E1.29183 F800
G1 X99.059 Y98.717 Z0.400 E1.41004 F800

; polyline 4
G1 X90.059 Y109.757 Z0.400 F800
G1 X90.069 Y89.667 Z0.400 E2.61544 F800
G1 X110.039 Y89.787 Z0.400 E3.81366 F800
G1 X110.069 Y109.677 Z0.400 E5.00706 F800
G1 X110.039 Y109.727 Z0.400 E5.01056 F800
G1 X90.059 Y109.757 Z0.400 E6.20936 F800

; polyline 5
G1 X90.069 Y89.667 Z0.400 F800
G1 X110.039 Y89.787 Z0.400 E7.40758 F800
G1 X110.069 Y109.677 Z0.400 E8.60099 F800
G1 X110.039 Y109.727 Z0.400 E8.60448 F800
G1 X90.059 Y109.757 Z0.400 E9.80329 F800
G1 X90.069 Y109.697 Z0.400 E9.80694 F800
G1 X90.069 Y89.667 Z0.400 E11.00874 F800

; polyline 6
G1 X90.489 Y90.117 Z0.400 F800
G1 X109.679 Y90.117 Z0.400 E12.16014 F800
G1 X109.679 Y109.317 Z0.400 E13.31214 F800
G1 X90.479 Y109.287 Z0.400 E14.46414 F800
G1 X90.489 Y90.117 Z0.400 E15.61434 F800

; polyline 7
G1 X90.849 Y90.527 Z0.400 F800
G1 X90.919 Y90.527 Z0.400 E15.61854 F800
G1 X109.249 Y90.537 Z0.400 E16.71834 F800
G1 X109.269 Y108.897 Z0.400 E17.81994 F800
G1 X90.869 Y108.877 Z0.400 E18.92394 F800
G1 X90.849 Y90.527 Z0.400 E20.02494 F800

; polyline 8
G1 X91.379 Y90.927 Z0.400 F800
G1 X108.849 Y90.977 Z0.400 E21.07314 F800
G1 X108.869 Y108.447 Z0.400 E22.12134 F800
G1 X91.349 Y108.447 Z0.400 E23.17254 F800
G1 X91.289 Y108.507 Z0.400 E23.17764 F800
G1 X91.299 Y108.487 Z0.400 E23.17898 F800
G1 X91.309 Y108.467 Z0.400 E23.18032 F800
G1 X91.379 Y90.927 Z0.400 E24.23273 F800

; polyline 9
G1 X91.719 Y91.327 Z0.400 F800
G1 X108.449 Y91.357 Z0.400 E25.23653 F800
G1 X108.479 Y108.077 Z0.400 E26.23973 F800
G1 X91.699 Y108.097 Z0.400 E27.24653 F800
G1 X91.709 Y108.037 Z0.400 E27.25018 F800
G1 X91.719 Y91.327 Z0.400 E28.25278 F800

; polyline 10
G1 X92.129 Y91.727 Z0.400 F800
G1 X108.029 Y91.747 Z0.400 E29.20678 F800
G1 X108.049 Y107.647 Z0.400 E30.16078 F800
G1 X108.059 Y107.707 Z0.400 E30.16443 F800
G1 X92.059 Y107.707 Z0.400 E31.12443 F800
G1 X92.119 Y107.637 Z0.400 E31.12996 F800
G1 X92.129 Y91.727 Z0.400 E32.08456 F800

; polyline 11
G1 X92.549 Y92.147 Z0.400 F800
G1 X107.609 Y92.147 Z0.400 E32.98816 F800
G1 X107.629 Y92.127 Z0.400 E32.98986 F800
G1 X107.619 Y107.217 Z0.400 E33.89526 F800
G1 X92.529 Y107.247 Z0.400 E34.80066 F800
G1 X92.549 Y92.147 Z0.400 E35.70666 F800

; polyline 12
G1 X92.939 Y92.567 Z0.400 F800
G1 X107.219 Y92.577 Z0.400 E36.56346 F800
G1 X107.219 Y106.827 Z0.400 E37.41846 F800
G1 X92.939 Y106.847 Z0.400 E38.27526 F800
G1 X92.979 Y106.787 Z0.400 E38.27959 F800
G1 X92.939 Y92.567 Z0.400 E39.13279 F800

; polyline 13
G1 X93.379 Y92.937 Z0.400 F800
G1 X106.779 Y92.987 Z0.400 E39.93680 F800
G1 X106.839 Y106.407 Z0.400 E40.74201 F800
G1 X106.799 Y106.397 Z0.400 E40.74448 F800
G1 X106.709 Y106.467 Z0.400 E40.75132 F800
G1 X93.349 Y106.427 Z0.400 E41.55293 F800
G1 X93.379 Y92.937 Z0.400 E42.36233 F800

; polyline 14
G1 X93.759 Y93.367 Z0.400 F800
G1 X106.379 Y93.377 Z0.400 E43.11953 F800
G1 X106.359 Y105.967 Z0.400 E43.87493 F800
G1 X106.379 Y105.997 Z0.400 E43.87709 F800
G1 X106.319 Y106.027 Z0.400 E43.88112 F800
G1 X93.809 Y106.087 Z0.400 E44.63173 F800
G1 X93.789 Y106.017 Z0.400 E44.63609 F800
G1 X93.729 Y106.027 Z0.400 E44.63974 F800
G1 X93.739 Y105.987 Z0.400 E44.64222 F800
G1 X93.759 Y93.367 Z0.400 E45.39942 F800

; polyline 15
G1 X94.079 Y93.757 Z0.400 F800
G1 X94.159 Y93.787 Z0.400 E45.40455 F800
G1 X94.139 Y93.747 Z0.400 E45.40723 F800
G1 X94.169 Y93.737 Z0.400 E45.40913 F800
G1 X94.179 Y93.727 Z0.400 E45.40997 F800
G1 X105.999 Y93.797 Z0.400 E46.11919 F800
G1 X106.009 Y105.567 Z0.400 E46.82539 F800
G1 X105.989 Y105.607 Z0.400 E46.82807 F800
G1 X94.159 Y105.617 Z0.400 E47.53787 F800
G1 X94.169 Y105.597 Z0.400 E47.53921 F800
G1 X94.139 Y105.617 Z0.400 E47.54138 F800
G1 X94.179 Y105.577 Z0.400 E47.54477 F800
G1 X94.199 Y105.557 Z0.400 E47.54647 F800
G1 X94.079 Y93.757 Z0.400 E48.25450 F800

; polyline 16
G1 X94.579 Y94.207 Z0.400 F800
G1 X94.579 Y94.157 Z0.400 E48.25750 F800
G1 X105.579 Y94.217 Z0.400 E48.91751 F800
G1 X105.589 Y105.197 Z0.400 E49.57631 F800
G1 X105.559 Y105.237 Z0.400 E49.57931 F800
G1 X94.549 Y105.217 Z0.400 E50.23991 F800
G1 X94.579 Y94.207 Z0.400 E50.90052 F800

; polyline 17
G1 X94.959 Y94.587 Z0.400 F800
G1 X105.169 Y94.587 Z0.400 E51.51312 F800
G1 X105.179 Y104.787 Z0.400 E52.12512 F800
G1 X105.179 Y104.797 Z0.400 E52.12572 F800
G1 X94.979 Y104.827 Z0.400 E52.73772 F800
G1 X94.959 Y104.787 Z0.400 E52.74040 F800
G1 X94.959 Y94.587 Z0.400 E53.35240 F800

; polyline 18
G1 X105.159 Y94.617 Z0.400 F800
G1 X105.169 Y104.787 Z0.400 E53.96260 F800
G1 X105.149 Y104.797 Z0.400 E53.96395 F800
G1 X95.019 Y104.747 Z0.400 E54.57175 F800
G1 X105.159 Y94.617 Z0.400 E55.43174 F800

; polyline 19
G1 X95.369 Y94.997 Z0.400 F800
G1 X95.409 Y94.977 Z0.400 E55.43442 F800
G1 X104.759 Y94.977 Z0.400 E55.99542 F800
G1 X104.769 Y95.027 Z0.400 E55.99848 F800
G1 X104.759 Y104.317 Z0.400 E56.55588 F800
G1 X104.759 Y104.367 Z0.400 E56.55888 F800
G1 X104.749 Y104.397 Z0.400 E56.56078 F800
G1 X95.389 Y104.407 Z0.400 E57.12238 F800
G1 X95.339 Y104.417 Z0.400 E57.12544 F800
G1 X95.369 Y104.387 Z0.400 E57.12798 F800
G1 X95.369 Y94.997 Z0.400 E57.69138 F800

; polyline 20
G1 X95.759 Y95.437 Z0.400 F800
G1 X95.789 Y95.437 Z0.400 E57.69318 F800
G1 X95.809 Y95.427 Z0.400 E57.69452 F800
G1 X104.349 Y95.417 Z0.400 E58.20692 F800
G1 X104.359 Y95.417 Z0.400 E58.20752 F800
G1 X104.369 Y95.447 Z0.400 E58.20942 F800
G1 X104.399 Y95.457 Z0.400 E58.21132 F800
G1 X104.349 Y103.957 Z0.400 E58.72133 F800
G1 X104.379 Y103.987 Z0.400 E58.72387 F800
G1 X104.339 Y103.967 Z0.400 E58.72656 F800
G1 X104.359 Y103.997 Z0.400 E58.72872 F800
G1 X104.349 Y103.997 Z0.400 E58.72932 F800
G1 X95.869 Y103.977 Z0.400 E59.23812 F800
G1 X95.809 Y104.007 Z0.400 E59.24215 F800
G1 X95.809 Y103.967 Z0.400 E59.24455 F800
G1 X95.789 Y103.987 Z0.400 E59.24624 F800
G1 X95.809 Y103.957 Z0.400 E59.24841 F800
G1 X95.759 Y95.437 Z0.400 E59.75962 F800

; polyline 21
G1 X96.229 Y95.927 Z0.400 F800
G1 X96.179 Y95.827 Z0.400 E59.76632 F800
G1 X96.199 Y95.837 Z0.400 E59.76767 F800
G1 X96.209 Y95.837 Z0.400 E59.76827 F800
G1 X96.179 Y95.807 Z0.400 E59.77081 F800
G1 X103.909 Y95.757 Z0.400 E60.23462 F800
G1 X103.959 Y95.797 Z0.400 E60.23846 F800
G1 X103.949 Y95.827 Z0.400 E60.24036 F800
G1 X103.919 Y95.867 Z0.400 E60.24336 F800
G1 X103.969 Y95.827 Z0.400 E60.24720 F800
G1 X103.979 Y95.827 Z0.400 E60.24780 F800
G1 X103.999 Y95.827 Z0.400 E60.24900 F800
G1 X103.989 Y103.537 Z0.400 E60.71160 F800
G1 X103.989 Y103.557 Z0.400 E60.71280 F800
G1 X103.969 Y103.567 Z0.400 E60.71414 F800
G1 X103.949 Y103.557 Z0.400 E60.71549 F800
G1 X103.959 Y103.577 Z0.400 E60.71683 F800
G1 X103.959 Y103.597 Z0.400 E60.71803 F800
G1 X103.929 Y103.577 Z0.400 E60.72019 F800
G1 X103.919 Y103.597 Z0.400 E60.72153 F800
G1 X96.269 Y103.607 Z0.400 E61.18053 F800
G1 X96.189 Y103.637 Z0.400 E61.18566 F800
G1 X96.249 Y103.567 Z0.400 E61.19119 F800
G1 X96.189 Y103.617 Z0.400 E61.19588 F800
G1 X96.219 Y103.567 Z0.400 E61.19937 F800
G1 X96.199 Y103.587 Z0.400 E61.20107 F800
G1 X96.199 Y103.577 Z0.400 E61.20167 F800
G1 X96.159 Y103.617 Z0.400 E61.20507 F800
G1 X96.189 Y103.577 Z0.400 E61.20807 F800
G1 X96.169 Y103.587 Z0.400 E61.20941 F800
G1 X96.189 Y103.567 Z0.400 E61.21110 F800
G1 X96.169 Y103.577 Z0.400 E61.21245 F800
G1 X96.209 Y103.537 Z0.400 E61.21584 F800
G1 X96.149 Y103.577 Z0.400 E61.22017 F800
G1 X96.229 Y95.927 Z0.400 E61.67919 F800

; polyline 22
G1 X96.619 Y96.237 Z0.400 F800
G1 X96.609 Y96.157 Z0.400 E61.68403 F800
G1 X103.539 Y96.207 Z0.400 E62.09984 F800
G1 X103.549 Y96.237 Z0.400 E62.10174 F800
G1 X103.559 Y103.167 Z0.400 E62.51754 F800
G1 X103.569 Y103.197 Z0.400 E62.51944 F800
G1 X103.549 Y103.177 Z0.400 E62.52113 F800
G1 X103.509 Y103.147 Z0.400 E62.52413 F800
G1 X103.529 Y103.177 Z0.400 E62.52630 F800
G1 X103.509 Y103.167 Z0.400 E62.52764 F800
G1 X96.619 Y103.167 Z0.400 E62.94104 F800
G1 X96.579 Y103.207 Z0.400 E62.94443 F800
G1 X96.619 Y96.237 Z0.400 E63.36264 F800

; polyline 23
G1 X97.009 Y96.667 Z0.400 F800
G1 X97.009 Y96.637 Z0.400 E63.36444 F800
G1 X103.109 Y96.667 Z0.400 E63.73044 F800
G1 X103.129 Y96.657 Z0.400 E63.73178 F800
G1 X103.189 Y102.717 Z0.400 E64.09540 F800
G1 X103.129 Y102.697 Z0.400 E64.09920 F800
G1 X103.179 Y102.747 Z0.400 E64.10344 F800
G1 X103.169 Y102.797 Z0.400 E64.10650 F800
G1 X103.129 Y102.757 Z0.400 E64.10989 F800
G1 X97.039 Y102.757 Z0.400 E64.47529 F800
G1 X96.999 Y102.737 Z0.400 E64.47798 F800
G1 X96.959 Y102.757 Z0.400 E64.48066 F800
G1 X97.009 Y96.667 Z0.400 E64.84607 F800

; polyline 24
G1 X97.369 Y97.027 Z0.400 F800
G1 X97.429 Y97.037 Z0.400 E64.84972 F800
G1 X102.729 Y97.057 Z0.400 E65.16772 F800
G1 X102.759 Y97.057 Z0.400 E65.16952 F800
G1 X102.719 Y102.357 Z0.400 E65.48753 F800
G1 X102.709 Y102.367 Z0.400 E65.48838 F800
G1 X97.409 Y102.357 Z0.400 E65.80638 F800
G1 X97.389 Y102.357 Z0.400 E65.80758 F800
G1 X97.409 Y102.337 Z0.400 E65.80928 F800
G1 X97.369 Y97.027 Z0.400 E66.12789 F800

; polyline 25
G1 X97.849 Y97.507 Z0.400 F800
G1 X97.839 Y97.497 Z0.400 E66.12874 F800
G1 X97.839 Y97.487 Z0.400 E66.12934 F800
G1 X97.829 Y97.477 Z0.400 E66.13019 F800
G1 X97.849 Y97.487 Z0.400 E66.13153 F800
G1 X97.839 Y97.457 Z0.400 E66.13342 F800
G1 X97.849 Y97.467 Z0.400 E66.13427 F800
G1 X97.869 Y97.467 Z0.400 E66.13547 F800
G1 X97.849 Y97.437 Z0.400 E66.13764 F800
G1 X102.299 Y97.447 Z0.400 E66.40464 F800
G1 X102.309 Y97.457 Z0.400 E66.40549 F800
G1 X102.309 Y97.467 Z0.400 E66.40609 F800
G1 X102.299 Y97.487 Z0.400 E66.40743 F800
G1 X102.339 Y101.927 Z0.400 E66.67384 F800
G1 X102.319 Y101.937 Z0.400 E66.67518 F800
G1 X102.329 Y101.947 Z0.400 E66.67603 F800
G1 X102.309 Y101.937 Z0.400 E66.67737 F800
G1 X102.289 Y101.917 Z0.400 E66.67907 F800
G1 X102.319 Y101.957 Z0.400 E66.68207 F800
G1 X102.289 Y101.927 Z0.400 E66.68461 F800
G1 X102.279 Y101.917 Z0.400 E66.68546 F800
G1 X102.299 Y101.947 Z0.400 E66.68762 F800
G1 X102.299 Y101.957 Z0.400 E66.68822 F800
G1 X102.279 Y101.947 Z0.400 E66.68957 F800
G1 X102.279 Y101.957 Z0.400 E66.69017 F800
G1 X102.259 Y101.967 Z0.400 E66.69151 F800
G1 X102.259 Y101.987 Z0.400 E66.69271 F800
G1 X97.839 Y101.957 Z0.400 E66.95791 F800
G1 X97.809 Y101.927 Z0.400 E66.96046 F800
G1 X97.789 Y101.917 Z0.400 E66.96180 F800
G1 X97.849 Y97.507 Z0.400 E67.22643 F800

; polyline 26
G1 X98.249 Y97.977 Z0.400 F800
G1 X98.179 Y97.867 Z0.400 E67.23425 F800
G1 X98.209 Y97.877 Z0.400 E67.23615 F800
G1 X98.249 Y97.907 Z0.400 E67.23915 F800
G1 X98.239 Y97.897 Z0.400 E67.23999 F800
G1 X98.229 Y97.887 Z0.400 E67.24084 F800
G1 X98.259 Y97.907 Z0.400 E67.24301 F800
G1 X98.249 Y97.897 Z0.400 E67.24385 F800
G1 X98.239 Y97.887 Z0.400 E67.24470 F800
G1 X98.229 Y97.877 Z0.400 E67.24555 F800
G1 X98.219 Y97.867 Z0.400 E67.24640 F800
G1 X98.259 Y97.897 Z0.400 E67.24940 F800
G1 X98.249 Y97.887 Z0.400 E67.25025 F800
G1 X98.239 Y97.877 Z0.400 E67.25110 F800
G1 X98.229 Y97.867 Z0.400 E67.25195 F800
G1 X98.219 Y97.857 Z0.400 E67.25279 F800
G1 X98.259 Y97.887 Z0.400 E67.25579 F800
G1 X98.249 Y97.877 Z0.400 E67.25664 F800
G1 X98.239 Y97.867 Z0.400 E67.25749 F800
G1 X98.229 Y97.857 Z0.400 E67.25834 F800
G1 X98.219 Y97.837 Z0.400 E67.25968 F800
G1 X98.229 Y97.847 Z0.400 E67.26053 F800
G1 X98.249 Y97.867 Z0.400 E67.26223 F800
G1 X98.269 Y97.887 Z0.400 E67.26392 F800
G1 X98.259 Y97.877 Z0.400 E67.26477 F800
G1 X98.239 Y97.857 Z0.400 E67.26647 F800
G1 X98.229 Y97.837 Z0.400 E67.26781 F800
G1 X98.249 Y97.857 Z0.400 E67.26951 F800
G1 X98.259 Y97.867 Z0.400 E67.27036 F800
G1 X98.269 Y97.877 Z0.400 E67.27121 F800
G1 X98.249 Y97.847 Z0.400 E67.27337 F800
G1 X98.259 Y97.857 Z0.400 E67.27422 F800
G1 X98.269 Y97.867 Z0.400 E67.27507 F800
G1 X98.249 Y97.837 Z0.400 E67.27723 F800
G1 X98.269 Y97.857 Z0.400 E67.27893 F800
G1 X98.279 Y97.867 Z0.400 E67.27978 F800
G1 X98.279 Y97.847 Z0.400 E67.28098 F800
G1 X98.279 Y97.837 Z0.400 E67.28158 F800
G1 X98.279 Y97.827 Z0.400 E67.28218 F800
G1 X101.849 Y97.877 Z0.400 E67.49640 F800
G1 X101.869 Y97.857 Z0.400 E67.49809 F800
G1 X101.889 Y97.837 Z0.400 E67.49979 F800
G1 X101.899 Y97.827 Z0.400 E67.50064 F800
G1 X101.909 Y97.817 Z0.400 E67.50149 F800
G1 X101.889 Y97.847 Z0.400 E67.50365 F800
G1 X101.909 Y97.837 Z0.400 E67.50499 F800
G1 X101.889 Y97.867 Z0.400 E67.50716 F800
G1 X101.899 Y97.857 Z0.400 E67.50800 F800
G1 X101.909 Y97.847 Z0.400 E67.50885 F800
G1 X101.889 Y97.877 Z0.400 E67.51102 F800
G1 X101.909 Y97.857 Z0.400 E67.51271 F800
G1 X101.919 Y97.847 Z0.400 E67.51356 F800
G1 X101.929 Y97.837 Z0.400 E67.51441 F800
G1 X101.919 Y97.857 Z0.400 E67.51575 F800
G1 X101.899 Y97.877 Z0.400 E67.51745 F800
G1 X101.929 Y97.847 Z0.400 E67.51999 F800
G1 X101.909 Y97.867 Z0.400 E67.52169 F800
G1 X101.949 Y97.837 Z0.400 E67.52469 F800
G1 X101.929 Y97.857 Z0.400 E67.52639 F800
G1 X101.919 Y97.867 Z0.400 E67.52724 F800
G1 X101.909 Y97.877 Z0.400 E67.52809 F800
G1 X101.899 Y97.887 Z0.400 E67.52893 F800
G1 X101.879 Y97.907 Z0.400 E67.53063 F800
G1 X101.939 Y97.857 Z0.400 E67.53532 F800
G1 X101.929 Y97.867 Z0.400 E67.53617 F800
G1 X101.919 Y97.877 Z0.400 E67.53701 F800
G1 X101.939 Y97.867 Z0.400 E67.53836 F800
G1 X101.929 Y97.877 Z0.400 E67.53920 F800
G1 X101.919 Y97.887 Z0.400 E67.54005 F800
G1 X101.909 Y97.897 Z0.400 E67.54090 F800
G1 X101.949 Y97.867 Z0.400 E67.54390 F800
G1 X101.939 Y97.877 Z0.400 E67.54475 F800
G1 X101.929 Y97.887 Z0.400 E67.54560 F800
G1 X101.939 Y97.897 Z0.400 E67.54645 F800
G1 X101.939 Y101.507 Z0.400 E67.76305 F800
G1 X101.909 Y101.497 Z0.400 E67.76494 F800
G1 X101.929 Y101.517 Z0.400 E67.76664 F800
G1 X101.939 Y101.527 Z0.400 E67.76749 F800
G1 X101.909 Y101.507 Z0.400 E67.76965 F800
G1 X101.919 Y101.517 Z0.400 E67.77050 F800
G1 X101.949 Y101.547 Z0.400 E67.77305 F800
G1 X101.909 Y101.517 Z0.400 E67.77605 F800
G1 X101.919 Y101.527 Z0.400 E67.77690 F800
G1 X101.929 Y101.537 Z0.400 E67.77774 F800
G1 X101.939 Y101.547 Z0.400 E67.77859 F800
G1 X101.909 Y101.527 Z0.400 E67.78076 F800
G1 X101.899 Y101.517 Z0.400 E67.78160 F800
G1 X101.929 Y101.547 Z0.400 E67.78415 F800
G1 X101.919 Y101.537 Z0.400 E67.78500 F800
G1 X101.959 Y101.587 Z0.400 E67.78884 F800
G1 X101.929 Y101.557 Z0.400 E67.79139 F800
G1 X101.919 Y101.547 Z0.400 E67.79224 F800
G1 X101.909 Y101.537 Z0.400 E67.79308 F800
G1 X101.899 Y101.527 Z0.400 E67.79393 F800
G1 X101.929 Y101.567 Z0.400 E67.79693 F800
G1 X101.919 Y101.557 Z0.400 E67.79778 F800
G1 X101.909 Y101.547 Z0.400 E67.79863 F800
G1 X101.899 Y101.537 Z0.400 E67.79948 F800
G1 X101.919 Y101.567 Z0.400 E67.80164 F800
G1 X101.909 Y101.557 Z0.400 E67.80249 F800
G1 X101.899 Y101.547 Z0.400 E67.80334 F800
G1 X101.889 Y101.537 Z0.400 E67.80419 F800
G1 X101.869 Y101.517 Z0.400 E67.80588 F800
G1 X101.919 Y101.577 Z0.400 E67.81057 F800
G1 X101.909 Y101.567 Z0.400 E67.81142 F800
G1 X101.899 Y101.557 Z0.400 E67.81227 F800
G1 X101.889 Y101.547 Z0.400 E67.81312 F800
G1 X101.909 Y101.577 Z0.400 E67.81528 F800
G1 X101.899 Y101.567 Z0.400 E67.81613 F800
G1 X101.889 Y101.557 Z0.400 E67.81698 F800
G1 X101.869 Y101.537 Z0.400 E67.81867 F800
G1 X101.899 Y101.577 Z0.400 E67.82167 F800
G1 X101.889 Y101.567 Z0.400 E67.82252 F800
G1 X98.269 Y101.567 Z0.400 E68.03972 F800
G1 X98.259 Y101.567 Z0.400 E68.04032 F800
G1 X98.279 Y101.537 Z0.400 E68.04248 F800
G1 X98.259 Y101.557 Z0.400 E68.04418 F800
G1 X98.249 Y101.567 Z0.400 E68.04503 F800
G1 X98.239 Y101.577 Z0.400 E68.04588 F800
G1 X98.269 Y101.537 Z0.400 E68.04888 F800
G1 X98.259 Y101.547 Z0.400 E68.04973 F800
G1 X98.249 Y101.557 Z0.400 E68.05058 F800
G1 X98.239 Y101.567 Z0.400 E68.05142 F800
G1 X98.269 Y101.527 Z0.400 E68.05442 F800
G1 X98.259 Y101.537 Z0.400 E68.05527 F800
G1 X98.249 Y101.547 Z0.400 E68.05612 F800
G1 X98.239 Y101.557 Z0.400 E68.05697 F800
G1 X98.229 Y101.567 Z0.400 E68.05782 F800
G1 X98.269 Y101.517 Z0.400 E68.06166 F800
G1 X98.259 Y101.527 Z0.400 E68.06251 F800
G1 X98.249 Y101.537 Z0.400 E68.06336 F800
G1 X98.239 Y101.547 Z0.400 E68.06421 F800
G1 X98.229 Y101.557 Z0.400 E68.06505 F800
G1 X98.259 Y101.517 Z0.400 E68.06805 F800
G1 X98.239 Y101.537 Z0.400 E68.06975 F800
G1 X98.249 Y101.527 Z0.400 E68.07060 F800
G1 X98.229 Y101.547 Z0.400 E68.07230 F800
G1 X98.219 Y101.557 Z0.400 E68.07315 F800
G1 X98.209 Y101.557 Z0.400 E68.07375 F800
G1 X98.219 Y101.547 Z0.400 E68.07459 F800
G1 X98.229 Y101.537 Z0.400 E68.07544 F800
G1 X98.239 Y101.527 Z0.400 E68.07629 F800
G1 X98.249 Y101.517 Z0.400 E68.07714 F800
G1 X98.259 Y101.507 Z0.400 E68.07799 F800
G1 X98.209 Y101.547 Z0.400 E68.08183 F800
G1 X98.219 Y101.537 Z0.400 E68.08268 F800
G1 X98.229 Y101.527 Z0.400 E68.08353 F800
G1 X98.239 Y101.517 Z0.400 E68.08438 F800
G1 X98.219 Y101.527 Z0.400 E68.08572 F800
G1 X98.229 Y101.517 Z0.400 E68.08657 F800
G1 X98.199 Y101.537 Z0.400 E68.08873 F800
G1 X98.219 Y101.517 Z0.400 E68.09043 F800
G1 X98.209 Y101.517 Z0.400 E68.09103 F800
G1 X98.169 Y101.507 Z0.400 E68.09350 F800
G1 X98.249 Y97.977 Z0.400 E68.30535 F800

; polyline 27
G1 X98.629 Y98.267 Z0.400 F800
G1 X98.679 Y98.197 Z0.400 E68.31052 F800
G1 X101.499 Y98.277 Z0.400 E68.47978 F800
G1 X101.549 Y101.147 Z0.400 E68.65201 F800
G1 X101.499 Y101.127 Z0.400 E68.65524 F800
G1 X101.489 Y101.127 Z0.400 E68.65584 F800
G1 X101.509 Y101.157 Z0.400 E68.65800 F800
G1 X101.479 Y101.127 Z0.400 E68.66055 F800
G1 X101.479 Y101.137 Z0.400 E68.66115 F800
G1 X98.659 Y101.127 Z0.400 E68.83035 F800
G1 X98.659 Y101.107 Z0.400 E68.83155 F800
G1 X98.649 Y101.107 Z0.400 E68.83215 F800
G1 X98.629 Y98.267 Z0.400 E69.00256 F800


G92 E0
G1 E-1 F1800 ; retract
G1 Z5 F3000 ; move Z up
M104 S0 ; turn off extruder
M140 S0 ; turn off bed
M107 ; turn off fan
G28 X0 Y0 ; home XY axes
M84 ; disable motors
; End of print