G90
M82
M106 S0
M140 S60
M190 S60
M104 S180 T0
M109 S180 T0
G92 A0 ; zero extruder
G28 ; home all axes
G1 Z0.4 ; position nozzle
G1 X10 Y10 ; prepare to extrude
G1 X210 Y10 E12.5 F800; Extrude line
M73 P1 ;@body (notify GPX body has started)
; process Process1
; layer 1, Z = 0.196
T0
G92 E0.0000

G1 X24.361 Y24.417 Z0.400 E0.0000 F800
G1 X37.004 Y24.426 Z0.400 E0.2529 F800
G1 X37.033 Y24.437 Z0.400 E0.2535 F800
G1 X37.040 Y24.512 Z0.400 E0.2550 F800
G1 X37.028 Y37.081 Z0.400 E0.5064 F800
G1 X24.364 Y37.055 Z0.400 E0.7597 F800
G1 X24.361 Y24.417 Z0.400 E1.0124 F800
G1 X24.624 Y24.680 Z0.400 E1.0199 F800
G1 X24.672 Y24.654 Z0.400 E1.0210 F800
G1 X36.740 Y24.611 Z0.400 E1.2623 F800
G1 X36.768 Y24.684 Z0.400 E1.2639 F800
G1 X37.015 Y37.006 Z0.400 E1.5104 F800
G1 X24.547 Y36.831 Z0.400 E1.7598 F800
G1 X24.624 Y24.680 Z0.400 E2.0028 F800
G1 X24.624 Y24.697 Z0.400 E2.0031 F800
G1 X24.674 Y24.656 Z0.400 E2.0044 F800
G1 X36.680 Y24.675 Z0.400 E2.2445 F800
G1 X36.801 Y36.766 Z0.400 E2.4864 F800
G1 X36.778 Y36.822 Z0.400 E2.4876 F800
G1 X24.639 Y36.826 Z0.400 E2.7304 F800
G1 X24.618 Y36.768 Z0.400 E2.7316 F800
G1 X24.624 Y24.697 Z0.400 E2.9730 F800
G1 X24.630 Y24.693 Z0.400 E2.9732 F800
G1 X24.664 Y24.666 Z0.400 E2.9740 F800
G1 X36.527 Y24.931 Z0.400 E3.2114 F800
G1 X36.772 Y36.783 Z0.400 E3.4484 F800
G1 X36.755 Y36.800 Z0.400 E3.4489 F800
G1 X24.965 Y36.548 Z0.400 E3.6848 F800
G1 X24.870 Y36.517 Z0.400 E3.6868 F800
G1 X24.843 Y36.503 Z0.400 E3.6874 F800
G1 X24.630 Y24.693 Z0.400 E3.9236 F800
G1 X24.641 Y24.699 Z0.400 E3.9239 F800
G1 X24.664 Y24.679 Z0.400 E3.9245 F800
G1 X36.498 Y24.944 Z0.400 E4.1612 F800
G1 X36.746 Y36.777 Z0.400 E4.3979 F800
G1 X36.742 Y36.780 Z0.400 E4.3981 F800
G1 X24.945 Y36.534 Z0.400 E4.6340 F800
G1 X24.641 Y24.699 Z0.400 E4.8708 F800
G1 X24.643 Y24.702 Z0.400 E4.8709 F800
G1 X24.684 Y24.690 Z0.400 E4.8718 F800
G1 X36.490 Y24.980 Z0.400 E5.1080 F800
G1 X36.536 Y36.574 Z0.400 E5.3398 F800
G1 X25.121 Y36.318 Z0.400 E5.5682 F800
G1 X24.643 Y24.702 Z0.400 E5.8007 F800
G1 X24.662 Y24.722 Z0.400 E5.8012 F800
G1 X36.443 Y24.987 Z0.400 E6.0369 F800
G1 X36.535 Y36.559 Z0.400 E6.2684 F800
G1 X36.509 Y36.566 Z0.400 E6.2689 F800
G1 X25.141 Y36.304 Z0.400 E6.4963 F800
G1 X24.662 Y24.722 Z0.400 E6.7282 F800
G1 X24.671 Y24.724 Z0.400 E6.7283 F800
G1 X24.683 Y24.723 Z0.400 E6.7286 F800
G1 X36.225 Y25.166 Z0.400 E6.9596 F800
G1 X36.520 Y36.530 Z0.400 E7.1870 F800
G1 X36.503 Y36.545 Z0.400 E7.1874 F800
G1 X25.216 Y36.245 Z0.400 E7.4132 F800
G1 X24.671 Y24.724 Z0.400 E7.6439 F800
G1 X24.682 Y24.728 Z0.400 E7.6441 F800
G1 X35.933 Y25.455 Z0.400 E7.8696 F800
G1 X36.011 Y25.462 Z0.400 E7.8712 F800
G1 X36.046 Y25.501 Z0.400 E7.8722 F800
G1 X36.277 Y36.310 Z0.400 E8.0885 F800
G1 X25.464 Y36.070 Z0.400 E8.3048 F800
G1 X25.408 Y36.037 Z0.400 E8.3061 F800
G1 X24.682 Y24.728 Z0.400 E8.5327 F800
G1 X24.900 Y24.926 Z0.400 E8.5386 F800
G1 X35.996 Y25.467 Z0.400 E8.7608 F800
G1 X36.016 Y25.478 Z0.400 E8.7613 F800
G1 X36.206 Y36.301 Z0.400 E8.9778 F800
G1 X25.451 Y35.984 Z0.400 E9.1930 F800
G1 X24.900 Y24.926 Z0.400 E9.4144 F800
G1 X24.911 Y24.997 Z0.400 E9.4158 F800
G1 X24.910 Y24.973 Z0.400 E9.4163 F800
G1 X24.941 Y24.937 Z0.400 E9.4173 F800
G1 X36.003 Y25.496 Z0.400 E9.6388 F800
G1 X36.002 Y36.031 Z0.400 E9.8495 F800
G1 X25.612 Y35.794 Z0.400 E10.0573 F800
G1 X24.911 Y24.997 Z0.400 E10.2737 F800
G1 X24.918 Y24.997 Z0.400 E10.2739 F800
G1 X24.928 Y24.960 Z0.400 E10.2746 F800
G1 X24.937 Y24.949 Z0.400 E10.2749 F800
G1 X24.966 Y24.946 Z0.400 E10.2755 F800
G1 X35.760 Y25.703 Z0.400 E10.4919 F800
G1 X35.753 Y35.857 Z0.400 E10.6950 F800
G1 X25.657 Y35.765 Z0.400 E10.8969 F800
G1 X24.918 Y24.997 Z0.400 E11.1128 F800
G1 X24.931 Y24.996 Z0.400 E11.1130 F800
G1 X35.729 Y25.713 Z0.400 E11.3295 F800
G1 X35.742 Y35.792 Z0.400 E11.5311 F800
G1 X25.717 Y35.748 Z0.400 E11.7316 F800
G1 X24.931 Y24.996 Z0.400 E11.9472 F800
G1 X25.150 Y25.252 Z0.400 E11.9539 F800
G1 X25.148 Y25.195 Z0.400 E11.9551 F800
G1 X25.185 Y25.187 Z0.400 E11.9558 F800
G1 X25.194 Y25.185 Z0.400 E11.9560 F800
G1 X35.446 Y25.965 Z0.400 E12.1616 F800
G1 X35.739 Y35.727 Z0.400 E12.3569 F800
G1 X25.943 Y35.523 Z0.400 E12.5529 F800
G1 X25.150 Y25.252 Z0.400 E12.7589 F800
G1 X25.152 Y25.231 Z0.400 E12.7594 F800
G1 X25.176 Y25.189 Z0.400 E12.7603 F800
G1 X35.232 Y26.182 Z0.400 E12.9624 F800
G1 X35.234 Y26.207 Z0.400 E12.9629 F800
G1 X35.561 Y35.469 Z0.400 E13.1483 F800
G1 X35.496 Y35.531 Z0.400 E13.1501 F800
G1 X26.198 Y35.268 Z0.400 E13.3361 F800
G1 X26.188 Y35.261 Z0.400 E13.3363 F800
G1 X26.177 Y35.223 Z0.400 E13.3371 F800
G1 X25.152 Y25.231 Z0.400 E13.5380 F800
G1 X25.193 Y25.200 Z0.400 E13.5391 F800
G1 X35.217 Y26.232 Z0.400 E13.7406 F800
G1 X35.220 Y26.250 Z0.400 E13.7410 F800
G1 X35.473 Y35.500 Z0.400 E13.9260 F800
G1 X35.461 Y35.508 Z0.400 E13.9263 F800
G1 X35.435 Y35.512 Z0.400 E13.9269 F800
G1 X26.432 Y35.022 Z0.400 E14.1072 F800
G1 X25.193 Y25.200 Z0.400 E14.3052 F800
G1 X25.208 Y25.205 Z0.400 E14.3055 F800
G1 X35.216 Y26.274 Z0.400 E14.5068 F800
G1 X35.253 Y35.259 Z0.400 E14.6865 F800
G1 X26.444 Y34.994 Z0.400 E14.8627 F800
G1 X25.208 Y25.205 Z0.400 E15.0601 F800
G1 X25.385 Y25.501 Z0.400 E15.0670 F800
G1 X25.407 Y25.443 Z0.400 E15.0682 F800
G1 X34.978 Y26.485 Z0.400 E15.2608 F800
G1 X35.251 Y35.238 Z0.400 E15.4359 F800
G1 X26.695 Y34.773 Z0.400 E15.6073 F800
G1 X25.385 Y25.501 Z0.400 E15.7946 F800
G1 X25.429 Y25.548 Z0.400 E15.7959 F800
G1 X25.425 Y25.474 Z0.400 E15.7974 F800
G1 X34.948 Y26.532 Z0.400 E15.9890 F800
G1 X35.201 Y35.190 Z0.400 E16.1622 F800
G1 X26.749 Y34.746 Z0.400 E16.3315 F800
G1 X25.429 Y25.548 Z0.400 E16.5173 F800
G1 X25.475 Y25.493 Z0.400 E16.5187 F800
G1 X34.712 Y26.691 Z0.400 E16.7050 F800
G1 X34.744 Y26.776 Z0.400 E16.7068 F800
G1 X34.980 Y35.015 Z0.400 E16.8717 F800
G1 X26.982 Y34.490 Z0.400 E17.0320 F800
G1 X26.959 Y34.487 Z0.400 E17.0325 F800
G1 X25.475 Y25.493 Z0.400 E17.2148 F800
G1 X25.675 Y25.758 Z0.400 E17.2214 F800
G1 X25.692 Y25.728 Z0.400 E17.2221 F800
G1 X34.671 Y26.785 Z0.400 E17.4029 F800
G1 X34.976 Y34.997 Z0.400 E17.5672 F800
G1 X34.968 Y35.003 Z0.400 E17.5675 F800
G1 X27.218 Y34.253 Z0.400 E17.7232 F800
G1 X27.205 Y34.217 Z0.400 E17.7239 F800
G1 X25.675 Y25.758 Z0.400 E17.8959 F800
G1 X25.717 Y25.748 Z0.400 E17.8967 F800
G1 X34.461 Y26.989 Z0.400 E18.0734 F800
G1 X34.920 Y34.992 Z0.400 E18.2337 F800
G1 X27.257 Y34.237 Z0.400 E18.3877 F800
G1 X27.242 Y34.213 Z0.400 E18.3882 F800
G1 X25.717 Y25.748 Z0.400 E18.5603 F800
G1 X25.750 Y25.776 Z0.400 E18.5611 F800
G1 X34.433 Y27.012 Z0.400 E18.7366 F800
G1 X34.436 Y27.048 Z0.400 E18.7373 F800
G1 X34.736 Y34.743 Z0.400 E18.8913 F800
G1 X27.489 Y33.971 Z0.400 E19.0371 F800
G1 X25.750 Y25.776 Z0.400 E19.2046 F800
G1 X25.915 Y25.979 Z0.400 E19.2098 F800
G1 X25.915 Y25.937 Z0.400 E19.2107 F800
G1 X34.177 Y27.245 Z0.400 E19.3780 F800
G1 X34.220 Y27.269 Z0.400 E19.3790 F800
G1 X34.486 Y34.523 Z0.400 E19.5241 F800
G1 X27.488 Y33.953 Z0.400 E19.6646 F800
G1 X25.915 Y25.979 Z0.400 E19.8271 F800
G1 X25.932 Y25.969 Z0.400 E19.8275 F800
G1 X25.937 Y25.942 Z0.400 E19.8281 F800
G1 X33.926 Y27.501 Z0.400 E19.9909 F800
G1 X33.951 Y27.526 Z0.400 E19.9916 F800
G1 X34.427 Y34.458 Z0.400 E20.1305 F800
G1 X27.709 Y33.737 Z0.400 E20.2657 F800
G1 X27.691 Y33.730 Z0.400 E20.2661 F800
G1 X25.932 Y25.969 Z0.400 E20.4252 F800
G1 X25.944 Y25.953 Z0.400 E20.4256 F800
G1 X33.873 Y27.538 Z0.400 E20.5873 F800
G1 X34.218 Y34.213 Z0.400 E20.7210 F800
G1 X27.747 Y33.738 Z0.400 E20.8508 F800
G1 X25.944 Y25.953 Z0.400 E21.0106 F800
G1 X25.958 Y25.974 Z0.400 E21.0111 F800
G1 X25.960 Y25.959 Z0.400 E21.0114 F800
G1 X33.690 Y27.765 Z0.400 E21.1702 F800
G1 X34.016 Y34.014 Z0.400 E21.2954 F800
G1 X27.782 Y33.730 Z0.400 E21.4202 F800
G1 X27.757 Y33.709 Z0.400 E21.4208 F800
G1 X25.958 Y25.974 Z0.400 E21.5796 F800
G1 X25.984 Y25.996 Z0.400 E21.5803 F800
G1 X33.645 Y27.798 Z0.400 E21.7377 F800
G1 X33.663 Y27.827 Z0.400 E21.7384 F800
G1 X33.950 Y33.986 Z0.400 E21.8617 F800
G1 X27.760 Y33.686 Z0.400 E21.9857 F800
G1 X25.984 Y25.996 Z0.400 E22.1435 F800
G1 X26.179 Y26.223 Z0.400 E22.1495 F800
G1 X26.231 Y26.188 Z0.400 E22.1508 F800
G1 X33.434 Y28.028 Z0.400 E22.2994 F800
G1 X33.703 Y33.731 Z0.400 E22.4136 F800
G1 X27.995 Y33.450 Z0.400 E22.5279 F800
G1 X26.179 Y26.223 Z0.400 E22.6770 F800
G1 X26.255 Y26.305 Z0.400 E22.6792 F800
G1 X33.389 Y28.022 Z0.400 E22.8260 F800
G1 X33.422 Y28.034 Z0.400 E22.8267 F800
G1 X33.669 Y33.693 Z0.400 E22.9399 F800
G1 X28.236 Y33.210 Z0.400 E23.0490 F800
G1 X28.207 Y33.183 Z0.400 E23.0498 F800
G1 X26.255 Y26.305 Z0.400 E23.1928 F800
G1 X26.414 Y26.437 Z0.400 E23.1970 F800
G1 X33.387 Y28.037 Z0.400 E23.3401 F800
G1 X33.621 Y33.687 Z0.400 E23.4532 F800
G1 X28.276 Y33.211 Z0.400 E23.5605 F800
G1 X28.265 Y33.209 Z0.400 E23.5607 F800
G1 X26.414 Y26.437 Z0.400 E23.7011 F800
G1 X26.446 Y26.485 Z0.400 E23.7023 F800
G1 X33.193 Y28.277 Z0.400 E23.8419 F800
G1 X33.480 Y33.451 Z0.400 E23.9455 F800
G1 X33.436 Y33.481 Z0.400 E23.9466 F800
G1 X28.282 Y33.191 Z0.400 E24.0498 F800
G1 X26.446 Y26.485 Z0.400 E24.1889 F800
G1 X26.469 Y26.537 Z0.400 E24.1900 F800
G1 X26.460 Y26.489 Z0.400 E24.1910 F800
G1 X32.948 Y28.482 Z0.400 E24.3267 F800
G1 X33.413 Y33.464 Z0.400 E24.4268 F800
G1 X28.519 Y32.996 Z0.400 E24.5252 F800
G1 X28.444 Y32.957 Z0.400 E24.5269 F800
G1 X26.469 Y26.537 Z0.400 E24.6612 F800
G1 X26.487 Y26.528 Z0.400 E24.6616 F800
G1 X32.898 Y28.517 Z0.400 E24.7958 F800
G1 X32.920 Y28.542 Z0.400 E24.7965 F800
G1 X33.160 Y33.190 Z0.400 E24.8896 F800
G1 X33.159 Y33.195 Z0.400 E24.8897 F800
G1 X33.153 Y33.205 Z0.400 E24.8899 F800
G1 X28.513 Y32.940 Z0.400 E24.9829 F800
G1 X28.499 Y32.924 Z0.400 E24.9833 F800
G1 X26.487 Y26.528 Z0.400 E25.1174 F800
G1 X26.625 Y26.793 Z0.400 E25.1234 F800
G1 X26.715 Y26.714 Z0.400 E25.1258 F800
G1 X32.914 Y28.562 Z0.400 E25.2552 F800
G1 X33.144 Y33.168 Z0.400 E25.3474 F800
G1 X28.769 Y32.692 Z0.400 E25.4354 F800
G1 X26.625 Y26.793 Z0.400 E25.5610 F800
G1 X26.770 Y26.791 Z0.400 E25.5639 F800
G1 X32.663 Y28.751 Z0.400 E25.6881 F800
G1 X32.926 Y32.942 Z0.400 E25.7720 F800
G1 X29.018 Y32.434 Z0.400 E25.8509 F800
G1 X26.770 Y26.791 Z0.400 E25.9723 F800
G1 X26.964 Y27.053 Z0.400 E25.9789 F800
G1 X26.955 Y26.998 Z0.400 E25.9800 F800
G1 X26.959 Y26.985 Z0.400 E25.9802 F800
G1 X26.974 Y26.985 Z0.400 E25.9805 F800
G1 X32.650 Y28.782 Z0.400 E26.0996 F800
G1 X32.686 Y32.734 Z0.400 E26.1787 F800
G1 X32.620 Y32.731 Z0.400 E26.1800 F800
G1 X29.043 Y32.429 Z0.400 E26.2518 F800
G1 X29.040 Y32.425 Z0.400 E26.2519 F800
G1 X26.964 Y27.053 Z0.400 E26.3671 F800
G1 X26.960 Y27.012 Z0.400 E26.3679 F800
G1 X26.962 Y27.008 Z0.400 E26.3680 F800
G1 X32.650 Y28.788 Z0.400 E26.4872 F800
G1 X32.657 Y32.701 Z0.400 E26.5655 F800
G1 X32.639 Y32.729 Z0.400 E26.5661 F800
G1 X29.042 Y32.384 Z0.400 E26.6384 F800
G1 X26.960 Y27.012 Z0.400 E26.7536 F800
G1 X26.980 Y27.036 Z0.400 E26.7543 F800
G1 X27.016 Y27.040 Z0.400 E26.7550 F800
G1 X32.631 Y28.806 Z0.400 E26.8727 F800
G1 X32.638 Y28.826 Z0.400 E26.8731 F800
G1 X32.651 Y32.686 Z0.400 E26.9503 F800
G1 X29.268 Y32.177 Z0.400 E27.0187 F800
G1 X29.255 Y32.171 Z0.400 E27.0190 F800
G1 X26.980 Y27.036 Z0.400 E27.1314 F800
G1 X27.003 Y27.041 Z0.400 E27.1318 F800
G1 X32.410 Y29.063 Z0.400 E27.2473 F800
G1 X32.648 Y32.678 Z0.400 E27.3197 F800
G1 X32.635 Y32.681 Z0.400 E27.3200 F800
G1 X29.307 Y32.173 Z0.400 E27.3873 F800
G1 X29.289 Y32.165 Z0.400 E27.3877 F800
G1 X29.272 Y32.133 Z0.400 E27.3885 F800
G1 X27.003 Y27.041 Z0.400 E27.5000 F800
G1 X27.216 Y27.301 Z0.400 E27.5067 F800
G1 X27.216 Y27.289 Z0.400 E27.5069 F800
G1 X27.215 Y27.184 Z0.400 E27.5090 F800
G1 X32.124 Y29.323 Z0.400 E27.6161 F800
G1 X32.133 Y29.342 Z0.400 E27.6165 F800
G1 X32.623 Y32.625 Z0.400 E27.6829 F800
G1 X29.538 Y31.963 Z0.400 E27.7460 F800
G1 X29.509 Y31.933 Z0.400 E27.7468 F800
G1 X29.500 Y31.919 Z0.400 E27.7472 F800
G1 X27.216 Y27.301 Z0.400 E27.8502 F800
G1 X27.224 Y27.285 Z0.400 E27.8506 F800
G1 X27.218 Y27.244 Z0.400 E27.8514 F800
G1 X27.222 Y27.241 Z0.400 E27.8515 F800
G1 X32.095 Y29.367 Z0.400 E27.9578 F800
G1 X32.410 Y32.425 Z0.400 E28.0193 F800
G1 X32.360 Y32.430 Z0.400 E28.0203 F800
G1 X29.536 Y31.924 Z0.400 E28.0777 F800
G1 X29.519 Y31.917 Z0.400 E28.0781 F800
G1 X29.507 Y31.898 Z0.400 E28.0785 F800
G1 X27.224 Y27.285 Z0.400 E28.1815 F800
G1 X27.221 Y27.259 Z0.400 E28.1820 F800
G1 X27.244 Y27.253 Z0.400 E28.1825 F800
G1 X31.879 Y29.529 Z0.400 E28.2857 F800
G1 X31.912 Y29.557 Z0.400 E28.2866 F800
G1 X31.923 Y29.585 Z0.400 E28.2872 F800
G1 X32.393 Y32.424 Z0.400 E28.3447 F800
G1 X29.534 Y31.921 Z0.400 E28.4028 F800
G1 X29.530 Y31.913 Z0.400 E28.4030 F800
G1 X27.221 Y27.259 Z0.400 E28.5069 F800
G1 X27.252 Y27.297 Z0.400 E28.5078 F800
G1 X31.863 Y29.566 Z0.400 E28.6106 F800
G1 X31.901 Y29.589 Z0.400 E28.6115 F800
G1 X31.909 Y29.612 Z0.400 E28.6120 F800
G1 X32.163 Y32.188 Z0.400 E28.6638 F800
G1 X32.150 Y32.197 Z0.400 E28.6641 F800
G1 X29.580 Y31.904 Z0.400 E28.7158 F800
G1 X29.553 Y31.900 Z0.400 E28.7164 F800
G1 X29.537 Y31.888 Z0.400 E28.7168 F800
G1 X27.252 Y27.297 Z0.400 E28.8193 F800
G1 X27.453 Y27.539 Z0.400 E28.8256 F800
G1 X27.500 Y27.428 Z0.400 E28.8280 F800
G1 X31.861 Y29.574 Z0.400 E28.9253 F800
G1 X31.898 Y29.594 Z0.400 E28.9261 F800
G1 X32.157 Y32.174 Z0.400 E28.9780 F800
G1 X32.150 Y32.189 Z0.400 E28.9783 F800
G1 X29.578 Y31.889 Z0.400 E29.0301 F800
G1 X29.575 Y31.883 Z0.400 E29.0302 F800
G1 X27.453 Y27.539 Z0.400 E29.1269 F800
G1 X27.456 Y27.546 Z0.400 E29.1271 F800
G1 X27.484 Y27.482 Z0.400 E29.1285 F800
G1 X31.885 Y29.589 Z0.400 E29.2261 F800
G1 X32.152 Y32.144 Z0.400 E29.2774 F800
G1 X32.151 Y32.154 Z0.400 E29.2776 F800
G1 X32.139 Y32.186 Z0.400 E29.2783 F800
G1 X29.784 Y31.690 Z0.400 E29.3265 F800
G1 X27.456 Y27.546 Z0.400 E29.4215 F800
G1 X27.467 Y27.535 Z0.400 E29.4218 F800
G1 X27.466 Y27.531 Z0.400 E29.4219 F800
G1 X27.482 Y27.488 Z0.400 E29.4228 F800
G1 X27.509 Y27.500 Z0.400 E29.4234 F800
G1 X31.872 Y29.602 Z0.400 E29.5203 F800
G1 X32.135 Y32.147 Z0.400 E29.5715 F800
G1 X32.121 Y32.156 Z0.400 E29.5718 F800
G1 X29.841 Y31.700 Z0.400 E29.6183 F800
G1 X29.784 Y31.680 Z0.400 E29.6195 F800
G1 X27.467 Y27.535 Z0.400 E29.7145 F800
G1 X27.474 Y27.517 Z0.400 E29.7149 F800
G1 X27.493 Y27.498 Z0.400 E29.7154 F800
G1 X27.506 Y27.502 Z0.400 E29.7157 F800
G1 X31.868 Y29.603 Z0.400 E29.8125 F800
G1 X31.914 Y31.898 Z0.400 E29.8584 F800
G1 X31.879 Y31.947 Z0.400 E29.8596 F800
G1 X29.801 Y31.678 Z0.400 E29.9015 F800
G1 X29.773 Y31.639 Z0.400 E29.9025 F800
G1 X27.474 Y27.517 Z0.400 E29.9969 F800
G1 X27.480 Y27.521 Z0.400 E29.9971 F800
G1 X27.509 Y27.516 Z0.400 E29.9976 F800
G1 X31.864 Y29.621 Z0.400 E30.0944 F800
G1 X31.889 Y31.912 Z0.400 E30.1402 F800
G1 X31.883 Y31.916 Z0.400 E30.1403 F800
G1 X31.873 Y31.916 Z0.400 E30.1405 F800
G1 X29.815 Y31.673 Z0.400 E30.1820 F800
G1 X29.807 Y31.668 Z0.400 E30.1822 F800
G1 X29.795 Y31.653 Z0.400 E30.1826 F800
G1 X27.480 Y27.521 Z0.400 E30.2773 F800
G1 X27.481 Y27.521 Z0.400 E30.2773 F800
G1 X27.500 Y27.525 Z0.400 E30.2777 F800
G1 X31.634 Y29.784 Z0.400 E30.3719 F800
G1 X31.656 Y29.821 Z0.400 E30.3728 F800
G1 X31.874 Y31.900 Z0.400 E30.4146 F800
G1 X31.874 Y31.904 Z0.400 E30.4146 F800
G1 X31.855 Y31.912 Z0.400 E30.4151 F800
G1 X29.807 Y31.643 Z0.400 E30.4564 F800
G1 X27.481 Y27.521 Z0.400 E30.5510 F800
G1 X27.501 Y27.553 Z0.400 E30.5518 F800
G1 X27.489 Y27.523 Z0.400 E30.5524 F800
G1 X31.593 Y29.774 Z0.400 E30.6460 F800
G1 X31.634 Y29.811 Z0.400 E30.6471 F800
G1 X31.638 Y29.825 Z0.400 E30.6474 F800
G1 X31.640 Y29.835 Z0.400 E30.6476 F800
G1 X31.861 Y31.897 Z0.400 E30.6891 F800
G1 X31.846 Y31.905 Z0.400 E30.6894 F800
G1 X29.830 Y31.626 Z0.400 E30.7301 F800
G1 X29.817 Y31.611 Z0.400 E30.7305 F800
G1 X27.501 Y27.553 Z0.400 E30.8240 F800
G1 X27.511 Y27.544 Z0.400 E30.8242 F800
G1 X27.509 Y27.537 Z0.400 E30.8244 F800
G1 X31.619 Y29.807 Z0.400 E30.9183 F800
G1 X31.623 Y29.810 Z0.400 E30.9184 F800
G1 X31.639 Y29.837 Z0.400 E30.9190 F800
G1 X31.857 Y31.898 Z0.400 E30.9605 F800
G1 X30.123 Y31.450 Z0.400 E30.9963 F800
G1 X30.048 Y31.430 Z0.400 E30.9978 F800
G1 X30.016 Y31.411 Z0.400 E30.9986 F800
G1 X27.511 Y27.544 Z0.400 E31.0907 F800
G1 X27.512 Y27.540 Z0.400 E31.0908 F800
G1 X31.615 Y29.815 Z0.400 E31.1847 F800
G1 X31.630 Y29.824 Z0.400 E31.1850 F800
G1 X31.638 Y29.853 Z0.400 E31.1856 F800
G1 X31.648 Y31.657 Z0.400 E31.2217 F800
G1 X31.644 Y31.681 Z0.400 E31.2222 F800
G1 X31.609 Y31.683 Z0.400 E31.2229 F800
G1 X30.054 Y31.426 Z0.400 E31.2544 F800
G1 X30.022 Y31.405 Z0.400 E31.2551 F800
G1 X27.512 Y27.540 Z0.400 E31.3473 F800
G1 X27.720 Y27.809 Z0.400 E31.3541 F800
G1 X27.719 Y27.792 Z0.400 E31.3545 F800
G1 X27.738 Y27.733 Z0.400 E31.3557 F800
G1 X31.626 Y29.822 Z0.400 E31.4440 F800
G1 X31.629 Y29.825 Z0.400 E31.4441 F800
G1 X31.631 Y29.861 Z0.400 E31.4448 F800
G1 X31.647 Y31.661 Z0.400 E31.4808 F800
G1 X31.625 Y31.667 Z0.400 E31.4812 F800
G1 X31.605 Y31.673 Z0.400 E31.4816 F800
G1 X30.032 Y31.409 Z0.400 E31.5135 F800
G1 X27.720 Y27.809 Z0.400 E31.5991 F800
G1 X27.725 Y27.790 Z0.400 E31.5995 F800
G1 X27.737 Y27.765 Z0.400 E31.6000 F800
G1 X27.741 Y27.759 Z0.400 E31.6002 F800
G1 X27.757 Y27.751 Z0.400 E31.6005 F800
G1 X31.616 Y29.827 Z0.400 E31.6882 F800
G1 X31.629 Y29.873 Z0.400 E31.6891 F800
G1 X31.643 Y31.647 Z0.400 E31.7246 F800
G1 X31.643 Y31.657 Z0.400 E31.7248 F800
G1 X31.642 Y31.659 Z0.400 E31.7249 F800
G1 X31.627 Y31.666 Z0.400 E31.7252 F800
G1 X30.061 Y31.413 Z0.400 E31.7569 F800
G1 X30.048 Y31.411 Z0.400 E31.7572 F800
G1 X30.036 Y31.407 Z0.400 E31.7574 F800
G1 X27.725 Y27.790 Z0.400 E31.8433 F800
G1 X27.734 Y27.779 Z0.400 E31.8436 F800
G1 X27.744 Y27.769 Z0.400 E31.8438 F800
G1 X27.775 Y27.774 Z0.400 E31.8445 F800
G1 X31.600 Y29.828 Z0.400 E31.9313 F800
G1 X31.619 Y29.851 Z0.400 E31.9319 F800
G1 X31.641 Y31.659 Z0.400 E31.9681 F800
G1 X31.617 Y31.664 Z0.400 E31.9685 F800
G1 X30.092 Y31.415 Z0.400 E31.9994 F800
G1 X30.064 Y31.409 Z0.400 E32.0000 F800
G1 X30.047 Y31.405 Z0.400 E32.0004 F800
G1 X30.035 Y31.400 Z0.400 E32.0006 F800
G1 X27.734 Y27.779 Z0.400 E32.0864 F800
G1 X27.756 Y27.813 Z0.400 E32.0873 F800
G1 X27.743 Y27.783 Z0.400 E32.0879 F800
G1 X27.750 Y27.780 Z0.400 E32.0881 F800
G1 X27.766 Y27.778 Z0.400 E32.0884 F800
G1 X31.609 Y29.859 Z0.400 E32.1758 F800
G1 X31.640 Y31.644 Z0.400 E32.2115 F800
G1 X31.630 Y31.655 Z0.400 E32.2118 F800
G1 X30.054 Y31.406 Z0.400 E32.2437 F800
G1 X30.033 Y31.391 Z0.400 E32.2442 F800
G1 X30.022 Y31.376 Z0.400 E32.2446 F800
G1 X27.756 Y27.813 Z0.400 E32.3290 F800
G1 X27.757 Y27.805 Z0.400 E32.3292 F800
G1 X31.609 Y29.873 Z0.400 E32.4166 F800
G1 X31.633 Y31.647 Z0.400 E32.4521 F800
G1 X31.618 Y31.650 Z0.400 E32.4524 F800
G1 X30.094 Y31.406 Z0.400 E32.4833 F800
G1 X30.072 Y31.401 Z0.400 E32.4837 F800
G1 X30.040 Y31.391 Z0.400 E32.4844 F800
G1 X30.035 Y31.388 Z0.400 E32.4845 F800
G1 X27.757 Y27.805 Z0.400 E32.5694 F800
G1 X27.766 Y27.815 Z0.400 E32.5697 F800
G1 X31.352 Y30.046 Z0.400 E32.6542 F800
G1 X31.382 Y30.080 Z0.400 E32.6551 F800
G1 X31.626 Y31.630 Z0.400 E32.6865 F800
G1 X31.624 Y31.644 Z0.400 E32.6867 F800
G1 X31.622 Y31.648 Z0.400 E32.6868 F800
G1 X30.081 Y31.401 Z0.400 E32.7180 F800
G1 X30.035 Y31.388 Z0.400 E32.7190 F800
G1 X27.766 Y27.815 Z0.400 E32.8037 F800
G1 X27.957 Y28.043 Z0.400 E32.8096 F800
G1 X27.949 Y28.002 Z0.400 E32.8104 F800
G1 X28.022 Y28.016 Z0.400 E32.8119 F800
G1 X31.365 Y30.062 Z0.400 E32.8903 F800
G1 X31.369 Y30.067 Z0.400 E32.8904 F800
G1 X31.383 Y30.102 Z0.400 E32.8912 F800
G1 X31.385 Y30.107 Z0.400 E32.8913 F800
G1 X31.622 Y31.642 Z0.400 E32.9224 F800
G1 X30.073 Y31.395 Z0.400 E32.9537 F800
G1 X30.057 Y31.391 Z0.400 E32.9541 F800
G1 X30.042 Y31.384 Z0.400 E32.9544 F800
G1 X30.026 Y31.371 Z0.400 E32.9548 F800
G1 X27.957 Y28.043 Z0.400 E33.0332 F800
G1 X27.968 Y28.037 Z0.400 E33.0334 F800
G1 X27.976 Y28.017 Z0.400 E33.0339 F800
G1 X27.998 Y28.025 Z0.400 E33.0343 F800
G1 X28.041 Y28.039 Z0.400 E33.0352 F800
G1 X31.351 Y30.058 Z0.400 E33.1128 F800
G1 X31.380 Y30.100 Z0.400 E33.1138 F800
G1 X31.387 Y30.126 Z0.400 E33.1143 F800
G1 X31.388 Y31.427 Z0.400 E33.1404 F800
G1 X31.349 Y31.441 Z0.400 E33.1412 F800
G1 X30.091 Y31.395 Z0.400 E33.1664 F800
G1 X30.071 Y31.393 Z0.400 E33.1668 F800
G1 X30.041 Y31.383 Z0.400 E33.1674 F800
G1 X27.968 Y28.037 Z0.400 E33.2461 F800
G1 X28.026 Y28.097 Z0.400 E33.2478 F800
G1 X27.995 Y28.042 Z0.400 E33.2490 F800
G1 X28.002 Y28.031 Z0.400 E33.2493 F800
G1 X31.365 Y30.078 Z0.400 E33.3280 F800
G1 X31.380 Y30.107 Z0.400 E33.3286 F800
G1 X31.384 Y30.119 Z0.400 E33.3289 F800
G1 X31.386 Y31.393 Z0.400 E33.3544 F800
G1 X31.382 Y31.401 Z0.400 E33.3546 F800
G1 X31.365 Y31.431 Z0.400 E33.3553 F800
G1 X30.051 Y31.386 Z0.400 E33.3815 F800
G1 X30.043 Y31.375 Z0.400 E33.3818 F800
G1 X28.026 Y28.097 Z0.400 E33.4588 F800
G1 X28.018 Y28.068 Z0.400 E33.4594 F800
G1 X28.009 Y28.049 Z0.400 E33.4598 F800
G1 X31.364 Y30.081 Z0.400 E33.5383 F800
G1 X31.376 Y30.111 Z0.400 E33.5389 F800
G1 X31.381 Y30.143 Z0.400 E33.5396 F800
G1 X31.382 Y31.374 Z0.400 E33.5642 F800
G1 X31.381 Y31.396 Z0.400 E33.5646 F800
G1 X31.380 Y31.401 Z0.400 E33.5647 F800
G1 X31.373 Y31.409 Z0.400 E33.5649 F800
G1 X31.352 Y31.420 Z0.400 E33.5654 F800
G1 X30.064 Y31.386 Z0.400 E33.5912 F800
G1 X30.059 Y31.381 Z0.400 E33.5913 F800
G1 X30.048 Y31.363 Z0.400 E33.5917 F800
G1 X28.018 Y28.068 Z0.400 E33.6691 F800
G1 X28.239 Y28.326 Z0.400 E33.6759 F800
G1 X28.222 Y28.270 Z0.400 E33.6771 F800
G1 X28.233 Y28.254 Z0.400 E33.6775 F800
G1 X28.289 Y28.279 Z0.400 E33.6787 F800
G1 X31.332 Y30.065 Z0.400 E33.7493 F800
G1 X31.368 Y30.092 Z0.400 E33.7502 F800
G1 X31.375 Y30.133 Z0.400 E33.7510 F800
G1 X31.381 Y31.387 Z0.400 E33.7761 F800
G1 X31.379 Y31.398 Z0.400 E33.7763 F800
G1 X31.374 Y31.404 Z0.400 E33.7765 F800
G1 X31.364 Y31.413 Z0.400 E33.7768 F800
G1 X30.102 Y31.386 Z0.400 E33.8020 F800
G1 X30.078 Y31.385 Z0.400 E33.8025 F800
G1 X30.049 Y31.346 Z0.400 E33.8034 F800
G1 X28.239 Y28.326 Z0.400 E33.8739 F800
G1 X28.260 Y28.322 Z0.400 E33.8743 F800
G1 X28.248 Y28.297 Z0.400 E33.8748 F800
G1 X28.245 Y28.270 Z0.400 E33.8754 F800
G1 X31.326 Y30.062 Z0.400 E33.9467 F800
G1 X31.362 Y30.089 Z0.400 E33.9476 F800
G1 X31.372 Y30.123 Z0.400 E33.9483 F800
G1 X31.377 Y31.389 Z0.400 E33.9736 F800
G1 X31.376 Y31.396 Z0.400 E33.9737 F800
G1 X31.372 Y31.402 Z0.400 E33.9739 F800
G1 X31.363 Y31.411 Z0.400 E33.9741 F800
G1 X31.359 Y31.412 Z0.400 E33.9742 F800
G1 X30.107 Y31.384 Z0.400 E33.9993 F800
G1 X30.097 Y31.383 Z0.400 E33.9995 F800
G1 X30.080 Y31.362 Z0.400 E34.0000 F800
G1 X28.260 Y28.322 Z0.400 E34.0709 F800
G1 X28.251 Y28.301 Z0.400 E34.0713 F800
G1 X28.249 Y28.276 Z0.400 E34.0718 F800
G1 X31.350 Y30.090 Z0.400 E34.1437 F800
G1 X31.358 Y30.101 Z0.400 E34.1440 F800
G1 X31.364 Y30.113 Z0.400 E34.1442 F800
G1 X31.365 Y30.126 Z0.400 E34.1445 F800
G1 X31.374 Y31.348 Z0.400 E34.1689 F800
G1 X31.373 Y31.400 Z0.400 E34.1700 F800
G1 X31.364 Y31.407 Z0.400 E34.1702 F800
G1 X30.079 Y31.353 Z0.400 E34.1959 F800
G1 X28.251 Y28.301 Z0.400 E34.2671 F800
G1 X28.254 Y28.303 Z0.400 E34.2671 F800
G1 X28.251 Y28.281 Z0.400 E34.2676 F800
G1 X31.348 Y30.103 Z0.400 E34.3395 F800
G1 X31.357 Y30.117 Z0.400 E34.3398 F800
G1 X31.364 Y30.130 Z0.400 E34.3401 F800
G1 X31.371 Y31.393 Z0.400 E34.3653 F800
G1 X31.367 Y31.401 Z0.400 E34.3655 F800
G1 X30.098 Y31.345 Z0.400 E34.3909 F800
G1 X28.254 Y28.303 Z0.400 E34.4621 F800
G1 X28.252 Y28.290 Z0.400 E34.4623 F800
G1 X28.263 Y28.294 Z0.400 E34.4626 F800
G1 X31.342 Y30.102 Z0.400 E34.5340 F800
G1 X31.359 Y30.166 Z0.400 E34.5353 F800
G1 X31.368 Y31.372 Z0.400 E34.5594 F800
G1 X31.362 Y31.386 Z0.400 E34.5597 F800
G1 X31.344 Y31.382 Z0.400 E34.5601 F800
G1 X30.299 Y31.184 Z0.400 E34.5813 F800
G1 X28.252 Y28.290 Z0.400 E34.6522 F800
G1 X28.268 Y28.306 Z0.400 E34.6527 F800
G1 X28.545 Y28.497 Z0.400 E34.6594 F800
G1 X31.142 Y30.320 Z0.400 E34.7229 F800
G1 X31.361 Y31.381 Z0.400 E34.7445 F800
G1 X30.305 Y31.183 Z0.400 E34.7660 F800
G1 X30.279 Y31.154 Z0.400 E34.7668 F800
G1 X28.268 Y28.306 Z0.400 E34.8365 F800
G1 X28.303 Y28.342 Z0.400 E34.8375 F800
G1 X31.121 Y30.311 Z0.400 E34.9063 F800
G1 X31.150 Y30.367 Z0.400 E34.9076 F800
G1 X31.358 Y31.365 Z0.400 E34.9279 F800
G1 X30.349 Y31.190 Z0.400 E34.9484 F800
G1 X30.301 Y31.171 Z0.400 E34.9495 F800
G1 X28.303 Y28.342 Z0.400 E35.0187 F800
G1 X28.485 Y28.580 Z0.400 E35.0247 F800
G1 X28.475 Y28.525 Z0.400 E35.0258 F800
G1 X28.485 Y28.492 Z0.400 E35.0265 F800
G1 X28.535 Y28.513 Z0.400 E35.0276 F800
G1 X28.575 Y28.533 Z0.400 E35.0285 F800
G1 X31.133 Y30.334 Z0.400 E35.0911 F800
G1 X31.149 Y30.378 Z0.400 E35.0920 F800
G1 X31.140 Y31.157 Z0.400 E35.1076 F800
G1 X31.098 Y31.187 Z0.400 E35.1086 F800
G1 X30.336 Y31.174 Z0.400 E35.1239 F800
G1 X30.297 Y31.157 Z0.400 E35.1247 F800
G1 X28.485 Y28.580 Z0.400 E35.1877 F800
G1 X28.491 Y28.561 Z0.400 E35.1881 F800
G1 X28.487 Y28.547 Z0.400 E35.1884 F800
G1 X28.490 Y28.531 Z0.400 E35.1887 F800
G1 X28.491 Y28.530 Z0.400 E35.1888 F800
G1 X28.518 Y28.514 Z0.400 E35.1894 F800
G1 X28.526 Y28.511 Z0.400 E35.1896 F800
G1 X28.562 Y28.531 Z0.400 E35.1904 F800
G1 X31.116 Y30.326 Z0.400 E35.2528 F800
G1 X31.130 Y30.353 Z0.400 E35.2534 F800
G1 X31.135 Y30.371 Z0.400 E35.2538 F800
G1 X31.119 Y31.149 Z0.400 E35.2694 F800
G1 X31.117 Y31.158 Z0.400 E35.2696 F800
G1 X31.114 Y31.164 Z0.400 E35.2697 F800
G1 X31.101 Y31.177 Z0.400 E35.2701 F800
G1 X30.335 Y31.162 Z0.400 E35.2854 F800
G1 X30.295 Y31.151 Z0.400 E35.2862 F800
G1 X28.491 Y28.561 Z0.400 E35.3493 F800
G1 X28.490 Y28.548 Z0.400 E35.3496 F800
G1 X28.492 Y28.529 Z0.400 E35.3500 F800
G1 X28.514 Y28.517 Z0.400 E35.3505 F800
G1 X28.521 Y28.515 Z0.400 E35.3506 F800
G1 X28.531 Y28.519 Z0.400 E35.3508 F800
G1 X31.076 Y30.303 Z0.400 E35.4130 F800
G1 X31.104 Y30.325 Z0.400 E35.4137 F800
G1 X31.120 Y30.347 Z0.400 E35.4142 F800
G1 X31.124 Y30.352 Z0.400 E35.4144 F800
G1 X31.130 Y30.404 Z0.400 E35.4154 F800
G1 X31.120 Y31.090 Z0.400 E35.4291 F800
G1 X31.118 Y31.140 Z0.400 E35.4301 F800
G1 X31.117 Y31.149 Z0.400 E35.4303 F800
G1 X31.115 Y31.157 Z0.400 E35.4305 F800
G1 X31.045 Y31.165 Z0.400 E35.4319 F800
G1 X30.356 Y31.161 Z0.400 E35.4457 F800
G1 X30.330 Y31.158 Z0.400 E35.4462 F800
G1 X30.316 Y31.150 Z0.400 E35.4465 F800
G1 X30.299 Y31.140 Z0.400 E35.4469 F800
G1 X30.291 Y31.135 Z0.400 E35.4471 F800
G1 X28.490 Y28.548 Z0.400 E35.5101 F800
G1 X28.506 Y28.567 Z0.400 E35.5106 F800
G1 X28.500 Y28.555 Z0.400 E35.5109 F800
G1 X28.497 Y28.549 Z0.400 E35.5111 F800
G1 X28.510 Y28.527 Z0.400 E35.5116 F800
G1 X28.538 Y28.531 Z0.400 E35.5121 F800
G1 X28.543 Y28.532 Z0.400 E35.5122 F800
G1 X31.090 Y30.319 Z0.400 E35.5744 F800
G1 X31.112 Y30.336 Z0.400 E35.5750 F800
G1 X31.123 Y30.362 Z0.400 E35.5756 F800
G1 X31.118 Y31.116 Z0.400 E35.5906 F800
G1 X31.117 Y31.127 Z0.400 E35.5909 F800
G1 X31.114 Y31.145 Z0.400 E35.5912 F800
G1 X31.111 Y31.149 Z0.400 E35.5913 F800
G1 X31.105 Y31.152 Z0.400 E35.5915 F800
G1 X31.091 Y31.155 Z0.400 E35.5918 F800
G1 X30.354 Y31.152 Z0.400 E35.6065 F800
G1 X30.329 Y31.146 Z0.400 E35.6070 F800
G1 X30.307 Y31.138 Z0.400 E35.6075 F800
G1 X30.280 Y31.111 Z0.400 E35.6082 F800
G1 X28.506 Y28.567 Z0.400 E35.6703 F800
G1 X28.510 Y28.571 Z0.400 E35.6704 F800
G1 X28.519 Y28.536 Z0.400 E35.6711 F800
G1 X28.536 Y28.532 Z0.400 E35.6714 F800
G1 X28.548 Y28.538 Z0.400 E35.6717 F800
G1 X31.095 Y30.325 Z0.400 E35.7339 F800
G1 X31.116 Y30.349 Z0.400 E35.7345 F800
G1 X31.122 Y30.369 Z0.400 E35.7350 F800
G1 X31.114 Y31.136 Z0.400 E35.7503 F800
G1 X31.109 Y31.145 Z0.400 E35.7505 F800
G1 X31.101 Y31.146 Z0.400 E35.7507 F800
G1 X30.343 Y31.147 Z0.400 E35.7658 F800
G1 X30.337 Y31.145 Z0.400 E35.7660 F800
G1 X30.312 Y31.134 Z0.400 E35.7665 F800
G1 X30.293 Y31.123 Z0.400 E35.7669 F800
G1 X28.510 Y28.571 Z0.400 E35.8292 F800
G1 X28.517 Y28.580 Z0.400 E35.8294 F800
G1 X28.513 Y28.567 Z0.400 E35.8297 F800
G1 X28.522 Y28.538 Z0.400 E35.8303 F800
G1 X28.535 Y28.534 Z0.400 E35.8306 F800
G1 X28.539 Y28.536 Z0.400 E35.8307 F800
G1 X31.100 Y30.338 Z0.400 E35.8933 F800
G1 X31.117 Y30.355 Z0.400 E35.8938 F800
G1 X31.120 Y30.384 Z0.400 E35.8944 F800
G1 X31.114 Y31.122 Z0.400 E35.9091 F800
G1 X31.111 Y31.140 Z0.400 E35.9095 F800
G1 X31.109 Y31.142 Z0.400 E35.9096 F800
G1 X30.341 Y31.137 Z0.400 E35.9249 F800
G1 X30.321 Y31.135 Z0.400 E35.9253 F800
G1 X30.313 Y31.132 Z0.400 E35.9255 F800
G1 X28.517 Y28.580 Z0.400 E35.9879 F800
G1 X28.524 Y28.571 Z0.400 E35.9881 F800
G1 X28.520 Y28.560 Z0.400 E35.9884 F800
G1 X28.531 Y28.539 Z0.400 E35.9889 F800
G1 X31.105 Y30.345 Z0.400 E36.0517 F800
G1 X31.114 Y30.357 Z0.400 E36.0520 F800
G1 X31.117 Y30.364 Z0.400 E36.0522 F800
G1 X31.119 Y30.381 Z0.400 E36.0525 F800
G1 X31.112 Y31.134 Z0.400 E36.0676 F800
G1 X31.108 Y31.138 Z0.400 E36.0677 F800
G1 X31.097 Y31.141 Z0.400 E36.0679 F800
G1 X30.355 Y31.134 Z0.400 E36.0828 F800
G1 X30.315 Y31.127 Z0.400 E36.0836 F800
G1 X28.524 Y28.571 Z0.400 E36.1460 F800
G1 X28.520 Y28.560 Z0.400 E36.1462 F800
G1 X28.532 Y28.544 Z0.400 E36.1466 F800
G1 X28.537 Y28.544 Z0.400 E36.1467 F800
G1 X28.544 Y28.549 Z0.400 E36.1469 F800
G1 X28.568 Y28.565 Z0.400 E36.1475 F800
G1 X31.101 Y30.343 Z0.400 E36.2094 F800
G1 X31.115 Y30.360 Z0.400 E36.2098 F800
G1 X31.117 Y30.371 Z0.400 E36.2100 F800
G1 X31.111 Y31.109 Z0.400 E36.2248 F800
G1 X31.109 Y31.130 Z0.400 E36.2252 F800
G1 X31.108 Y31.133 Z0.400 E36.2253 F800
G1 X31.103 Y31.138 Z0.400 E36.2254 F800
G1 X31.091 Y31.140 Z0.400 E36.2257 F800
G1 X30.350 Y31.132 Z0.400 E36.2405 F800
G1 X30.326 Y31.129 Z0.400 E36.2410 F800
G1 X30.315 Y31.125 Z0.400 E36.2412 F800
G1 X28.520 Y28.560 Z0.400 E36.3038 F800
G1 X28.535 Y28.559 Z0.400 E36.3041 F800
G1 X28.575 Y28.572 Z0.400 E36.3050 F800
G1 X31.090 Y30.336 Z0.400 E36.3664 F800
G1 X31.102 Y30.345 Z0.400 E36.3667 F800
G1 X31.108 Y30.353 Z0.400 E36.3669 F800
G1 X31.110 Y30.357 Z0.400 E36.3670 F800
G1 X31.116 Y30.371 Z0.400 E36.3673 F800
G1 X31.110 Y31.121 Z0.400 E36.3823 F800
G1 X31.105 Y31.130 Z0.400 E36.3825 F800
G1 X31.103 Y31.133 Z0.400 E36.3826 F800
G1 X31.087 Y31.135 Z0.400 E36.3829 F800
G1 X30.348 Y31.130 Z0.400 E36.3977 F800
G1 X30.312 Y31.118 Z0.400 E36.3984 F800
G1 X28.535 Y28.559 Z0.400 E36.4608 F800
G1 X28.749 Y28.839 Z0.400 E36.4678 F800
G1 X28.749 Y28.822 Z0.400 E36.4681 F800
G1 X28.750 Y28.805 Z0.400 E36.4685 F800
G1 X28.779 Y28.766 Z0.400 E36.4694 F800
G1 X28.794 Y28.746 Z0.400 E36.4699 F800
G1 X31.089 Y30.339 Z0.400 E36.5258 F800
G1 X31.098 Y30.345 Z0.400 E36.5260 F800
G1 X31.112 Y30.360 Z0.400 E36.5264 F800
G1 X31.113 Y30.369 Z0.400 E36.5266 F800
G1 X31.115 Y30.394 Z0.400 E36.5271 F800
G1 X31.105 Y31.126 Z0.400 E36.5418 F800
G1 X31.100 Y31.130 Z0.400 E36.5419 F800
G1 X31.093 Y31.134 Z0.400 E36.5420 F800
G1 X30.358 Y31.129 Z0.400 E36.5568 F800
G1 X30.330 Y31.121 Z0.400 E36.5573 F800
G1 X28.749 Y28.839 Z0.400 E36.6129 F800
G1 X28.775 Y28.841 Z0.400 E36.6134 F800
G1 X28.768 Y28.793 Z0.400 E36.6143 F800
G1 X28.786 Y28.774 Z0.400 E36.6149 F800
G1 X31.098 Y30.347 Z0.400 E36.6708 F800
G1 X31.109 Y30.358 Z0.400 E36.6711 F800
G1 X31.111 Y30.363 Z0.400 E36.6712 F800
G1 X31.103 Y31.086 Z0.400 E36.6857 F800
G1 X31.098 Y31.127 Z0.400 E36.6865 F800
G1 X31.060 Y31.132 Z0.400 E36.6873 F800
G1 X30.342 Y31.121 Z0.400 E36.7016 F800
G1 X30.328 Y31.115 Z0.400 E36.7019 F800
G1 X28.775 Y28.841 Z0.400 E36.7570 F800
G1 X28.783 Y28.837 Z0.400 E36.7572 F800
G1 X28.778 Y28.817 Z0.400 E36.7576 F800
G1 X28.775 Y28.801 Z0.400 E36.7579 F800
G1 X28.775 Y28.798 Z0.400 E36.7580 F800
G1 X28.776 Y28.795 Z0.400 E36.7581 F800
G1 X28.792 Y28.779 Z0.400 E36.7585 F800
G1 X31.092 Y30.345 Z0.400 E36.8141 F800
G1 X31.110 Y30.362 Z0.400 E36.8146 F800
G1 X31.099 Y31.116 Z0.400 E36.8297 F800
G1 X31.094 Y31.126 Z0.400 E36.8300 F800
G1 X31.060 Y31.127 Z0.400 E36.8306 F800
G1 X30.336 Y31.117 Z0.400 E36.8451 F800
G1 X28.783 Y28.837 Z0.400 E36.9003 F800
G1 X28.781 Y28.825 Z0.400 E36.9005 F800
G1 X28.781 Y28.795 Z0.400 E36.9011 F800
G1 X28.785 Y28.791 Z0.400 E36.9012 F800
G1 X28.824 Y28.810 Z0.400 E36.9021 F800
G1 X31.098 Y30.356 Z0.400 E36.9571 F800
G1 X31.103 Y30.362 Z0.400 E36.9573 F800
G1 X31.108 Y30.369 Z0.400 E36.9574 F800
G1 X31.108 Y30.374 Z0.400 E36.9575 F800
G1 X31.095 Y31.122 Z0.400 E36.9725 F800
G1 X31.086 Y31.125 Z0.400 E36.9727 F800
G1 X30.357 Y31.112 Z0.400 E36.9873 F800
G1 X30.343 Y31.108 Z0.400 E36.9876 F800
G1 X30.331 Y31.097 Z0.400 E36.9879 F800
G1 X28.781 Y28.825 Z0.400 E37.0429 F800
G1 X28.793 Y28.841 Z0.400 E37.0433 F800
G1 X28.788 Y28.827 Z0.400 E37.0436 F800
G1 X28.782 Y28.799 Z0.400 E37.0441 F800
G1 X28.792 Y28.797 Z0.400 E37.0444 F800
G1 X31.082 Y30.346 Z0.400 E37.0996 F800
G1 X31.103 Y30.365 Z0.400 E37.1002 F800
G1 X31.107 Y30.369 Z0.400 E37.1003 F800
G1 X31.108 Y30.377 Z0.400 E37.1005 F800
G1 X31.093 Y31.096 Z0.400 E37.1149 F800
G1 X31.075 Y31.110 Z0.400 E37.1153 F800
G1 X31.063 Y31.117 Z0.400 E37.1156 F800
G1 X30.340 Y31.095 Z0.400 E37.1301 F800
G1 X28.793 Y28.841 Z0.400 E37.1848 F800
G1 X28.793 Y28.837 Z0.400 E37.1848 F800
G1 X28.785 Y28.805 Z0.400 E37.1855 F800
G1 X28.802 Y28.813 Z0.400 E37.1859 F800
G1 X28.820 Y28.825 Z0.400 E37.1863 F800
G1 X31.098 Y30.360 Z0.400 E37.2412 F800
G1 X31.105 Y30.391 Z0.400 E37.2419 F800
G1 X31.079 Y31.107 Z0.400 E37.2562 F800
G1 X31.077 Y31.107 Z0.400 E37.2562 F800
G1 X30.335 Y31.057 Z0.400 E37.2711 F800
G1 X28.793 Y28.837 Z0.400 E37.3251 F800
G1 X28.989 Y29.082 Z0.400 E37.3314 F800
G1 X28.794 Y28.839 Z0.400 E37.3376 F800
G1 X28.792 Y28.828 Z0.400 E37.3378 F800
G1 X28.791 Y28.823 Z0.400 E37.3379 F800
G1 X28.797 Y28.820 Z0.400 E37.3381 F800
G1 X31.082 Y30.350 Z0.400 E37.3931 F800
G1 X31.093 Y30.359 Z0.400 E37.3934 F800
G1 X31.099 Y30.376 Z0.400 E37.3937 F800
G1 X31.103 Y30.404 Z0.400 E37.3943 F800
G1 X30.911 Y30.892 Z0.400 E37.4048 F800
G1 X30.837 Y30.921 Z0.400 E37.4064 F800
G1 X30.597 Y30.910 Z0.400 E37.4112 F800
G1 X30.538 Y30.897 Z0.400 E37.4124 F800
G1 X30.522 Y30.891 Z0.400 E37.4127 F800
G1 X28.989 Y29.082 Z0.400 E37.4602 F800
G1 X29.014 Y29.096 Z0.400 E37.4607 F800
G1 X28.800 Y28.837 Z0.400 E37.4675 F800
G1 X28.801 Y28.830 Z0.400 E37.4676 F800
G1 X29.077 Y29.011 Z0.400 E37.4742 F800
G1 X31.097 Y30.372 Z0.400 E37.5229 F800
G1 X31.098 Y30.377 Z0.400 E37.5230 F800
G1 X30.876 Y30.895 Z0.400 E37.5343 F800
G1 X30.867 Y30.908 Z0.400 E37.5346 F800
G1 X30.824 Y30.913 Z0.400 E37.5355 F800
G1 X30.600 Y30.908 Z0.400 E37.5400 F800
G1 X30.560 Y30.901 Z0.400 E37.5408 F800
G1 X30.530 Y30.866 Z0.400 E37.5417 F800
G1 X29.014 Y29.096 Z0.400 E37.5883 F800
G1 X29.241 Y29.359 Z0.400 E37.5952 F800
G1 X28.805 Y28.842 Z0.400 E37.6087 F800
G1 X29.076 Y29.021 Z0.400 E37.6152 F800
G1 X31.072 Y30.358 Z0.400 E37.6633 F800
G1 X31.087 Y30.380 Z0.400 E37.6638 F800
G1 X31.086 Y30.389 Z0.400 E37.6640 F800
G1 X30.870 Y30.901 Z0.400 E37.6751 F800
G1 X30.858 Y30.909 Z0.400 E37.6754 F800
G1 X30.827 Y30.911 Z0.400 E37.6760 F800
G1 X30.619 Y30.907 Z0.400 E37.6802 F800
G1 X30.581 Y30.904 Z0.400 E37.6810 F800
G1 X30.569 Y30.899 Z0.400 E37.6812 F800
G1 X30.555 Y30.890 Z0.400 E37.6815 F800
G1 X29.241 Y29.359 Z0.400 E37.7219 F800
G1 X29.017 Y29.092 Z0.400 E37.7289 F800
G1 X29.008 Y29.080 Z0.400 E37.7292 F800
G1 X29.003 Y29.060 Z0.400 E37.7296 F800
G1 X29.002 Y29.042 Z0.400 E37.7300 F800
G1 X29.009 Y29.015 Z0.400 E37.7305 F800
G1 X29.042 Y29.014 Z0.400 E37.7312 F800
G1 X29.086 Y29.032 Z0.400 E37.7321 F800
G1 X31.062 Y30.355 Z0.400 E37.7797 F800
G1 X31.084 Y30.384 Z0.400 E37.7804 F800
G1 X31.083 Y30.393 Z0.400 E37.7806 F800
G1 X30.885 Y30.858 Z0.400 E37.7907 F800
G1 X30.869 Y30.896 Z0.400 E37.7915 F800
G1 X30.841 Y30.906 Z0.400 E37.7921 F800
G1 X30.598 Y30.904 Z0.400 E37.7970 F800
G1 X30.559 Y30.884 Z0.400 E37.7978 F800
G1 X29.017 Y29.092 Z0.400 E37.8451 F800
G1 X29.246 Y29.358 Z0.400 E37.8521 F800
G1 X29.033 Y29.102 Z0.400 E37.8588 F800
G1 X29.024 Y29.088 Z0.400 E37.8591 F800
G1 X29.003 Y29.054 Z0.400 E37.8599 F800
G1 X29.008 Y29.038 Z0.400 E37.8603 F800
G1 X29.020 Y29.029 Z0.400 E37.8606 F800
G1 X29.051 Y29.024 Z0.400 E37.8612 F800
G1 X31.066 Y30.370 Z0.400 E37.9097 F800
G1 X31.082 Y30.385 Z0.400 E37.9101 F800
G1 X31.078 Y30.395 Z0.400 E37.9103 F800
G1 X30.877 Y30.876 Z0.400 E37.9207 F800
G1 X30.873 Y30.884 Z0.400 E37.9209 F800
G1 X30.865 Y30.896 Z0.400 E37.9212 F800
G1 X30.849 Y30.903 Z0.400 E37.9216 F800
G1 X30.827 Y30.905 Z0.400 E37.9220 F800
G1 X30.606 Y30.899 Z0.400 E37.9264 F800
G1 X30.577 Y30.891 Z0.400 E37.9270 F800
G1 X30.572 Y30.887 Z0.400 E37.9272 F800
G1 X30.548 Y30.868 Z0.400 E37.9278 F800
G1 X29.246 Y29.358 Z0.400 E37.9676 F800
G1 X29.246 Y29.351 Z0.400 E37.9678 F800
G1 X29.036 Y29.097 Z0.400 E37.9744 F800
G1 X29.018 Y29.074 Z0.400 E37.9750 F800
G1 X29.009 Y29.061 Z0.400 E37.9753 F800
G1 X29.015 Y29.045 Z0.400 E37.9756 F800
G1 X29.043 Y29.029 Z0.400 E37.9763 F800
G1 X29.055 Y29.028 Z0.400 E37.9765 F800
G1 X31.049 Y30.405 Z0.400 E38.0250 F800
G1 X31.055 Y30.411 Z0.400 E38.0252 F800
G1 X30.875 Y30.877 Z0.400 E38.0351 F800
G1 X30.871 Y30.886 Z0.400 E38.0353 F800
G1 X30.868 Y30.892 Z0.400 E38.0355 F800
G1 X30.854 Y30.900 Z0.400 E38.0358 F800
G1 X30.845 Y30.901 Z0.400 E38.0360 F800
G1 X30.839 Y30.901 Z0.400 E38.0361 F800
G1 X30.601 Y30.897 Z0.400 E38.0409 F800
G1 X30.594 Y30.896 Z0.400 E38.0410 F800
G1 X30.584 Y30.892 Z0.400 E38.0412 F800
G1 X30.575 Y30.888 Z0.400 E38.0414 F800
G1 X30.563 Y30.879 Z0.400 E38.0417 F800
G1 X30.546 Y30.862 Z0.400 E38.0422 F800
G1 X30.537 Y30.853 Z0.400 E38.0424 F800
G1 X29.246 Y29.351 Z0.400 E38.0821 F800
G1 X29.260 Y29.350 Z0.400 E38.0823 F800
G1 X29.038 Y29.084 Z0.400 E38.0893 F800
G1 X29.016 Y29.057 Z0.400 E38.0900 F800
G1 X29.020 Y29.046 Z0.400 E38.0902 F800
G1 X29.056 Y29.034 Z0.400 E38.0910 F800
G1 X29.072 Y29.042 Z0.400 E38.0913 F800
G1 X30.861 Y30.552 Z0.400 E38.1381 F800
G1 X30.900 Y30.619 Z0.400 E38.1397 F800
G1 X30.874 Y30.877 Z0.400 E38.1449 F800
G1 X30.855 Y30.897 Z0.400 E38.1454 F800
G1 X30.812 Y30.899 Z0.400 E38.1463 F800
G1 X30.608 Y30.893 Z0.400 E38.1504 F800
G1 X30.603 Y30.893 Z0.400 E38.1505 F800
G1 X30.591 Y30.892 Z0.400 E38.1507 F800
G1 X30.562 Y30.876 Z0.400 E38.1514 F800
G1 X30.546 Y30.862 Z0.400 E38.1518 F800
G1 X29.260 Y29.350 Z0.400 E38.1915 F800
G1 X29.058 Y29.099 Z0.400 E38.1980 F800
G1 X29.021 Y29.052 Z0.400 E38.1991 F800
G1 X29.021 Y29.050 Z0.400 E38.1992 F800
G1 X29.026 Y29.048 Z0.400 E38.1993 F800
G1 X29.043 Y29.045 Z0.400 E38.1996 F800
G1 X29.062 Y29.047 Z0.400 E38.2000 F800
G1 X30.858 Y30.565 Z0.400 E38.2471 F800
G1 X30.868 Y30.581 Z0.400 E38.2474 F800
G1 X30.886 Y30.624 Z0.400 E38.2484 F800
G1 X30.873 Y30.848 Z0.400 E38.2528 F800
G1 X30.865 Y30.876 Z0.400 E38.2534 F800
G1 X30.859 Y30.891 Z0.400 E38.2538 F800
G1 X30.830 Y30.896 Z0.400 E38.2544 F800
G1 X30.801 Y30.898 Z0.400 E38.2549 F800
G1 X30.618 Y30.894 Z0.400 E38.2586 F800
G1 X30.596 Y30.891 Z0.400 E38.2590 F800
G1 X30.591 Y30.890 Z0.400 E38.2591 F800
G1 X30.568 Y30.877 Z0.400 E38.2597 F800
G1 X30.544 Y30.850 Z0.400 E38.2604 F800
G1 X29.058 Y29.099 Z0.400 E38.3063 F800
G1 X29.252 Y29.327 Z0.400 E38.3123 F800
G1 X29.049 Y29.085 Z0.400 E38.3186 F800
G1 X29.044 Y29.079 Z0.400 E38.3188 F800
G1 X29.031 Y29.060 Z0.400 E38.3193 F800
G1 X29.031 Y29.048 Z0.400 E38.3195 F800
G1 X29.064 Y29.049 Z0.400 E38.3202 F800
G1 X30.852 Y30.566 Z0.400 E38.3671 F800
G1 X30.878 Y30.633 Z0.400 E38.3685 F800
G1 X30.878 Y30.645 Z0.400 E38.3687 F800
G1 X30.871 Y30.824 Z0.400 E38.3723 F800
G1 X30.861 Y30.887 Z0.400 E38.3736 F800
G1 X30.851 Y30.892 Z0.400 E38.3738 F800
G1 X30.846 Y30.894 Z0.400 E38.3739 F800
G1 X30.831 Y30.895 Z0.400 E38.3742 F800
G1 X30.608 Y30.891 Z0.400 E38.3787 F800
G1 X30.595 Y30.889 Z0.400 E38.3789 F800
G1 X30.569 Y30.874 Z0.400 E38.3795 F800
G1 X30.560 Y30.866 Z0.400 E38.3798 F800
G1 X30.558 Y30.864 Z0.400 E38.3798 F800
G1 X29.252 Y29.327 Z0.400 E38.4202 F800
G1 X29.262 Y29.337 Z0.400 E38.4205 F800
G1 X29.070 Y29.106 Z0.400 E38.4265 F800
G1 X29.035 Y29.063 Z0.400 E38.4276 F800
G1 X29.034 Y29.057 Z0.400 E38.4277 F800
G1 X29.035 Y29.054 Z0.400 E38.4278 F800
G1 X29.041 Y29.051 Z0.400 E38.4279 F800
G1 X29.064 Y29.052 Z0.400 E38.4284 F800
G1 X30.833 Y30.551 Z0.400 E38.4748 F800
G1 X30.854 Y30.584 Z0.400 E38.4755 F800
G1 X30.870 Y30.612 Z0.400 E38.4762 F800
G1 X30.875 Y30.628 Z0.400 E38.4765 F800
G1 X30.862 Y30.862 Z0.400 E38.4812 F800
G1 X30.859 Y30.879 Z0.400 E38.4815 F800
G1 X30.859 Y30.881 Z0.400 E38.4816 F800
G1 X30.853 Y30.890 Z0.400 E38.4818 F800
G1 X30.808 Y30.894 Z0.400 E38.4827 F800
G1 X30.604 Y30.890 Z0.400 E38.4868 F800
G1 X30.587 Y30.884 Z0.400 E38.4871 F800
G1 X30.571 Y30.876 Z0.400 E38.4875 F800
G1 X30.546 Y30.850 Z0.400 E38.4882 F800
G1 X29.262 Y29.337 Z0.400 E38.5279 F800
G1 X29.255 Y29.326 Z0.400 E38.5281 F800
G1 X29.041 Y29.070 Z0.400 E38.5348 F800
G1 X29.047 Y29.057 Z0.400 E38.5351 F800
G1 X29.055 Y29.057 Z0.400 E38.5353 F800
G1 X29.341 Y29.292 Z0.400 E38.5427 F800
G1 X30.847 Y30.575 Z0.400 E38.5822 F800
G1 X30.856 Y30.590 Z0.400 E38.5826 F800
G1 X30.863 Y30.612 Z0.400 E38.5831 F800
G1 X30.868 Y30.641 Z0.400 E38.5836 F800
G1 X30.858 Y30.873 Z0.400 E38.5883 F800
G1 X30.852 Y30.888 Z0.400 E38.5886 F800
G1 X30.848 Y30.890 Z0.400 E38.5887 F800
G1 X30.608 Y30.889 Z0.400 E38.5935 F800
G1 X30.582 Y30.881 Z0.400 E38.5940 F800
G1 X30.548 Y30.845 Z0.400 E38.5950 F800
G1 X29.255 Y29.326 Z0.400 E38.6349 F800
G1 X29.495 Y29.606 Z0.400 E38.6423 F800
G1 X29.244 Y29.311 Z0.400 E38.6500 F800
G1 X29.045 Y29.073 Z0.400 E38.6562 F800
G1 X29.047 Y29.065 Z0.400 E38.6564 F800
G1 X29.055 Y29.058 Z0.400 E38.6566 F800
G1 X29.322 Y29.280 Z0.400 E38.6636 F800
G1 X30.850 Y30.592 Z0.400 E38.7038 F800
G1 X30.857 Y30.600 Z0.400 E38.7041 F800
G1 X30.859 Y30.603 Z0.400 E38.7041 F800
G1 X30.863 Y30.622 Z0.400 E38.7045 F800
G1 X30.866 Y30.641 Z0.400 E38.7049 F800
G1 X30.854 Y30.875 Z0.400 E38.7096 F800
G1 X30.852 Y30.879 Z0.400 E38.7097 F800
G1 X30.848 Y30.884 Z0.400 E38.7098 F800
G1 X30.845 Y30.888 Z0.400 E38.7099 F800
G1 X30.615 Y30.889 Z0.400 E38.7145 F800
G1 X30.601 Y30.885 Z0.400 E38.7148 F800
G1 X30.583 Y30.878 Z0.400 E38.7152 F800
G1 X30.576 Y30.869 Z0.400 E38.7154 F800
G1 X30.561 Y30.852 Z0.400 E38.7158 F800
G1 X29.495 Y29.606 Z0.400 E38.7486 F800
G1 X29.059 Y29.088 Z0.400 E38.7622 F800
G1 X29.053 Y29.072 Z0.400 E38.7625 F800
G1 X29.055 Y29.061 Z0.400 E38.7627 F800
G1 X29.066 Y29.068 Z0.400 E38.7630 F800
G1 X29.311 Y29.276 Z0.400 E38.7694 F800
G1 X30.846 Y30.589 Z0.400 E38.8098 F800
G1 X30.857 Y30.602 Z0.400 E38.8102 F800
G1 X30.863 Y30.625 Z0.400 E38.8106 F800
G1 X30.865 Y30.635 Z0.400 E38.8108 F800
G1 X30.854 Y30.860 Z0.400 E38.8154 F800
G1 X30.851 Y30.879 Z0.400 E38.8157 F800
G1 X30.845 Y30.884 Z0.400 E38.8159 F800
G1 X30.609 Y30.887 Z0.400 E38.8206 F800
G1 X30.606 Y30.886 Z0.400 E38.8207 F800
G1 X30.597 Y30.882 Z0.400 E38.8209 F800
G1 X30.590 Y30.876 Z0.400 E38.8211 F800
G1 X30.576 Y30.861 Z0.400 E38.8215 F800
G1 X29.059 Y29.088 Z0.400 E38.8681 F800
G1 X29.070 Y29.099 Z0.400 E38.8685 F800
G1 X29.062 Y29.086 Z0.400 E38.8688 F800
G1 X29.057 Y29.078 Z0.400 E38.8690 F800
G1 X29.053 Y29.071 Z0.400 E38.8691 F800
G1 X29.060 Y29.072 Z0.400 E38.8693 F800
G1 X29.090 Y29.089 Z0.400 E38.8700 F800
G1 X30.849 Y30.592 Z0.400 E38.9162 F800
G1 X30.853 Y30.598 Z0.400 E38.9164 F800
G1 X30.862 Y30.622 Z0.400 E38.9169 F800
G1 X30.863 Y30.634 Z0.400 E38.9171 F800
G1 X30.852 Y30.854 Z0.400 E38.9215 F800
G1 X30.846 Y30.867 Z0.400 E38.9218 F800
G1 X30.839 Y30.874 Z0.400 E38.9220 F800
G1 X30.796 Y30.884 Z0.400 E38.9229 F800
G1 X30.636 Y30.885 Z0.400 E38.9261 F800
G1 X30.609 Y30.885 Z0.400 E38.9266 F800
G1 X30.600 Y30.883 Z0.400 E38.9268 F800
G1 X30.595 Y30.880 Z0.400 E38.9269 F800
G1 X30.586 Y30.872 Z0.400 E38.9272 F800
G1 X29.070 Y29.099 Z0.400 E38.9738 F800
G1 X29.277 Y29.340 Z0.400 E38.9802 F800
G1 X29.059 Y29.082 Z0.400 E38.9869 F800
G1 X29.053 Y29.071 Z0.400 E38.9872 F800
G1 X29.059 Y29.073 Z0.400 E38.9873 F800
G1 X29.321 Y29.289 Z0.400 E38.9941 F800
G1 X30.845 Y30.592 Z0.400 E39.0342 F800
G1 X30.849 Y30.596 Z0.400 E39.0343 F800
G1 X30.857 Y30.611 Z0.400 E39.0347 F800
G1 X30.861 Y30.621 Z0.400 E39.0349 F800
G1 X30.862 Y30.632 Z0.400 E39.0351 F800
G1 X30.851 Y30.835 Z0.400 E39.0392 F800
G1 X30.848 Y30.855 Z0.400 E39.0396 F800
G1 X30.844 Y30.868 Z0.400 E39.0398 F800
G1 X30.839 Y30.870 Z0.400 E39.0400 F800
G1 X30.824 Y30.876 Z0.400 E39.0403 F800
G1 X30.623 Y30.885 Z0.400 E39.0443 F800
G1 X30.597 Y30.881 Z0.400 E39.0448 F800
G1 X30.593 Y30.877 Z0.400 E39.0449 F800
G1 X30.581 Y30.864 Z0.400 E39.0453 F800
G1 X29.277 Y29.340 Z0.400 E39.0854 F800
G1 X29.276 Y29.339 Z0.400 E39.0854 F800
G1 X29.070 Y29.092 Z0.400 E39.0919 F800
G1 X29.067 Y29.087 Z0.400 E39.0920 F800
G1 X29.062 Y29.077 Z0.400 E39.0922 F800
G1 X29.065 Y29.079 Z0.400 E39.0923 F800
G1 X29.307 Y29.279 Z0.400 E39.0986 F800
G1 X30.842 Y30.592 Z0.400 E39.1389 F800
G1 X30.848 Y30.597 Z0.400 E39.1391 F800
G1 X30.855 Y30.611 Z0.400 E39.1394 F800
G1 X30.860 Y30.622 Z0.400 E39.1397 F800
G1 X30.861 Y30.637 Z0.400 E39.1400 F800
G1 X30.848 Y30.853 Z0.400 E39.1443 F800
G1 X30.838 Y30.869 Z0.400 E39.1447 F800
G1 X30.834 Y30.872 Z0.400 E39.1448 F800
G1 X30.617 Y30.883 Z0.400 E39.1491 F800
G1 X30.606 Y30.882 Z0.400 E39.1494 F800
G1 X30.601 Y30.881 Z0.400 E39.1495 F800
G1 X30.595 Y30.877 Z0.400 E39.1496 F800
G1 X30.577 Y30.857 Z0.400 E39.1501 F800
G1 X29.276 Y29.339 Z0.400 E39.1901 F800
G1 X29.274 Y29.335 Z0.400 E39.1902 F800
G1 X29.255 Y29.308 Z0.400 E39.1909 F800
G1 X29.251 Y29.301 Z0.400 E39.1910 F800
G1 X29.251 Y29.289 Z0.400 E39.1913 F800
G1 X29.262 Y29.283 Z0.400 E39.1915 F800
G1 X29.303 Y29.280 Z0.400 E39.1923 F800
G1 X29.324 Y29.294 Z0.400 E39.1928 F800
G1 X30.838 Y30.592 Z0.400 E39.2327 F800
G1 X30.858 Y30.621 Z0.400 E39.2334 F800
G1 X30.861 Y30.629 Z0.400 E39.2336 F800
G1 X30.860 Y30.655 Z0.400 E39.2341 F800
G1 X30.849 Y30.832 Z0.400 E39.2377 F800
G1 X30.847 Y30.846 Z0.400 E39.2380 F800
G1 X30.841 Y30.862 Z0.400 E39.2383 F800
G1 X30.835 Y30.869 Z0.400 E39.2385 F800
G1 X30.817 Y30.872 Z0.400 E39.2388 F800
G1 X30.616 Y30.881 Z0.400 E39.2429 F800
G1 X30.608 Y30.880 Z0.400 E39.2430 F800
G1 X30.593 Y30.872 Z0.400 E39.2434 F800
G1 X30.573 Y30.852 Z0.400 E39.2439 F800
G1 X29.274 Y29.335 Z0.400 E39.2839 F800
G1 X29.289 Y29.354 Z0.400 E39.2844 F800
G1 X29.283 Y29.345 Z0.400 E39.2846 F800
G1 X29.265 Y29.316 Z0.400 E39.2852 F800
G1 X29.263 Y29.310 Z0.400 E39.2854 F800
G1 X29.277 Y29.282 Z0.400 E39.2860 F800
G1 X29.308 Y29.287 Z0.400 E39.2866 F800
G1 X29.334 Y29.308 Z0.400 E39.2873 F800
G1 X30.809 Y30.571 Z0.400 E39.3261 F800
G1 X30.847 Y30.606 Z0.400 E39.3272 F800
G1 X30.857 Y30.619 Z0.400 E39.3275 F800
G1 X30.859 Y30.625 Z0.400 E39.3276 F800
G1 X30.859 Y30.637 Z0.400 E39.3279 F800
G1 X30.859 Y30.642 Z0.400 E39.3280 F800
G1 X30.845 Y30.840 Z0.400 E39.3319 F800
G1 X30.836 Y30.860 Z0.400 E39.3324 F800
G1 X30.820 Y30.871 Z0.400 E39.3328 F800
G1 X30.803 Y30.872 Z0.400 E39.3331 F800
G1 X30.618 Y30.880 Z0.400 E39.3368 F800
G1 X30.600 Y30.874 Z0.400 E39.3372 F800
G1 X30.579 Y30.854 Z0.400 E39.3378 F800
G1 X30.560 Y30.835 Z0.400 E39.3383 F800
G1 X29.289 Y29.354 Z0.400 E39.3773 F800
G1 X29.292 Y29.354 Z0.400 E39.3774 F800
G1 X29.279 Y29.332 Z0.400 E39.3779 F800
G1 X29.276 Y29.320 Z0.400 E39.3782 F800
G1 X29.272 Y29.297 Z0.400 E39.3786 F800
G1 X29.276 Y29.289 Z0.400 E39.3788 F800
G1 X29.294 Y29.292 Z0.400 E39.3792 F800
G1 X29.323 Y29.303 Z0.400 E39.3798 F800
G1 X30.818 Y30.582 Z0.400 E39.4191 F800
G1 X30.850 Y30.611 Z0.400 E39.4200 F800
G1 X30.856 Y30.621 Z0.400 E39.4202 F800
G1 X30.858 Y30.630 Z0.400 E39.4204 F800
G1 X30.858 Y30.644 Z0.400 E39.4207 F800
G1 X30.837 Y30.843 Z0.400 E39.4247 F800
G1 X30.834 Y30.852 Z0.400 E39.4249 F800
G1 X30.829 Y30.864 Z0.400 E39.4251 F800
G1 X30.817 Y30.870 Z0.400 E39.4254 F800
G1 X30.817 Y30.870 Z0.400 E39.4254 F800
G1 X30.619 Y30.878 Z0.400 E39.4294 F800
G1 X30.613 Y30.877 Z0.400 E39.4295 F800
G1 X30.606 Y30.875 Z0.400 E39.4297 F800
G1 X30.593 Y30.864 Z0.400 E39.4300 F800
G1 X30.572 Y30.847 Z0.400 E39.4305 F800
G1 X29.292 Y29.354 Z0.400 E39.4698 F800
G1 X29.293 Y29.353 Z0.400 E39.4699 F800
G1 X29.279 Y29.327 Z0.400 E39.4705 F800
G1 X29.276 Y29.319 Z0.400 E39.4706 F800
G1 X29.277 Y29.294 Z0.400 E39.4711 F800
G1 X29.291 Y29.293 Z0.400 E39.4714 F800
G1 X29.306 Y29.299 Z0.400 E39.4717 F800
G1 X29.325 Y29.309 Z0.400 E39.4722 F800
G1 X30.840 Y30.605 Z0.400 E39.5120 F800
G1 X30.846 Y30.610 Z0.400 E39.5122 F800
G1 X30.855 Y30.623 Z0.400 E39.5125 F800
G1 X30.857 Y30.638 Z0.400 E39.5128 F800
G1 X30.836 Y30.844 Z0.400 E39.5170 F800
G1 X30.832 Y30.855 Z0.400 E39.5172 F800
G1 X30.815 Y30.868 Z0.400 E39.5176 F800
G1 X30.808 Y30.869 Z0.400 E39.5178 F800
G1 X30.606 Y30.873 Z0.400 E39.5218 F800
G1 X30.598 Y30.866 Z0.400 E39.5220 F800
G1 X29.293 Y29.353 Z0.400 E39.5620 F800
G1 X29.525 Y29.622 Z0.400 E39.5691 F800
G1 X29.292 Y29.347 Z0.400 E39.5763 F800
G1 X29.281 Y29.329 Z0.400 E39.5767 F800
G1 X29.280 Y29.312 Z0.400 E39.5771 F800
G1 X29.280 Y29.306 Z0.400 E39.5772 F800
G1 X29.283 Y29.299 Z0.400 E39.5773 F800
G1 X29.293 Y29.297 Z0.400 E39.5775 F800
G1 X29.304 Y29.298 Z0.400 E39.5778 F800
G1 X29.331 Y29.315 Z0.400 E39.5784 F800
G1 X30.819 Y30.589 Z0.400 E39.6176 F800
G1 X30.841 Y30.609 Z0.400 E39.6182 F800
G1 X30.850 Y30.618 Z0.400 E39.6184 F800
G1 X30.856 Y30.631 Z0.400 E39.6187 F800
G1 X30.833 Y30.841 Z0.400 E39.6229 F800
G1 X30.816 Y30.866 Z0.400 E39.6235 F800
G1 X30.801 Y30.867 Z0.400 E39.6238 F800
G1 X30.601 Y30.864 Z0.400 E39.6278 F800
G1 X30.593 Y30.859 Z0.400 E39.6280 F800
G1 X30.584 Y30.851 Z0.400 E39.6283 F800
G1 X29.525 Y29.622 Z0.400 E39.6607 F800
G1 X29.509 Y29.600 Z0.400 E39.6612 F800
G1 X29.285 Y29.333 Z0.400 E39.6682 F800
G1 X29.284 Y29.300 Z0.400 E39.6689 F800
G1 X29.305 Y29.299 Z0.400 E39.6693 F800
G1 X29.312 Y29.304 Z0.400 E39.6695 F800
G1 X30.842 Y30.609 Z0.400 E39.7097 F800
G1 X30.843 Y30.612 Z0.400 E39.7097 F800
G1 X30.851 Y30.627 Z0.400 E39.7101 F800
G1 X30.854 Y30.633 Z0.400 E39.7102 F800
G1 X30.828 Y30.844 Z0.400 E39.7145 F800
G1 X30.824 Y30.854 Z0.400 E39.7147 F800
G1 X30.823 Y30.854 Z0.400 E39.7147 F800
G1 X30.815 Y30.862 Z0.400 E39.7149 F800
G1 X30.609 Y30.861 Z0.400 E39.7190 F800
G1 X30.605 Y30.859 Z0.400 E39.7191 F800
G1 X30.581 Y30.847 Z0.400 E39.7197 F800
G1 X29.509 Y29.600 Z0.400 E39.7525 F800
G1 X29.510 Y29.596 Z0.400 E39.7526 F800
G1 X29.293 Y29.342 Z0.400 E39.7593 F800
G1 X29.286 Y29.327 Z0.400 E39.7596 F800
G1 X29.285 Y29.323 Z0.400 E39.7597 F800
G1 X29.287 Y29.300 Z0.400 E39.7602 F800
G1 X29.295 Y29.300 Z0.400 E39.7603 F800
G1 X29.299 Y29.301 Z0.400 E39.7604 F800
G1 X29.309 Y29.302 Z0.400 E39.7606 F800
G1 X30.832 Y30.603 Z0.400 E39.8007 F800
G1 X30.851 Y30.627 Z0.400 E39.8013 F800
G1 X30.852 Y30.630 Z0.400 E39.8014 F800
G1 X30.851 Y30.639 Z0.400 E39.8015 F800
G1 X30.828 Y30.842 Z0.400 E39.8056 F800
G1 X30.819 Y30.856 Z0.400 E39.8059 F800
G1 X30.611 Y30.860 Z0.400 E39.8101 F800
G1 X30.597 Y30.854 Z0.400 E39.8104 F800
G1 X30.582 Y30.846 Z0.400 E39.8107 F800
G1 X29.510 Y29.596 Z0.400 E39.8437 F800
G1 X29.298 Y29.346 Z0.400 E39.8502 F800
G1 X29.291 Y29.329 Z0.400 E39.8506 F800
G1 X29.289 Y29.312 Z0.400 E39.8509 F800
G1 X29.290 Y29.303 Z0.400 E39.8511 F800
G1 X29.300 Y29.304 Z0.400 E39.8513 F800
G1 X29.313 Y29.308 Z0.400 E39.8516 F800
G1 X29.600 Y29.552 Z0.400 E39.8591 F800
G1 X30.824 Y30.599 Z0.400 E39.8914 F800
G1 X30.836 Y30.610 Z0.400 E39.8917 F800
G1 X30.848 Y30.626 Z0.400 E39.8921 F800
G1 X30.850 Y30.628 Z0.400 E39.8921 F800
G1 X30.850 Y30.631 Z0.400 E39.8922 F800
G1 X30.824 Y30.837 Z0.400 E39.8963 F800
G1 X30.617 Y30.856 Z0.400 E39.9005 F800
G1 X30.600 Y30.850 Z0.400 E39.9008 F800
G1 X30.593 Y30.845 Z0.400 E39.9010 F800
G1 X30.581 Y30.836 Z0.400 E39.9013 F800
G1 X29.298 Y29.346 Z0.400 E39.9406 F800
G1 X29.525 Y29.600 Z0.400 E39.9474 F800
G1 X29.303 Y29.342 Z0.400 E39.9542 F800
G1 X29.290 Y29.316 Z0.400 E39.9548 F800
G1 X29.295 Y29.303 Z0.400 E39.9551 F800
G1 X29.302 Y29.305 Z0.400 E39.9552 F800
G1 X29.317 Y29.312 Z0.400 E39.9556 F800
G1 X29.319 Y29.313 Z0.400 E39.9556 F800
G1 X30.834 Y30.612 Z0.400 E39.9955 F800
G1 X30.849 Y30.630 Z0.400 E39.9960 F800
G1 X30.848 Y30.643 Z0.400 E39.9963 F800
G1 X30.813 Y30.836 Z0.400 E40.0002 F800
G1 X30.617 Y30.847 Z0.400 E40.0041 F800
G1 X30.597 Y30.844 Z0.400 E40.0045 F800
G1 X29.525 Y29.600 Z0.400 E40.0374 F800
G1 X29.537 Y29.609 Z0.400 E40.0377 F800
G1 X29.306 Y29.343 Z0.400 E40.0447 F800
G1 X29.294 Y29.323 Z0.400 E40.0452 F800
G1 X29.294 Y29.310 Z0.400 E40.0455 F800
G1 X29.315 Y29.312 Z0.400 E40.0459 F800
G1 X29.338 Y29.331 Z0.400 E40.0465 F800
G1 X29.582 Y29.540 Z0.400 E40.0529 F800
G1 X30.817 Y30.600 Z0.400 E40.0854 F800
G1 X30.839 Y30.620 Z0.400 E40.0860 F800
G1 X30.846 Y30.627 Z0.400 E40.0862 F800
G1 X30.847 Y30.635 Z0.400 E40.0864 F800
G1 X30.846 Y30.648 Z0.400 E40.0866 F800
G1 X30.792 Y30.834 Z0.400 E40.0905 F800
G1 X30.609 Y30.845 Z0.400 E40.0942 F800
G1 X30.595 Y30.833 Z0.400 E40.0946 F800
G1 X29.537 Y29.609 Z0.400 E40.1269 F800
G1 X29.554 Y29.628 Z0.400 E40.1274 F800
G1 X29.305 Y29.337 Z0.400 E40.1351 F800
G1 X29.299 Y29.328 Z0.400 E40.1353 F800
G1 X29.301 Y29.313 Z0.400 E40.1356 F800
G1 X29.316 Y29.316 Z0.400 E40.1359 F800
G1 X29.338 Y29.334 Z0.400 E40.1365 F800
G1 X29.596 Y29.552 Z0.400 E40.1432 F800
G1 X30.835 Y30.617 Z0.400 E40.1759 F800
G1 X30.846 Y30.632 Z0.400 E40.1763 F800
G1 X30.846 Y30.634 Z0.400 E40.1763 F800
G1 X30.840 Y30.649 Z0.400 E40.1766 F800
G1 X30.829 Y30.664 Z0.400 E40.1770 F800
G1 X30.609 Y30.844 Z0.400 E40.1827 F800
G1 X29.554 Y29.628 Z0.400 E40.2149 F800
G1 X29.529 Y29.599 Z0.400 E40.2157 F800
G1 X29.314 Y29.339 Z0.400 E40.2224 F800
G1 X29.307 Y29.328 Z0.400 E40.2227 F800
G1 X29.307 Y29.320 Z0.400 E40.2228 F800
G1 X29.317 Y29.322 Z0.400 E40.2230 F800
G1 X29.575 Y29.536 Z0.400 E40.2297 F800
G1 X30.831 Y30.614 Z0.400 E40.2628 F800
G1 X30.846 Y30.634 Z0.400 E40.2633 F800
G1 X30.824 Y30.665 Z0.400 E40.2641 F800
G1 X30.615 Y30.834 Z0.400 E40.2695 F800
G1 X30.582 Y30.802 Z0.400 E40.2704 F800
G1 X29.529 Y29.599 Z0.400 E40.3024 F800
G1 X29.548 Y29.621 Z0.400 E40.3030 F800
G1 X29.523 Y29.591 Z0.400 E40.3038 F800
G1 X29.320 Y29.343 Z0.400 E40.3102 F800
G1 X29.310 Y29.327 Z0.400 E40.3105 F800
G1 X29.555 Y29.525 Z0.400 E40.3168 F800
G1 X30.832 Y30.617 Z0.400 E40.3505 F800
G1 X30.837 Y30.622 Z0.400 E40.3506 F800
G1 X30.838 Y30.623 Z0.400 E40.3506 F800
G1 X30.839 Y30.631 Z0.400 E40.3508 F800
G1 X30.832 Y30.653 Z0.400 E40.3512 F800
G1 X30.617 Y30.830 Z0.400 E40.3568 F800
G1 X29.548 Y29.621 Z0.400 E40.3891 F800
G1 X29.787 Y29.886 Z0.400 E40.3962 F800
G1 X29.532 Y29.595 Z0.400 E40.4040 F800
G1 X29.325 Y29.343 Z0.400 E40.4105 F800
G1 X29.585 Y29.551 Z0.400 E40.4171 F800
G1 X30.819 Y30.607 Z0.400 E40.4496 F800
G1 X30.835 Y30.622 Z0.400 E40.4501 F800
G1 X30.835 Y30.624 Z0.400 E40.4501 F800
G1 X30.828 Y30.636 Z0.400 E40.4504 F800
G1 X30.816 Y30.650 Z0.400 E40.4508 F800
G1 X30.803 Y30.652 Z0.400 E40.4510 F800
G1 X30.599 Y30.672 Z0.400 E40.4551 F800
G1 X30.553 Y30.652 Z0.400 E40.4561 F800
G1 X30.514 Y30.617 Z0.400 E40.4572 F800
G1 X30.033 Y30.142 Z0.400 E40.4707 F800
G1 X29.787 Y29.886 Z0.400 E40.4778 F800
G1 X29.764 Y29.855 Z0.400 E40.4786 F800
G1 X29.545 Y29.606 Z0.400 E40.4852 F800
G1 X29.505 Y29.559 Z0.400 E40.4864 F800
G1 X29.517 Y29.543 Z0.400 E40.4868 F800
G1 X29.534 Y29.530 Z0.400 E40.4873 F800
G1 X29.577 Y29.546 Z0.400 E40.4882 F800
G1 X30.797 Y30.589 Z0.400 E40.5203 F800
G1 X30.818 Y30.606 Z0.400 E40.5208 F800
G1 X30.827 Y30.618 Z0.400 E40.5211 F800
G1 X30.829 Y30.625 Z0.400 E40.5213 F800
G1 X30.822 Y30.641 Z0.400 E40.5216 F800
G1 X30.818 Y30.646 Z0.400 E40.5217 F800
G1 X30.605 Y30.661 Z0.400 E40.5260 F800
G1 X30.557 Y30.653 Z0.400 E40.5270 F800
G1 X30.281 Y30.386 Z0.400 E40.5347 F800
G1 X30.035 Y30.136 Z0.400 E40.5417 F800
G1 X29.764 Y29.855 Z0.400 E40.5495 F800
G1 X29.760 Y29.850 Z0.400 E40.5496 F800
G1 X29.538 Y29.596 Z0.400 E40.5564 F800
G1 X29.517 Y29.571 Z0.400 E40.5570 F800
G1 X29.516 Y29.546 Z0.400 E40.5575 F800
G1 X29.519 Y29.543 Z0.400 E40.5576 F800
G1 X29.555 Y29.547 Z0.400 E40.5583 F800
G1 X29.577 Y29.551 Z0.400 E40.5588 F800
G1 X29.596 Y29.565 Z0.400 E40.5592 F800
G1 X30.815 Y30.608 Z0.400 E40.5913 F800
G1 X30.823 Y30.628 Z0.400 E40.5918 F800
G1 X30.819 Y30.640 Z0.400 E40.5920 F800
G1 X30.809 Y30.644 Z0.400 E40.5922 F800
G1 X30.603 Y30.651 Z0.400 E40.5964 F800
G1 X30.565 Y30.637 Z0.400 E40.5972 F800
G1 X30.549 Y30.631 Z0.400 E40.5975 F800
G1 X30.319 Y30.422 Z0.400 E40.6037 F800
G1 X30.278 Y30.382 Z0.400 E40.6049 F800
G1 X30.032 Y30.130 Z0.400 E40.6119 F800
G1 X29.760 Y29.850 Z0.400 E40.6197 F800
G1 X29.770 Y29.857 Z0.400 E40.6200 F800
G1 X29.533 Y29.585 Z0.400 E40.6272 F800
G1 X29.520 Y29.570 Z0.400 E40.6276 F800
G1 X29.527 Y29.552 Z0.400 E40.6280 F800
G1 X29.556 Y29.550 Z0.400 E40.6285 F800
G1 X29.580 Y29.554 Z0.400 E40.6290 F800
G1 X30.817 Y30.612 Z0.400 E40.6616 F800
G1 X30.817 Y30.637 Z0.400 E40.6621 F800
G1 X30.808 Y30.642 Z0.400 E40.6623 F800
G1 X30.623 Y30.646 Z0.400 E40.6660 F800
G1 X30.599 Y30.645 Z0.400 E40.6665 F800
G1 X30.576 Y30.640 Z0.400 E40.6669 F800
G1 X30.542 Y30.621 Z0.400 E40.6677 F800
G1 X30.317 Y30.407 Z0.400 E40.6739 F800
G1 X30.055 Y30.148 Z0.400 E40.6813 F800
G1 X29.770 Y29.857 Z0.400 E40.6894 F800
G1 X29.766 Y29.847 Z0.400 E40.6897 F800
G1 X29.539 Y29.592 Z0.400 E40.6965 F800
G1 X29.529 Y29.574 Z0.400 E40.6969 F800
G1 X29.532 Y29.554 Z0.400 E40.6973 F800
G1 X29.547 Y29.551 Z0.400 E40.6976 F800
G1 X29.560 Y29.552 Z0.400 E40.6979 F800
G1 X29.582 Y29.559 Z0.400 E40.6983 F800
G1 X29.592 Y29.564 Z0.400 E40.6985 F800
G1 X30.816 Y30.612 Z0.400 E40.7308 F800
G1 X30.816 Y30.630 Z0.400 E40.7312 F800
G1 X30.813 Y30.636 Z0.400 E40.7313 F800
G1 X30.612 Y30.639 Z0.400 E40.7353 F800
G1 X30.574 Y30.639 Z0.400 E40.7361 F800
G1 X30.531 Y30.600 Z0.400 E40.7372 F800
G1 X30.317 Y30.405 Z0.400 E40.7430 F800
G1 X30.294 Y30.382 Z0.400 E40.7437 F800
G1 X30.027 Y30.113 Z0.400 E40.7512 F800
G1 X29.766 Y29.847 Z0.400 E40.7587 F800
G1 X29.779 Y29.852 Z0.400 E40.7590 F800
G1 X29.543 Y29.594 Z0.400 E40.7660 F800
G1 X29.532 Y29.578 Z0.400 E40.7664 F800
G1 X29.532 Y29.570 Z0.400 E40.7665 F800
G1 X29.536 Y29.563 Z0.400 E40.7667 F800
G1 X29.541 Y29.557 Z0.400 E40.7668 F800
G1 X29.551 Y29.553 Z0.400 E40.7670 F800
G1 X29.582 Y29.561 Z0.400 E40.7677 F800
G1 X29.598 Y29.572 Z0.400 E40.7681 F800
G1 X30.783 Y30.588 Z0.400 E40.7993 F800
G1 X30.815 Y30.624 Z0.400 E40.8003 F800
G1 X30.806 Y30.635 Z0.400 E40.8005 F800
G1 X30.580 Y30.639 Z0.400 E40.8051 F800
G1 X30.557 Y30.620 Z0.400 E40.8057 F800
G1 X30.299 Y30.384 Z0.400 E40.8127 F800
G1 X30.260 Y30.345 Z0.400 E40.8138 F800
G1 X30.035 Y30.120 Z0.400 E40.8201 F800
G1 X29.779 Y29.852 Z0.400 E40.8275 F800
G1 X29.789 Y29.862 Z0.400 E40.8278 F800
G1 X29.777 Y29.849 Z0.400 E40.8282 F800
G1 X29.561 Y29.613 Z0.400 E40.8346 F800
G1 X29.535 Y29.581 Z0.400 E40.8354 F800
G1 X29.540 Y29.562 Z0.400 E40.8358 F800
G1 X29.544 Y29.559 Z0.400 E40.8359 F800
G1 X29.555 Y29.558 Z0.400 E40.8361 F800
G1 X29.567 Y29.558 Z0.400 E40.8364 F800
G1 X29.593 Y29.576 Z0.400 E40.8370 F800
G1 X29.837 Y29.783 Z0.400 E40.8434 F800
G1 X30.804 Y30.616 Z0.400 E40.8689 F800
G1 X30.809 Y30.622 Z0.400 E40.8691 F800
G1 X30.800 Y30.623 Z0.400 E40.8692 F800
G1 X30.586 Y30.635 Z0.400 E40.8735 F800
G1 X30.579 Y30.634 Z0.400 E40.8737 F800
G1 X30.568 Y30.628 Z0.400 E40.8739 F800
G1 X30.337 Y30.410 Z0.400 E40.8803 F800
G1 X30.036 Y30.113 Z0.400 E40.8887 F800
G1 X29.789 Y29.862 Z0.400 E40.8958 F800
G1 X29.809 Y29.878 Z0.400 E40.8963 F800
G1 X29.772 Y29.839 Z0.400 E40.8974 F800
G1 X29.566 Y29.615 Z0.400 E40.9034 F800
G1 X29.537 Y29.580 Z0.400 E40.9044 F800
G1 X29.542 Y29.562 Z0.400 E40.9047 F800
G1 X29.548 Y29.562 Z0.400 E40.9049 F800
G1 X29.551 Y29.562 Z0.400 E40.9049 F800
G1 X29.576 Y29.564 Z0.400 E40.9054 F800
G1 X29.609 Y29.592 Z0.400 E40.9063 F800
G1 X29.847 Y29.802 Z0.400 E40.9126 F800
G1 X30.122 Y30.068 Z0.400 E40.9203 F800
G1 X30.627 Y30.574 Z0.400 E40.9346 F800
G1 X30.638 Y30.589 Z0.400 E40.9349 F800
G1 X30.625 Y30.623 Z0.400 E40.9357 F800
G1 X30.619 Y30.629 Z0.400 E40.9358 F800
G1 X30.614 Y30.630 Z0.400 E40.9359 F800
G1 X30.603 Y30.633 Z0.400 E40.9362 F800
G1 X30.596 Y30.634 Z0.400 E40.9363 F800
G1 X30.582 Y30.633 Z0.400 E40.9366 F800
G1 X30.567 Y30.622 Z0.400 E40.9370 F800
G1 X30.557 Y30.615 Z0.400 E40.9372 F800
G1 X30.552 Y30.611 Z0.400 E40.9373 F800
G1 X30.302 Y30.372 Z0.400 E40.9443 F800
G1 X30.034 Y30.107 Z0.400 E40.9518 F800
G1 X29.809 Y29.878 Z0.400 E40.9582 F800
G1 X29.773 Y29.839 Z0.400 E40.9593 F800
G1 X29.540 Y29.579 Z0.400 E40.9663 F800
G1 X29.542 Y29.572 Z0.400 E40.9664 F800
G1 X29.559 Y29.564 Z0.400 E40.9668 F800
G1 X29.566 Y29.564 Z0.400 E40.9669 F800
G1 X29.843 Y29.800 Z0.400 E40.9742 F800
G1 X30.108 Y30.058 Z0.400 E40.9816 F800
G1 X30.326 Y30.284 Z0.400 E40.9879 F800
G1 X30.621 Y30.592 Z0.400 E40.9964 F800
G1 X30.615 Y30.628 Z0.400 E40.9971 F800
G1 X30.611 Y30.630 Z0.400 E40.9972 F800
G1 X30.602 Y30.633 Z0.400 E40.9974 F800
G1 X30.592 Y30.633 Z0.400 E40.9976 F800
G1 X30.582 Y30.632 Z0.400 E40.9978 F800
G1 X30.533 Y30.592 Z0.400 E40.9991 F800
G1 X30.040 Y30.113 Z0.400 E41.0128 F800
G1 X29.773 Y29.839 Z0.400 E41.0205 F800
G1 X29.796 Y29.861 Z0.400 E41.0211 F800
G1 X29.561 Y29.601 Z0.400 E41.0281 F800
G1 X29.540 Y29.577 Z0.400 E41.0287 F800
G1 X29.551 Y29.572 Z0.400 E41.0290 F800
G1 X29.567 Y29.565 Z0.400 E41.0293 F800
G1 X29.833 Y29.792 Z0.400 E41.0363 F800
G1 X30.085 Y30.040 Z0.400 E41.0434 F800
G1 X30.369 Y30.331 Z0.400 E41.0515 F800
G1 X30.611 Y30.581 Z0.400 E41.0585 F800
G1 X30.619 Y30.598 Z0.400 E41.0589 F800
G1 X30.603 Y30.632 Z0.400 E41.0596 F800
G1 X30.603 Y30.632 Z0.400 E41.0596 F800
G1 X30.592 Y30.630 Z0.400 E41.0599 F800
G1 X30.581 Y30.626 Z0.400 E41.0601 F800
G1 X30.559 Y30.611 Z0.400 E41.0606 F800
G1 X30.539 Y30.596 Z0.400 E41.0611 F800
G1 X30.281 Y30.347 Z0.400 E41.0683 F800
G1 X30.015 Y30.085 Z0.400 E41.0758 F800
G1 X29.796 Y29.861 Z0.400 E41.0820 F800
G1 X29.799 Y29.863 Z0.400 E41.0821 F800
G1 X29.571 Y29.611 Z0.400 E41.0889 F800
G1 X29.545 Y29.582 Z0.400 E41.0897 F800
G1 X29.558 Y29.571 Z0.400 E41.0900 F800
G1 X29.587 Y29.585 Z0.400 E41.0907 F800
G1 X29.599 Y29.593 Z0.400 E41.0910 F800
G1 X29.842 Y29.806 Z0.400 E41.0974 F800
G1 X30.089 Y30.052 Z0.400 E41.1044 F800
G1 X30.355 Y30.320 Z0.400 E41.1120 F800
G1 X30.612 Y30.587 Z0.400 E41.1194 F800
G1 X30.612 Y30.597 Z0.400 E41.1196 F800
G1 X30.608 Y30.615 Z0.400 E41.1199 F800
G1 X30.604 Y30.625 Z0.400 E41.1202 F800
G1 X30.593 Y30.627 Z0.400 E41.1204 F800
G1 X30.573 Y30.620 Z0.400 E41.1208 F800
G1 X30.549 Y30.602 Z0.400 E41.1214 F800
G1 X30.314 Y30.379 Z0.400 E41.1279 F800
G1 X30.030 Y30.100 Z0.400 E41.1358 F800
G1 X29.799 Y29.863 Z0.400 E41.1425 F800
G1 X29.797 Y29.860 Z0.400 E41.1425 F800
G1 X29.548 Y29.584 Z0.400 E41.1500 F800
G1 X29.557 Y29.573 Z0.400 E41.1503 F800
G1 X29.565 Y29.576 Z0.400 E41.1504 F800
G1 X29.570 Y29.579 Z0.400 E41.1506 F800
G1 X29.592 Y29.590 Z0.400 E41.1510 F800
G1 X29.809 Y29.780 Z0.400 E41.1568 F800
G1 X29.844 Y29.813 Z0.400 E41.1578 F800
G1 X30.094 Y30.061 Z0.400 E41.1648 F800
G1 X30.354 Y30.324 Z0.400 E41.1722 F800
G1 X30.602 Y30.579 Z0.400 E41.1793 F800
G1 X30.608 Y30.611 Z0.400 E41.1800 F800
G1 X30.604 Y30.621 Z0.400 E41.1802 F800
G1 X30.589 Y30.625 Z0.400 E41.1805 F800
G1 X30.579 Y30.621 Z0.400 E41.1807 F800
G1 X30.553 Y30.602 Z0.400 E41.1814 F800
G1 X30.318 Y30.382 Z0.400 E41.1878 F800
G1 X30.050 Y30.120 Z0.400 E41.1953 F800
G1 X29.797 Y29.860 Z0.400 E41.2026 F800
G1 X29.814 Y29.875 Z0.400 E41.2030 F800
G1 X29.773 Y29.833 Z0.400 E41.2042 F800
G1 X29.548 Y29.584 Z0.400 E41.2109 F800
G1 X29.555 Y29.578 Z0.400 E41.2111 F800
G1 X29.560 Y29.578 Z0.400 E41.2112 F800
G1 X29.573 Y29.582 Z0.400 E41.2114 F800
G1 X29.577 Y29.583 Z0.400 E41.2115 F800
G1 X29.582 Y29.586 Z0.400 E41.2116 F800
G1 X29.843 Y29.811 Z0.400 E41.2185 F800
G1 X30.087 Y30.055 Z0.400 E41.2254 F800
G1 X30.346 Y30.317 Z0.400 E41.2328 F800
G1 X30.592 Y30.582 Z0.400 E41.2400 F800
G1 X30.600 Y30.592 Z0.400 E41.2403 F800
G1 X30.607 Y30.613 Z0.400 E41.2407 F800
G1 X30.602 Y30.618 Z0.400 E41.2409 F800
G1 X30.590 Y30.624 Z0.400 E41.2411 F800
G1 X30.586 Y30.622 Z0.400 E41.2412 F800
G1 X30.572 Y30.615 Z0.400 E41.2415 F800
G1 X30.302 Y30.364 Z0.400 E41.2489 F800
G1 X30.071 Y30.139 Z0.400 E41.2554 F800
G1 X30.029 Y30.096 Z0.400 E41.2566 F800
G1 X29.814 Y29.875 Z0.400 E41.2627 F800
G1 X29.786 Y29.844 Z0.400 E41.2636 F800
G1 X29.556 Y29.592 Z0.400 E41.2704 F800
G1 X29.557 Y29.581 Z0.400 E41.2706 F800
G1 X29.569 Y29.582 Z0.400 E41.2708 F800
G1 X29.575 Y29.583 Z0.400 E41.2710 F800
G1 X29.834 Y29.809 Z0.400 E41.2778 F800
G1 X29.836 Y29.811 Z0.400 E41.2779 F800
G1 X30.108 Y30.078 Z0.400 E41.2855 F800
G1 X30.365 Y30.339 Z0.400 E41.2929 F800
G1 X30.581 Y30.575 Z0.400 E41.2992 F800
G1 X30.597 Y30.593 Z0.400 E41.2997 F800
G1 X30.599 Y30.600 Z0.400 E41.2999 F800
G1 X30.603 Y30.615 Z0.400 E41.3002 F800
G1 X30.592 Y30.618 Z0.400 E41.3004 F800
G1 X30.588 Y30.619 Z0.400 E41.3005 F800
G1 X30.587 Y30.619 Z0.400 E41.3005 F800
G1 X30.568 Y30.610 Z0.400 E41.3009 F800
G1 X30.561 Y30.604 Z0.400 E41.3011 F800
G1 X30.334 Y30.393 Z0.400 E41.3073 F800
G1 X30.288 Y30.349 Z0.400 E41.3086 F800
G1 X30.033 Y30.100 Z0.400 E41.3157 F800
G1 X29.786 Y29.844 Z0.400 E41.3229 F800
G1 X29.791 Y29.848 Z0.400 E41.3230 F800
G1 X29.575 Y29.613 Z0.400 E41.3294 F800
G1 X29.563 Y29.599 Z0.400 E41.3297 F800
G1 X29.560 Y29.594 Z0.400 E41.3298 F800
G1 X29.558 Y29.590 Z0.400 E41.3299 F800
G1 X29.557 Y29.585 Z0.400 E41.3300 F800
G1 X29.560 Y29.584 Z0.400 E41.3301 F800
G1 X29.572 Y29.583 Z0.400 E41.3303 F800
G1 X29.575 Y29.584 Z0.400 E41.3304 F800
G1 X29.832 Y29.807 Z0.400 E41.3372 F800
G1 X30.115 Y30.086 Z0.400 E41.3452 F800
G1 X30.345 Y30.319 Z0.400 E41.3517 F800
G1 X30.588 Y30.585 Z0.400 E41.3589 F800
G1 X30.596 Y30.598 Z0.400 E41.3592 F800
G1 X30.600 Y30.607 Z0.400 E41.3594 F800
G1 X30.600 Y30.613 Z0.400 E41.3595 F800
G1 X30.588 Y30.616 Z0.400 E41.3598 F800
G1 X30.559 Y30.601 Z0.400 E41.3604 F800
G1 X30.293 Y30.353 Z0.400 E41.3677 F800
G1 X30.069 Y30.135 Z0.400 E41.3740 F800
G1 X30.028 Y30.094 Z0.400 E41.3751 F800
G1 X29.791 Y29.848 Z0.400 E41.3820 F800
G1 X29.804 Y29.860 Z0.400 E41.3823 F800
G1 X29.791 Y29.847 Z0.400 E41.3827 F800
G1 X29.569 Y29.606 Z0.400 E41.3893 F800
G1 X29.560 Y29.590 Z0.400 E41.3896 F800
G1 X29.564 Y29.586 Z0.400 E41.3897 F800
G1 X29.569 Y29.584 Z0.400 E41.3898 F800
G1 X29.570 Y29.585 Z0.400 E41.3899 F800
G1 X29.826 Y29.804 Z0.400 E41.3966 F800
G1 X30.089 Y30.061 Z0.400 E41.4039 F800
G1 X30.342 Y30.318 Z0.400 E41.4112 F800
G1 X30.591 Y30.592 Z0.400 E41.4186 F800
G1 X30.598 Y30.610 Z0.400 E41.4190 F800
G1 X30.593 Y30.611 Z0.400 E41.4191 F800
G1 X30.582 Y30.607 Z0.400 E41.4193 F800
G1 X30.562 Y30.599 Z0.400 E41.4197 F800
G1 X30.293 Y30.352 Z0.400 E41.4270 F800
G1 X30.065 Y30.130 Z0.400 E41.4334 F800
G1 X29.804 Y29.860 Z0.400 E41.4409 F800
G1 X29.796 Y29.853 Z0.400 E41.4411 F800
G1 X29.569 Y29.605 Z0.400 E41.4478 F800
G1 X29.565 Y29.595 Z0.400 E41.4481 F800
G1 X29.565 Y29.586 Z0.400 E41.4482 F800
G1 X29.579 Y29.593 Z0.400 E41.4486 F800
G1 X29.583 Y29.596 Z0.400 E41.4487 F800
G1 X29.836 Y29.814 Z0.400 E41.4553 F800
G1 X30.072 Y30.045 Z0.400 E41.4620 F800
G1 X30.359 Y30.337 Z0.400 E41.4701 F800
G1 X30.592 Y30.596 Z0.400 E41.4771 F800
G1 X30.590 Y30.610 Z0.400 E41.4774 F800
G1 X30.574 Y30.602 Z0.400 E41.4778 F800
G1 X30.572 Y30.601 Z0.400 E41.4778 F800
G1 X30.553 Y30.584 Z0.400 E41.4783 F800
G1 X30.328 Y30.383 Z0.400 E41.4843 F800
G1 X30.290 Y30.348 Z0.400 E41.4854 F800
G1 X30.268 Y30.327 Z0.400 E41.4860 F800
G1 X30.066 Y30.130 Z0.400 E41.4916 F800
G1 X29.796 Y29.853 Z0.400 E41.4994 F800
G1 X29.821 Y29.878 Z0.400 E41.5001 F800
G1 X29.772 Y29.826 Z0.400 E41.5015 F800
G1 X29.566 Y29.596 Z0.400 E41.5077 F800
G1 X29.566 Y29.594 Z0.400 E41.5077 F800
G1 X29.566 Y29.590 Z0.400 E41.5078 F800
G1 X29.583 Y29.596 Z0.400 E41.5082 F800
G1 X29.830 Y29.809 Z0.400 E41.5147 F800
G1 X30.090 Y30.063 Z0.400 E41.5220 F800
G1 X30.345 Y30.324 Z0.400 E41.5293 F800
G1 X30.560 Y30.561 Z0.400 E41.5357 F800
G1 X30.583 Y30.587 Z0.400 E41.5364 F800
G1 X30.589 Y30.600 Z0.400 E41.5366 F800
G1 X30.569 Y30.595 Z0.400 E41.5371 F800
G1 X30.339 Y30.392 Z0.400 E41.5432 F800
G1 X30.293 Y30.351 Z0.400 E41.5444 F800
G1 X30.068 Y30.131 Z0.400 E41.5507 F800
G1 X30.050 Y30.112 Z0.400 E41.5512 F800
G1 X30.029 Y30.091 Z0.400 E41.5518 F800
G1 X29.821 Y29.878 Z0.400 E41.5578 F800
G1 X29.795 Y29.848 Z0.400 E41.5586 F800
G1 X29.569 Y29.598 Z0.400 E41.5653 F800
G1 X29.568 Y29.595 Z0.400 E41.5654 F800
G1 X29.587 Y29.605 Z0.400 E41.5658 F800
G1 X29.825 Y29.805 Z0.400 E41.5720 F800
G1 X30.067 Y30.043 Z0.400 E41.5788 F800
G1 X30.343 Y30.323 Z0.400 E41.5867 F800
G1 X30.570 Y30.581 Z0.400 E41.5935 F800
G1 X30.577 Y30.591 Z0.400 E41.5938 F800
G1 X30.563 Y30.586 Z0.400 E41.5941 F800
G1 X30.557 Y30.583 Z0.400 E41.5942 F800
G1 X30.541 Y30.569 Z0.400 E41.5946 F800
G1 X30.297 Y30.352 Z0.400 E41.6012 F800
G1 X30.069 Y30.130 Z0.400 E41.6075 F800
G1 X30.035 Y30.095 Z0.400 E41.6085 F800
G1 X29.795 Y29.848 Z0.400 E41.6154 F800
G1 X29.792 Y29.844 Z0.400 E41.6155 F800
G1 X29.576 Y29.604 Z0.400 E41.6220 F800
G1 X29.576 Y29.602 Z0.400 E41.6220 F800
G1 X29.580 Y29.603 Z0.400 E41.6221 F800
G1 X29.833 Y29.814 Z0.400 E41.6287 F800
G1 X30.080 Y30.057 Z0.400 E41.6356 F800
G1 X30.098 Y30.075 Z0.400 E41.6361 F800
G1 X30.339 Y30.319 Z0.400 E41.6430 F800
G1 X30.355 Y30.336 Z0.400 E41.6434 F800
G1 X30.547 Y30.564 Z0.400 E41.6494 F800
G1 X30.563 Y30.585 Z0.400 E41.6499 F800
G1 X30.332 Y30.381 Z0.400 E41.6561 F800
G1 X30.305 Y30.357 Z0.400 E41.6568 F800
G1 X30.280 Y30.333 Z0.400 E41.6575 F800
G1 X30.057 Y30.114 Z0.400 E41.6638 F800
G1 X30.035 Y30.092 Z0.400 E41.6644 F800
G1 X29.792 Y29.844 Z0.400 E41.6713 F800
G1 X29.807 Y29.859 Z0.400 E41.6717 F800
G1 X29.790 Y29.840 Z0.400 E41.6722 F800
G1 X29.582 Y29.609 Z0.400 E41.6785 F800
G1 X29.829 Y29.813 Z0.400 E41.6849 F800
G1 X30.090 Y30.069 Z0.400 E41.6922 F800
G1 X30.333 Y30.314 Z0.400 E41.6991 F800
G1 X30.360 Y30.342 Z0.400 E41.6999 F800
G1 X30.371 Y30.363 Z0.400 E41.7003 F800
G1 X30.360 Y30.397 Z0.400 E41.7011 F800
G1 X30.332 Y30.379 Z0.400 E41.7017 F800
G1 X30.308 Y30.358 Z0.400 E41.7024 F800
G1 X30.056 Y30.113 Z0.400 E41.7094 F800
G1 X30.027 Y30.084 Z0.400 E41.7102 F800
G1 X29.807 Y29.859 Z0.400 E41.7165 F800

G92 E0
G1 E-1 F1800 ; retract
G1 Z5 F3000 ; move Z up
M104 S0 ; turn off extruder
M140 S0 ; turn off bed
M107 ; turn off fan
G28 X0 Y0 ; home XY axes
M84 ; disable motors
; End of print